,TournamentID,TournamentName,StartDate,EndDate,IsOver,IsInProgress,CourseName,Location,Par,Yards,Purse,StartDateTime,Canceled,Covered,City,State,ZipCode,Country,TimeZone,Format,SportRadarTournamentID,OddsCoverage,tournamentName_Clean,tournamentName,courseName,courseLocation
0,625,Ryder Cup,2025-09-28,2025-09-30,False,False,Bethpage Black,"Farmingdale, NY",70.0,7459.0,,,False,False,,,,,,TeamMatch,,Limited,The Ryder Cup,,Bethpage State Park,"Bethpage, NY"
1,576,The Presidents Cup,2024-09-26,2024-09-29,False,False,The Royal Montreal Golf Club,Montreal,,,,,False,False,Quebec,,,Canada,,TeamMatch,,Limited,The Presidents Cup,,The Royal Montreal Golf Club,Montreal
2,614,TOUR Championship,2024-08-29,2024-09-01,False,False,East Lake Golf Club,"Atlanta, GA",70.0,7346.0,,,False,True,Atlanta,GA,,USA,America/New York,Stroke,,Full,The TOUR Championship,TOUR Championship,East Lake Golf Club,"Atlanta, GA"
3,613,BMW Championship,2024-08-22,2024-08-25,False,False,Castle Pines Golf Club,"Castle Rock, CO",,,20000000.0,,False,True,Castle Rock,CO,,USA,America/Denver,Stroke,,Full,BMW PGA Championship,BMW Championship,Castle Pines Golf Club,"Castle Rock, CO"
4,612,FedEx St. Jude Championship,2024-08-15,2024-08-18,False,False,TPC Southwind,"Memphis, TN",70.0,7243.0,20000000.0,,False,True,Memphis,TN,,USA,America/Chicago,Stroke,,Full,St. Jude Championship,FedEx St. Jude Championship,TPC Southwind,"Memphis, TN"
5,611,Wyndham Championship,2024-08-08,2024-08-11,False,False,Sedgefield Country Club,"Greensboro, NC",70.0,7131.0,7900000.0,,False,True,Greensboro,NC,,USA,America/New York,Stroke,,Full,Wyndham Championship,Wyndham Championship,Sedgefield Country Club,"Greensboro, NC"
6,626,Olympic Men's Golf Competition,2024-08-01,2024-08-04,False,False,Le Golf National,"Paris, Fra",71.0,7214.0,,,,True,Paris,,,FRA,Europe/Paris,Stroke,,Full,Olympic Men's Golf Competition,,Le Golf National,"Paris, France"
7,610,3M Open,2024-07-25,2024-07-28,False,False,TPC Twin Cities,"Blaine, MN",71.0,7431.0,8300000.0,,False,True,Blaine,MN,,USA,America/Chicago,Stroke,,Full,3M Open,3M Open,TPC Twin Cities,"Blaine, MN"
8,581,The Open,2024-07-18,2024-07-21,False,False,Royal Troon Golf Course,"Troon, Scotland",71.0,7190.0,,,False,True,"Troon, South Ayrshire",,,SCO,Europe/London,Stroke,,Full,The Open Championship,The Open,Royal Troon Golf Course,"Troon, Scotland"
9,609,Barracuda Championship,2024-07-18,2024-07-21,False,False,Tahoe Mountain Club (Old Greenwood),"Truckee, CA",71.0,7480.0,4000000.0,,False,False,Truckee,CA,,USA,America/Los Angeles,Stableford,,Limited,Barracuda Championship,Barracuda Championship,Tahoe Mountain Club (Old Greenwood),"Truckee, CA"
10,627,Kentucky Championship,2024-07-11,2024-07-14,False,False,Keene Trace Golf Club (Champions Course),"Nicholasville, KY",72.0,7328.0,4000000.0,,False,True,Nicholasville,KY,,USA,America/New York,Stroke,,Full,Barbasol Championship,Kentucky Championship,Keene Trace Golf Club (Champions Course),"Nicholasville, KY"
11,608,Genesis Scottish Open,2024-07-11,2024-07-14,False,False,The Renaissance Club,"North Berwick, Scotland",70.0,7237.0,9000000.0,,False,True,North Berwick,,,SCO,Europe/London,Stroke,,Full,Genesis Scottish Open,Genesis Scottish Open,The Renaissance Club,"North Berwick, Scotland"
12,607,John Deere Classic,2024-07-04,2024-07-07,False,False,TPC Deere Run,"Silvis, IL",71.0,7268.0,7800000.0,,False,True,Silvis,IL,,USA,America/Chicago,Stroke,,Full,John Deere Classic,John Deere Classic,TPC Deere Run,"Silvis, IL"
13,606,Rocket Mortgage Classic,2024-06-27,2024-06-30,False,False,Detroit Golf Club,"Detroit, MI",72.0,7340.0,9200000.0,,False,True,Detroit,MI,,USA,America/New York,Stroke,,Full,Rocket Mortgage Classic,Rocket Mortgage Classic,Detroit Golf Club,"Detroit, MI"
14,605,Travelers Championship,2024-06-20,2024-06-23,False,False,TPC River Highlands,"Cromwell, CT",70.0,6841.0,20000000.0,,False,True,Cromwell,CT,,USA,America/New York,Stroke,,Full,Travelers Championship,Travelers Championship,TPC River Highlands,"Cromwell, CT"
15,578,U.S. Open,2024-06-13,2024-06-16,False,False,Pinehurst No. 2,"Pinehurst, NC",70.0,6649.0,,,False,True,Village of Pinehurst,NC,,USA,America/New York,Stroke,,Full,U.S. Open,U.S. Open,Pinehurst No. 2,"Pinehurst, NC"
16,604,the Memorial Tournament pres. by Workday,2024-06-06,2024-06-09,False,False,Muirfield Village Golf Club,"Dublin, OH",72.0,7392.0,20000000.0,,False,True,Dublin,OH,,USA,America/New York,Stroke,,Full,Memorial Tournament,the Memorial Tournament pres. by Workday,Muirfield Village Golf Club,"Dublin, OH"
17,603,RBC Canadian Open,2024-05-30,2024-06-02,False,False,Hamilton Golf & Country Club,"Hamilton, ON",70.0,6966.0,9400000.0,,False,True,"Hamilton, ON",,,CAN,America/Toronto,Stroke,,Full,RBC Canadian Open,RBC Canadian Open,Hamilton Golf & Country Club,"Hamilton, ON"
18,602,Charles Schwab Challenge,2024-05-23,2024-05-26,False,False,Colonial Country Club,"Fort Worth, TX",70.0,7209.0,9100000.0,,False,True,Fort Worth,TX,,USA,America/Chicago,Stroke,,Full,Charles Schwab Challenge,Charles Schwab Challenge,Colonial Country Club,"Fort Worth, TX"
19,577,PGA Championship,2024-05-16,2024-05-19,False,False,Valhalla Golf Club,"Louisville, KY",71.0,7458.0,,,False,True,Louisville,KY,,USA,America/New York,Stroke,,Full,PGA Championship,PGA Championship,Valhalla Golf Club,"Louisville, KY"
20,600,Myrtle Beach Classic,2024-05-09,2024-05-12,False,False,Dunes Golf & Beach Club,"Myrtle Beach, SC",,,4000000.0,,False,True,Myrtle Beach,SC,,USA,America/New York,Stroke,,Full,Myrtle Beach Classic,Myrtle Beach Classic,Dunes Golf & Beach Club,"Myrtle Beach, SC"
21,601,Wells Fargo Championship,2024-05-09,2024-05-12,False,False,Quail Hollow Club,"Charlotte, NC",71.0,7521.0,20000000.0,,False,True,Charlotte,NC,,USA,America/New York,Stroke,,Full,Wells Fargo Championship,Wells Fargo Championship,Quail Hollow Club,"Charlotte, NC"
22,599,CJ Cup Byron Nelson,2024-05-02,2024-05-05,False,False,TPC Craig Ranch,"McKinney, TX",72.0,7468.0,9500000.0,,False,True,McKinney,TX,,USA,America/Chicago,Stroke,,Full,AT&T Byron Nelson,CJ Cup Byron Nelson,TPC Craig Ranch,"McKinney, TX"
23,598,Zurich Classic of New Orleans,2024-04-25,2024-04-28,False,False,TPC Louisiana,"Avondale, LA",72.0,7425.0,8900000.0,,False,False,Avondale,LA,,USA,America/Chicago,Team,,Limited,Zurich Classic of New Orleans,Zurich Classic of New Orleans,TPC Louisiana,"Avondale, LA"
24,597,RBC Heritage,2024-04-18,2024-04-21,False,False,Harbour Town Golf Links,"Hilton Head Island, SC",71.0,7191.0,20000000.0,,False,True,Hilton Head Island,SC,,USA,America/New York,Stroke,,Full,RBC Heritage,RBC Heritage,Harbour Town Golf Links,"Hilton Head Island, SC"
25,596,Corales Puntacana Championship,2024-04-18,2024-04-21,False,False,Puntacana Resort & Club (Corales Golf Course),"Punta Cana, Dominican Republic",72.0,7670.0,4000000.0,,False,True,Punta Cana,,,DOM,America/Dominica,Stroke,,Full,Corales Puntacana Championship,Corales Puntacana Championship,Puntacana Resort & Club (Corales Golf Course),"Punta Cana, Dominican Republic"
26,575,Masters Tournament,2024-04-11,2024-04-14,False,False,Augusta National Golf Club,"Augusta, GA",72.0,7555.0,,,False,True,Augusta,GA,,USA,America/New York,Stroke,,Full,The Masters Tournament,Masters Tournament,Augusta National Golf Club,"Augusta, GA"
27,595,Valero Texas Open,2024-04-04,2024-04-07,False,False,TPC San Antonio (Oaks Course),"San Antonio, TX",72.0,7494.0,9200000.0,,False,True,San Antonio,TX,,USA,America/Chicago,Stroke,,Full,Valero Texas Open,Valero Texas Open,TPC San Antonio (Oaks Course),"San Antonio, TX"
28,615,Texas Children's Houston Open,2024-03-28,2024-03-31,False,True,Memorial Park Golf Course,"Houston, TX",70.0,7435.0,9100000.0,2024-03-28T08:20:00,False,True,Houston,TX,,USA,America/Chicago,Stroke,,Full,Houston Open,Texas Children's Houston Open,Memorial Park Golf Course,"Houston, TX"
29,594,Valspar Championship,2024-03-21,2024-03-24,True,False,Innisbrook Resort (Copperhead Course),"Palm Harbor, FL",71.0,7340.0,8400000.0,2024-03-21T07:35:00,False,True,Palm Harbor,FL,,USA,America/New York,Stroke,,Full,Valspar Championship,Valspar Championship,Innisbrook Resort (Copperhead Course),"Palm Harbor, FL"
30,593,THE PLAYERS Championship,2024-03-14,2024-03-17,True,False,TPC Sawgrass (THE PLAYERS Stadium Course),"Ponte Vedra Beach, FL",72.0,7275.0,25000000.0,2024-03-14T07:40:00,False,True,Ponte Vedra Beach,FL,,USA,America/New York,Stroke,,Full,THE PLAYERS Championship,THE PLAYERS Championship,TPC Sawgrass (THE PLAYERS Stadium Course),"Ponte Vedra Beach, FL"
31,592,Arnold Palmer Invitational pres. by Mastercard,2024-03-07,2024-03-10,True,False,Arnold Palmer's Bay Hill Club & Lodge,"Orlando, FL",72.0,7466.0,20000000.0,2024-03-07T07:45:00,False,True,Orlando,FL,,USA,America/New York,Stroke,,Full,Arnold Palmer Invitational,Arnold Palmer Invitational pres. by Mastercard,Arnold Palmer's Bay Hill Club & Lodge,"Orlando, FL"
32,591,Puerto Rico Open,2024-03-07,2024-03-10,True,False,Grand Reserve Country Club,"Rio Grande, Puerto Rico",72.0,7506.0,4000000.0,2024-03-07T05:50:00,False,True,Rio Grande,,,PUR,America/Puerto Rico,Stroke,,Full,Puerto Rico Open,Puerto Rico Open,Grand Reserve Country Club,"Rio Grande, Puerto Rico"
33,590,Cognizant Classic,2024-02-29,2024-03-03,True,False,PGA National Resort & Spa (The Champion),"Palm Beach Gardens, FL",71.0,7147.0,9000000.0,2024-02-29T06:45:00,False,True,Palm Beach Gardens,FL,,USA,America/New York,Stroke,,Full,Cognizant Classic,Cognizant Classic,PGA National Resort & Spa (The Champion),"Palm Beach Gardens, FL"
34,589,Mexico Open at Vidanta,2024-02-22,2024-02-25,True,False,Vidanta Vallarta,"Nuevo Vallarta, Mexico",71.0,7456.0,8100000.0,2024-02-22T08:30:00,False,True,Vallarta,,,MEX,America/Mexico City,Stroke,,Full,Mexico Open,Mexico Open at Vidanta,Vidanta Vallarta,"Nuevo Vallarta, Mexico"
35,588,The Genesis Invitational,2024-02-15,2024-02-18,True,False,Riviera Country Club,"Pacific Palisades, CA",71.0,7322.0,20000000.0,2024-02-15T10:20:00,False,True,Pacific Palisades,CA,,USA,America/Los Angeles,Stroke,,Full,The Genesis Invitational,The Genesis Invitational,Riviera Country Club,"Pacific Palisades, CA"
36,587,WM Phoenix Open,2024-02-08,2024-02-11,True,False,TPC Scottsdale (Stadium Course),"Scottsdale, AZ",71.0,7261.0,8800000.0,2024-02-08T09:20:00,False,True,Scottsdale,AZ,,USA,America/Phoenix,Stroke,,Full,Waste Management Phoenix Open,WM Phoenix Open,TPC Scottsdale (Stadium Course),"Scottsdale, AZ"
37,586,AT&T Pebble Beach Pro-Am,2024-02-01,2024-02-04,True,False,Pebble Beach Golf Links,"Pebble Beach, CA",72.0,7041.0,20000000.0,2024-02-01T11:45:00,False,True,Pebble Beach,CA,,USA,America/Los Angeles,Stroke,,Full,AT&T Pebble Beach Pro-Am,AT&T Pebble Beach Pro-Am,Spyglass Hill GC,"Pebble Beach, CA"
38,585,Farmers Insurance Open,2024-01-24,2024-01-27,True,False,Torrey Pines Golf Course (South Course),"San Diego, CA",72.0,7258.0,9000000.0,2024-01-24T11:50:00,False,True,San Diego,CA,,USA,America/Los Angeles,Stroke,,Full,Farmers Insurance Open,Farmers Insurance Open,Torrey Pines (North Course),"La Jolla, CA"
39,584,The American Express,2024-01-18,2024-01-21,True,False,Pete Dye Stadium Course,"La Quinta, CA",72.0,7060.0,8400000.0,2024-01-18T11:30:00,False,True,La Quinta,CA,,USA,America/Los Angeles,Stroke,,Full,Desert Classic,The American Express,La Quinta Country Club,"La Quinta, CA"
40,583,Sony Open in Hawaii,2024-01-11,2024-01-14,True,False,Waialae Country Club,"Honolulu, HI",70.0,7044.0,8300000.0,2024-01-11T12:10:00,False,True,Honolulu,HI,,USA,Pacific/Honolulu,Stroke,,Full,Sony Open in Hawaii,Sony Open in Hawaii,Waialae Country Club,"Honolulu, HI"
41,582,The Sentry,2024-01-04,2024-01-07,True,False,Plantation Course at Kapalua,"Kapalua, Maui, HI",73.0,7596.0,20000000.0,2024-01-04T12:45:00,False,True,"Kapalua, Maui",HI,,USA,Pacific/Honolulu,Stroke,,Full,Tournament of Champions,The Sentry,Kapalua Resort (Plantation Course),"Kapalua, HI"
42,564,Hero World Challenge,2023-11-30,2023-12-03,True,False,Albany GC,"Albany, Bah",72.0,7449.0,4500000.0,2023-11-30T10:46:00,False,True,Albany,,,BAH,America/New York,Stroke,,Full,Hero World Challenge,Hero World Challenge,Albany,"New Providence, Bahamas"
43,565,The RSM Classic,2023-11-16,2023-11-19,True,False,Sea Island Golf Club (Seaside Course),"St. Simons Island, GA",70.0,7005.0,8400000.0,2023-11-16T08:00:00,False,True,St. Simons Island,GA,,USA,America/New York,Stroke,,Full,RSM Classic,The RSM Classic,Sea Island Resort (Seaside Course),"Saint Simons Island, GA"
44,566,Cadence Bank Houston Open,2023-11-10,2023-11-13,False,False,Memorial Park Golf Course,,70.0,7432.0,,,True,False,,,,,,,,,Houston Open,,Memorial Park Golf Course,"Houston, TX"
45,568,Butterfield Bermuda Championship,2023-11-09,2023-11-12,True,False,Port Royal Golf Course,"Southampton, Ber",71.0,6828.0,6500000.0,2023-11-09T05:50:00,False,True,Southampton,,,BER,Atlantic/Bermuda,Stroke,,Full,Bermuda Championship,Butterfield Bermuda Championship,Port Royal Golf Course,"Southampton Parish, Bermuda"
46,567,World Wide Technology Championship,2023-11-02,2023-11-05,True,False,El Cardonal at Diamante Cabo San Lucas,"Los Cabos, Mex",72.0,7452.0,8200000.0,2023-11-02T09:25:00,False,True,Los Cabos,,,MEX,America/Phoenix,Stroke,,Full,World Wide Technology Championship,World Wide Technology Championship,El Cardonal at Diamante,"Cabo San Lucas, Mexico"
47,569,THE CJ CUP in South Carolina,2023-10-20,2023-10-23,False,False,Congaree Golf Club,,71.0,7655.0,,,True,False,,,,,,,,,CJ Cup,,Congaree Golf Club,"Ridgeland, SC"
48,570,ZOZO CHAMPIONSHIP,2023-10-19,2023-10-22,True,False,Accordia Golf Narashino Country Club,"Chiba, Jpn",70.0,7079.0,8500000.0,2023-10-19T19:45:00,False,True,Chiba,,,JPN,Asia/Tokyo,Stroke,,Full,Zozo Championship,ZOZO CHAMPIONSHIP,Accordia Golf Narashino CC,"Chiba, Japan"
49,571,Shriners Children's Open,2023-10-12,2023-10-15,True,False,TPC Summerlin,"Las Vegas, NV",71.0,7255.0,8400000.0,2023-10-12T09:50:00,False,True,Las Vegas,NV,,USA,America/Los Angeles,Stroke,,Full,Shriners Children's Open,Shriners Children's Open,TPC Summerlin,"Las Vegas, NV"
50,572,Sanderson Farms Championship,2023-10-05,2023-10-08,True,False,The Country Club of Jackson,"Jackson, MS",72.0,7461.0,8200000.0,2023-10-05T08:00:00,False,True,Jackson,MS,,USA,America/Chicago,Stroke,,Full,Sanderson Farms Championship,Sanderson Farms Championship,Country Club of Jackson,"Jackson, MS"
51,514,Ryder Cup,2023-09-29,2023-10-01,False,False,Marco Simone Golf & Country Club,"Rome, Ita",,,,,False,False,Rome,,,ITA,Europe/Paris,TeamMatch,,Limited,The Ryder Cup,Ryder Cup,Marco Simone GC,"Rome, Italy"
52,573,The Presidents Cup,2023-09-22,2023-09-25,False,False,Quail Hollow Club,,71.0,7521.0,,,True,False,,,,,,,,,The Presidents Cup,,Quail Hollow Club,"Charlotte, NC"
53,574,Fortinet Championship,2023-09-14,2023-09-17,True,False,Silverado Resort (North Course),"Napa, CA",72.0,7123.0,8400000.0,2023-09-14T09:55:00,False,True,Napa,CA,,USA,America/Los Angeles,Stroke,,Full,Fortinet Championship,Fortinet Championship,Silverado Resort and Spa (North Course),"Napa, CA"
54,563,TOUR Championship,2023-08-24,2023-08-27,True,False,East Lake Golf Club,"Atlanta, GA",70.0,7346.0,,2023-08-24T11:26:00,False,True,Atlanta,GA,,USA,America/New York,Stroke,,Full,The TOUR Championship,TOUR Championship,East Lake Golf Club,"Atlanta, GA"
55,562,BMW Championship,2023-08-17,2023-08-20,True,False,Olympia Fields Country Club (North Course),"Olympia Fields, IL",70.0,7366.0,20000000.0,2023-08-17T09:26:00,False,True,Olympia Fields,IL,,USA,America/Chicago,Stroke,62335a36-7fd7-41d7-a729-30ded11fcd9c,Full,BMW PGA Championship,BMW Championship,Olympia Fields Country Club,"Olympia Fields, IL"
56,561,FedEx St. Jude Championship,2023-08-10,2023-08-13,True,False,TPC Southwind,"Memphis, TN",70.0,7243.0,20000000.0,2023-08-10T08:50:00,False,True,Memphis,TN,,USA,America/Chicago,Stroke,,Full,St. Jude Championship,FedEx St. Jude Championship,TPC Southwind,"Memphis, TN"
57,560,Wyndham Championship,2023-08-03,2023-08-06,True,False,Sedgefield Country Club,"Greensboro, NC",70.0,7131.0,7600000.0,2023-08-03T06:50:00,False,True,Greensboro,NC,,USA,America/New York,Stroke,ba485e45-67e1-42bd-832f-4178fba750cc,Full,Wyndham Championship,Wyndham Championship,Sedgefield Country Club,"Greensboro, NC"
58,559,3M Open,2023-07-27,2023-07-30,True,False,TPC Twin Cities,"Blaine, MN",71.0,7431.0,7800000.0,2023-07-27T07:45:00,False,True,Blaine,MN,,USA,America/Chicago,Stroke,704576a7-e3be-4958-984d-0c5784af55b7,Full,3M Open,3M Open,TPC Twin Cities,"Blaine, MN"
59,558,The Open,2023-07-20,2023-07-23,True,False,Royal Liverpool,"Hoylake, Wirral, Eng",71.0,7383.0,16500000.0,2023-07-20T01:35:00,False,True,"Hoylake, Wirral",,,ENG,Europe/London,Stroke,,Full,The Open Championship,The Open,Royal Liverpool GC,Hoylake
60,557,Barracuda Championship,2023-07-20,2023-07-23,False,False,Tahoe Mountain Club (Old Greenwood),"Truckee, CA",71.0,7480.0,3800000.0,,False,False,Truckee,CA,,USA,America/Los Angeles,Stableford,5a5c1dfe-b4d6-4106-8794-c623c6dd01e2,Limited,Barracuda Championship,Barracuda Championship,Tahoe Mountain Club (Old Greenwood),"Truckee, CA"
61,555,Barbasol Championship,2023-07-13,2023-07-16,True,False,Keene Trace Golf Club (Champions Course),"Nicholasville, KY",72.0,7328.0,3800000.0,2023-07-13T06:45:00,False,True,Nicholasville,KY,,USA,America/New York,Stroke,53cf1088-f9b4-424e-ab11-9a1cdd4eb7c2,Full,Barbasol Championship,Barbasol Championship,Keene Trace Golf Club (Champions Course),"Nicholasville, KY"
62,556,Genesis Scottish Open,2023-07-13,2023-07-16,True,False,The Renaissance Club,"North Berwick, Sco",70.0,7237.0,9000000.0,2023-07-13T02:15:00,False,True,North Berwick,,,SCO,Europe/London,Stroke,,Full,Genesis Scottish Open,Genesis Scottish Open,The Renaissance Club,"North Berwick, Scotland"
63,554,John Deere Classic,2023-07-06,2023-07-09,True,False,TPC Deere Run,"Silvis, IL",71.0,7289.0,7400000.0,2023-07-06T07:45:00,False,True,Silvis,IL,,USA,America/Chicago,Stroke,a84c6b54-ff8d-450d-863b-6727c1fb049c,Full,John Deere Classic,John Deere Classic,TPC Deere Run,"Silvis, IL"
64,553,Rocket Mortgage Classic,2023-06-29,2023-07-02,True,False,Detroit Golf Club,"Detroit, MI",72.0,7370.0,8800000.0,2023-06-29T06:45:00,False,True,Detroit,MI,,USA,America/New York,Stroke,1014944f-c72e-4538-8129-2700d4e6787b,Full,Rocket Mortgage Classic,Rocket Mortgage Classic,Detroit Golf Club,"Detroit, MI"
65,552,Travelers Championship,2023-06-22,2023-06-25,True,False,TPC River Highlands,"Cromwell, CT",70.0,6852.0,20000000.0,2023-06-22T06:45:00,False,True,Cromwell,CT,,USA,America/New York,Stroke,e9f28105-17b5-41d2-9067-0ce874138e3c,Full,Travelers Championship,Travelers Championship,TPC River Highlands,"Cromwell, CT"
66,551,U.S. Open,2023-06-15,2023-06-18,True,False,The Los Angeles Country Club (North Course),"Los Angeles, CA",70.0,7421.0,20000000.0,2023-06-15T09:45:00,False,True,Los Angeles,CA,,USA,America/Los Angeles,Stroke,2e80d5ad-468e-4833-aeda-85fb86c1098a,Full,U.S. Open,U.S. Open,Los Angeles Country Club,"Los Angeles, CA"
67,550,RBC Canadian Open,2023-06-08,2023-06-11,True,False,Oakdale Golf & Country Club,"Toronto, Ontario, Can",72.0,7264.0,9000000.0,2023-06-08T07:00:00,False,True,"Toronto, Ontario",,,CAN,America/Toronto,Stroke,2cb99584-0bb2-487f-a050-b05fa9502107,Full,RBC Canadian Open,RBC Canadian Open,Oakdale Golf & Country Club,"Toronto, ON"
68,549,The Memorial Tournament pres. by Workday,2023-06-01,2023-06-04,True,False,Muirfield Village Golf Club,"Dublin, OH",72.0,7571.0,20000000.0,2023-06-01T07:00:00,False,True,Dublin,OH,,USA,America/New York,Stroke,,Full,Memorial Tournament,The Memorial Tournament pres. by Workday,Muirfield Village Golf Club,"Dublin, OH"
69,548,Charles Schwab Challenge,2023-05-25,2023-05-28,True,False,Colonial Country Club,"Fort Worth, TX",70.0,7209.0,8700000.0,2023-05-25T08:20:00,False,True,Fort Worth,TX,,USA,America/Chicago,Stroke,,Full,Charles Schwab Challenge,Charles Schwab Challenge,Colonial Country Club,"Fort Worth, TX"
70,547,PGA Championship,2023-05-18,2023-05-21,True,False,Oak Hill Country Club - East Course,"Rochester, NY",70.0,7394.0,17500000.0,2023-05-18T07:00:00,False,True,Rochester,NY,,USA,America/New York,Stroke,0262529f-2ea5-4f77-b1ed-42c4d81e09ea,Full,PGA Championship,PGA Championship,Oak Hill Country Club,"Rochester, NY"
71,546,AT&T Byron Nelson,2023-05-11,2023-05-14,True,False,TPC Craig Ranch,"McKinney, TX",71.0,7414.0,9500000.0,2023-05-11T07:50:00,False,True,McKinney,TX,,USA,America/Chicago,Stroke,5d65bd76-7547-4693-99cd-33e2dc3c30f2,Full,AT&T Byron Nelson,AT&T Byron Nelson,TPC Craig Ranch,"McKinney, TX"
72,545,Wells Fargo Championship,2023-05-04,2023-05-07,True,False,Quail Hollow Club,"Charlotte, NC",71.0,7538.0,20000000.0,2023-05-04T06:50:00,False,True,Charlotte,NC,,USA,America/New York,Stroke,b9a5a65b-f098-48e7-b9a3-a3fbd1d47b72,Full,Wells Fargo Championship,Wells Fargo Championship,Quail Hollow Club,"Charlotte, NC"
73,544,Mexico Open,2023-04-27,2023-04-30,True,False,Vidanta Vallarta,"Vallarta, Mex",71.0,7456.0,7700000.0,2023-04-27T07:45:00,False,True,Vallarta,,,MEX,America/Mexico City,Stroke,,Full,Mexico Open,Mexico Open,Vidanta Vallarta,"Nuevo Vallarta, Mexico"
74,543,Zurich Classic of New Orleans,2023-04-20,2023-04-23,False,False,TPC Louisiana,"Avondale, LA",72.0,7425.0,8600000.0,,False,False,Avondale,LA,,USA,America/Chicago,Team,,Limited,Zurich Classic of New Orleans,Zurich Classic of New Orleans,TPC Louisiana,"Avondale, LA"
75,542,RBC Heritage,2023-04-13,2023-04-16,True,False,Harbour Town Golf Links,"Hilton Head Island, SC",71.0,7213.0,20000000.0,2023-04-13T07:00:00,False,True,Hilton Head Island,SC,,USA,America/New York,Stroke,1a4257b1-a86a-4bd3-94ad-56b88334f6de,Full,RBC Heritage,RBC Heritage,Harbour Town Golf Links,"Hilton Head Island, SC"
76,541,Masters Tournament,2023-04-06,2023-04-09,True,False,Augusta National Golf Club,"Augusta, GA",72.0,7545.0,18000000.0,2023-04-06T08:00:00,False,True,Augusta,GA,,USA,America/New York,Stroke,34b19960-f028-4dfe-b128-58553a7bcc9a,Full,The Masters Tournament,Masters Tournament,Augusta National Golf Club,"Augusta, GA"
77,540,Valero Texas Open,2023-03-30,2023-04-02,True,False,TPC San Antonio (Oaks Course),"San Antonio, TX",72.0,7438.0,8900000.0,2023-03-30T08:30:00,False,True,San Antonio,TX,,USA,America/Chicago,Stroke,1d34d2bd-dda8-4734-a622-4c92efb18420,Full,Valero Texas Open,Valero Texas Open,TPC San Antonio (Oaks Course),"San Antonio, TX"
78,538,Corales Puntacana Championship,2023-03-23,2023-03-26,True,False,Puntacana Resort & Club (Corales Golf Course),"Punta Cana, Dom",72.0,7670.0,3800000.0,2023-03-23T06:45:00,False,True,Punta Cana,,,DOM,America/Dominica,Stroke,cb8db64b-5f70-4db9-b676-2a693532ad3b,Full,Corales Puntacana Championship,Corales Puntacana Championship,Puntacana Resort & Club (Corales Golf Course),"Punta Cana, Dominican Republic"
79,539,WGC-Dell Technologies Match Play,2023-03-22,2023-03-26,False,False,Austin Country Club,"Austin, TX",71.0,7108.0,20000000.0,,False,False,Austin,TX,,USA,America/Chicago,Match,,Limited,WGC-Dell Technologies Match Play,WGC-Dell Technologies Match Play,Austin Country Club,"Austin, TX"
80,537,Valspar Championship,2023-03-16,2023-03-19,True,False,Innisbrook Resort (Copperhead Course),"Palm Harbor, FL",71.0,7340.0,8100000.0,2023-03-16T07:40:00,False,True,Palm Harbor,FL,,USA,America/New York,Stroke,4fb997a4-9ccb-41df-8309-cdd1f2a7d271,Full,Valspar Championship,Valspar Championship,Innisbrook Resort (Copperhead Course),"Palm Harbor, FL"
81,536,THE PLAYERS Championship,2023-03-09,2023-03-12,True,False,TPC Sawgrass (THE PLAYERS Stadium Course),"Ponte Vedra Beach, FL",72.0,7275.0,25000000.0,2023-03-09T06:50:00,False,True,Ponte Vedra Beach,FL,,USA,America/New York,Stroke,c3588c5e-505e-4248-a70a-9f941d5681b5,Full,THE PLAYERS Championship,THE PLAYERS Championship,TPC Sawgrass (THE PLAYERS Stadium Course),"Ponte Vedra Beach, FL"
82,535,Arnold Palmer Invitational pres. by Mastercard,2023-03-02,2023-03-05,True,False,Arnold Palmer's Bay Hill Club & Lodge,"Orlando, FL",72.0,7466.0,20000000.0,2023-03-02T07:00:00,False,True,Orlando,FL,,USA,America/New York,Stroke,,Full,Arnold Palmer Invitational,Arnold Palmer Invitational pres. by Mastercard,Arnold Palmer's Bay Hill Club & Lodge,"Orlando, FL"
83,534,Puerto Rico Open,2023-03-02,2023-03-05,True,False,Grand Reserve Golf Club,"Rio Grande, Pur",72.0,7506.0,3800000.0,2023-03-02T06:10:00,False,True,Rio Grande,,,PUR,America/Puerto Rico,Stroke,e4b55b5b-854f-4e1c-80f9-3c9049151290,Full,Puerto Rico Open,Puerto Rico Open,Grand Reserve Country Club,"Rio Grande, Puerto Rico"
84,533,The Honda Classic,2023-02-23,2023-02-26,True,False,PGA National Resort (The Champion),"Palm Beach Gardens, FL",70.0,7140.0,8400000.0,2023-02-23T06:50:00,False,True,Palm Beach Gardens,FL,,USA,America/New York,Stroke,30a39a35-d177-40e9-b9bc-a9f902c684e3,Full,Cognizant Classic,The Honda Classic,PGA National Resort & Spa (The Champion),"Palm Beach Gardens, FL"
85,532,The Genesis Invitational,2023-02-16,2023-02-19,True,False,The Riviera Country Club,"Pacific Palisades, CA",71.0,7322.0,20000000.0,2023-02-16T09:40:00,False,True,Pacific Palisades,CA,,USA,America/Los Angeles,Stroke,1e350a57-d54f-4904-bb44-73b03dd7c801,Full,The Genesis Invitational,The Genesis Invitational,Riviera Country Club,"Pacific Palisades, CA"
86,531,WM Phoenix Open,2023-02-09,2023-02-12,True,False,TPC Scottsdale (Stadium Course),"Scottsdale, AZ",71.0,7261.0,20000000.0,2023-02-09T09:15:00,False,True,Scottsdale,AZ,,USA,America/Phoenix,Stroke,62902ae6-af32-419c-91d6-4fec54a59fe3,Full,Waste Management Phoenix Open,WM Phoenix Open,TPC Scottsdale (Stadium Course),"Scottsdale, AZ"
87,530,AT&T Pebble Beach Pro-Am,2023-02-02,2023-02-05,True,False,Pebble Beach Golf Links,"Pebble Beach, CA",72.0,7041.0,9000000.0,2023-02-02T11:30:00,False,True,Pebble Beach,CA,,USA,America/Los Angeles,Stroke,1fe9a678-6558-495c-a7b4-0734274964a3,Full,AT&T Pebble Beach Pro-Am,AT&T Pebble Beach Pro-Am,Spyglass Hill GC,"Pebble Beach, CA"
88,529,Farmers Insurance Open,2023-01-25,2023-01-28,True,False,Torrey Pines Golf Course (South Course),"San Diego, CA",72.0,7258.0,8700000.0,2023-01-25T12:00:00,False,True,San Diego,CA,,USA,America/Los Angeles,Stroke,dad58e15-9fab-49a5-a1e3-ea520f764698,Full,Farmers Insurance Open,Farmers Insurance Open,Torrey Pines (North Course),"La Jolla, CA"
89,528,The American Express,2023-01-19,2023-01-22,True,False,Pete Dye Stadium Course,"La Quinta, CA",72.0,7060.0,8000000.0,2023-01-19T11:30:00,False,True,La Quinta,CA,,USA,America/Los Angeles,Stroke,bc61b9e3-e054-496b-bcb7-4756a0490c51,Full,Desert Classic,The American Express,La Quinta Country Club,"La Quinta, CA"
90,527,Sony Open in Hawaii,2023-01-12,2023-01-15,True,False,Waialae Country Club,"Honolulu, HI",70.0,7044.0,7900000.0,2023-01-12T12:10:00,False,True,Honolulu,HI,,USA,Pacific/Honolulu,Stroke,890b3b99-9b4a-451a-90cf-9db4908e142b,Full,Sony Open in Hawaii,Sony Open in Hawaii,Waialae Country Club,"Honolulu, HI"
91,526,Sentry Tournament of Champions,2023-01-05,2023-01-08,True,False,Plantation Course at Kapalua,"Kapalua, Maui, HI",73.0,7596.0,15000000.0,2023-01-05T14:30:00,False,True,"Kapalua, Maui",HI,,USA,Pacific/Honolulu,Stroke,beea275d-7a29-47bf-a124-4cf06bcdcaab,Full,Tournament of Champions,Sentry Tournament of Champions,Kapalua Resort (Plantation Course),"Kapalua, HI"
92,525,QBE Shootout,2022-12-09,2022-12-11,False,False,Tiburón Golf Course,"Naples, FL",72.0,6556.0,3800000.0,,False,True,Naples,FL,,USA,America/New York,Stroke,,Full,QBE Shootout,QBE Shootout,Tiburón Golf Course,"Naples, FL"
93,524,Hero World Challenge,2022-12-01,2022-12-04,True,False,Albany,"New Providence, Bah",72.0,7449.0,3500000.0,2022-12-01T11:00:00,False,True,New Providence,,,BAH,America/Nassau,Stroke,0299292e-fa35-403a-9b25-7959a58ab418,Full,Hero World Challenge,Hero World Challenge,Albany,"New Providence, Bahamas"
94,515,The RSM Classic,2022-11-17,2022-11-20,True,False,Sea Island Golf Club (Seaside Course),"St. Simons Island, GA",70.0,7005.0,8100000.0,2022-11-17T09:00:00,False,True,St. Simons Island,GA,,USA,America/New York,Stroke,0a23f93c-dc78-4059-a453-a2bb9b6faa46,Full,RSM Classic,The RSM Classic,Sea Island Resort (Seaside Course),"Saint Simons Island, GA"
95,516,Cadence Bank Houston Open,2022-11-10,2022-11-13,True,False,Memorial Park Golf Course,"Houston, TX",70.0,7412.0,8400000.0,2022-11-10T07:40:00,False,True,Houston,TX,,USA,America/Chicago,Stroke,d2c4a455-0ed4-4543-878a-440de91c4a20,Full,Houston Open,Cadence Bank Houston Open,Memorial Park Golf Course,"Houston, TX"
96,517,World Wide Technology Championship at Mayakoba,2022-11-03,2022-11-06,True,False,El Camaleón Golf Course at Mayakoba,"Riviera Maya, Mex",71.0,7034.0,8200000.0,2022-11-03T07:55:00,False,True,Riviera Maya,,,MEX,America/Cancun,Stroke,bfed5fed-40d9-4d0c-a6be-a689ba25a7ec,Full,World Wide Technology Championship,World Wide Technology Championship at Mayakoba,El Camaleón Golf Course at Mayakoba,"Quintana Roo, Mexico"
97,518,Butterfield Bermuda Championship,2022-10-27,2022-10-30,True,False,Port Royal Golf Course,"Southampton, Ber",71.0,6828.0,6500000.0,2022-10-27T06:35:00,False,True,Southampton,,,BER,Atlantic/Bermuda,Stroke,97c8e78f-d903-4fea-ac5e-7513e91faf37,Full,Bermuda Championship,Butterfield Bermuda Championship,Port Royal Golf Course,"Southampton Parish, Bermuda"
98,520,THE CJ CUP in South Carolina,2022-10-20,2022-10-23,True,False,Congaree Golf Club,"Ridgeland, SC",71.0,7655.0,10500000.0,2022-10-20T08:15:00,False,True,Ridgeland,SC,,USA,America/New York,Stroke,8252afda-4f4b-4eca-a6f9-d91bc233dd39,Full,CJ Cup,THE CJ CUP in South Carolina,Congaree Golf Club,"Ridgeland, SC"
99,519,ZOZO CHAMPIONSHIP,2022-10-13,2022-10-16,True,False,Accordia Golf Narashino Country Club,"Chiba, Jpn",70.0,7079.0,11000000.0,2022-10-12T19:50:00,False,True,Chiba,,,JPN,Asia/Tokyo,Stroke,3a247fb8-ba65-4c23-915f-f442c36d65fd,Full,Zozo Championship,ZOZO CHAMPIONSHIP,Accordia Golf Narashino CC,"Chiba, Japan"
100,521,Shriners Children's Open,2022-10-06,2022-10-09,True,False,TPC Summerlin,"Las Vegas, NV",71.0,7255.0,8000000.0,2022-10-06T09:40:00,False,True,Las Vegas,NV,,USA,America/Los Angeles,Stroke,930073f3-a6ca-4501-97ee-54140730dba0,Full,Shriners Children's Open,Shriners Children's Open,TPC Summerlin,"Las Vegas, NV"
101,522,Sanderson Farms Championship,2022-09-29,2022-10-02,True,False,The Country Club of Jackson,"Jackson, MS",72.0,7461.0,7900000.0,2022-09-29T08:00:00,False,True,Jackson,MS,,USA,America/Chicago,Stroke,80f07484-b938-4054-bb8f-1dee801f371d,Full,Sanderson Farms Championship,Sanderson Farms Championship,Country Club of Jackson,"Jackson, MS"
102,513,Presidents Cup,2022-09-22,2022-09-25,False,False,Quail Hollow Club,"Charlotte, NC",71.0,7521.0,,,False,False,Charlotte,NC,,USA,America/New York,TeamMatch,,Limited,The Presidents Cup,Presidents Cup,Quail Hollow Club,"Charlotte, NC"
103,523,Fortinet Championship,2022-09-15,2022-09-18,True,False,Silverado Resort and Spa (North Course),"Napa, CA",72.0,7123.0,8000000.0,2022-09-15T10:00:00,False,True,Napa,CA,,USA,America/Los Angeles,Stroke,40ef66e7-2c3e-4102-9132-2c6d828acdb6,Full,Fortinet Championship,Fortinet Championship,Silverado Resort and Spa (North Course),"Napa, CA"
104,509,TOUR Championship,2022-08-25,2022-08-28,True,False,East Lake Golf Club,"Atlanta, GA",70.0,7346.0,75000000.0,2022-08-25T11:45:00,False,True,Atlanta,GA,,USA,America/New York,Stroke,62338479-12c5-4ef4-a473-6fea873f3e66,Full,The TOUR Championship,TOUR Championship,East Lake Golf Club,"Atlanta, GA"
105,508,BMW Championship,2022-08-18,2022-08-21,True,False,Wilmington Country Club,"Wilmington, DE",71.0,7534.0,15000000.0,2022-08-18T09:10:00,False,True,Wilmington,DE,,USA,America/New York,Stroke,f9859515-af30-41cd-9ffe-465d1446d6e0,Full,BMW PGA Championship,BMW Championship,Wilmington Country Club (South Course),"Wilmington, DE"
106,507,FedEx St. Jude Championship,2022-08-11,2022-08-14,True,False,TPC Southwind,"Memphis, TN",70.0,7243.0,15000000.0,2022-08-11T08:15:00,False,True,Memphis,TN,,USA,America/Chicago,Stroke,c0abe5ac-732a-4e5d-9f93-14dac6203e23,Full,St. Jude Championship,FedEx St. Jude Championship,TPC Southwind,"Memphis, TN"
107,506,Wyndham Championship,2022-08-04,2022-08-07,True,False,Sedgefield Country Club,"Greensboro, NC",70.0,7131.0,7300000.0,2022-08-04T06:50:00,False,True,Greensboro,NC,,USA,America/New York,Stroke,0d986e18-cc3d-4391-a37c-903e9097129f,Full,Wyndham Championship,Wyndham Championship,Sedgefield Country Club,"Greensboro, NC"
108,505,Rocket Mortgage Classic,2022-07-28,2022-07-31,True,False,Detroit Golf Club,"Detroit, MI",72.0,7370.0,8400000.0,2022-07-28T06:45:00,False,True,Detroit,MI,,USA,America/New York,Stroke,6f5e0381-f670-4c59-b4d5-3e6d4764d865,Full,Rocket Mortgage Classic,Rocket Mortgage Classic,Detroit Golf Club,"Detroit, MI"
109,504,3M Open,2022-07-21,2022-07-24,True,False,TPC Twin Cities,"Blaine, MN",71.0,7431.0,7500000.0,2022-07-21T07:50:00,False,True,Blaine,MN,,USA,America/Chicago,Stroke,63f720b6-845d-4f02-ad99-8688d20cbf1e,Full,3M Open,3M Open,TPC Twin Cities,"Blaine, MN"
110,503,The Open,2022-07-14,2022-07-17,True,False,St. Andrews Links (Old Course),"Fife, Sco",72.0,7313.0,14000000.0,2022-07-14T01:35:00,False,True,Fife,,,SCO,Europe/London,Stroke,51968e44-03f5-424f-8e63-294996685497,Full,The Open Championship,The Open,St Andrews Links (Old Course),"St. Andrews, Scotland"
111,502,Barracuda Championship,2022-07-14,2022-07-17,False,False,Tahoe Mt. Club (Old Greenwood),"Truckee, CA",71.0,7480.0,3700000.0,,False,False,Truckee,CA,,USA,America/Los Angeles,Stableford,a8427f0b-4754-4129-9e21-708695e0de34,Limited,Barracuda Championship,Barracuda Championship,Tahoe Mountain Club (Old Greenwood),"Truckee, CA"
112,500,Barbasol Championship,2022-07-07,2022-07-10,True,False,Keene Trace Golf Club,"Nicholasville, KY",72.0,7328.0,3700000.0,2022-07-07T06:45:00,False,True,Nicholasville,KY,,USA,America/New York,Stroke,248a26c3-2df5-4788-a5b9-32b74c343a68,Full,Barbasol Championship,Barbasol Championship,Keene Trace Golf Club (Champions Course),"Nicholasville, KY"
113,501,Genesis Scottish Open,2022-07-07,2022-07-10,True,False,The Renaissance Club,"North Berwick, Sco",70.0,7237.0,8000000.0,2022-07-07T02:15:00,False,True,North Berwick,,,SCO,Europe/London,Stroke,c7d5285a-406a-4944-b10f-3ea29b8cbf8e,Full,Genesis Scottish Open,Genesis Scottish Open,The Renaissance Club,"North Berwick, Scotland"
114,499,John Deere Classic,2022-06-30,2022-07-03,True,False,TPC Deere Run,"Silvis, IL",71.0,7289.0,7100000.0,2022-06-30T07:45:00,False,True,Silvis,IL,,USA,America/Chicago,Stroke,3869c98f-68c7-4a57-822e-a358eed689db,Full,John Deere Classic,John Deere Classic,TPC Deere Run,"Silvis, IL"
115,498,Travelers Championship,2022-06-23,2022-06-26,True,False,TPC River Highlands,"Cromwell, CT",70.0,6852.0,8300000.0,2022-06-23T06:45:00,False,True,Cromwell,CT,,USA,America/New York,Stroke,deff7db3-5f77-4486-bd55-1f894cf004d2,Full,Travelers Championship,Travelers Championship,TPC River Highlands,"Cromwell, CT"
116,497,U.S. Open,2022-06-16,2022-06-19,True,False,The Country Club,"Brookline, MA",70.0,7254.0,17500000.0,2022-06-16T06:45:00,False,True,Brookline,MA,,USA,America/New York,Stroke,10ee49b6-e138-4926-b90f-5e54e31367bd,Full,U.S. Open,U.S. Open,The Country Club,"Brookline, MA"
117,496,RBC Canadian Open,2022-06-09,2022-06-12,True,False,St. George's G&CC,"Toronto, ON, Can",70.0,7014.0,8700000.0,2022-06-09T06:40:00,False,True,"Toronto, ON",,,CAN,America/Toronto,Stroke,df2161ab-bbcf-484d-904a-a004950558e3,Full,RBC Canadian Open,RBC Canadian Open,St. George's Golf and Country Club,"Toronto, ON"
118,495,the Memorial Tournament pres. by Workday,2022-06-02,2022-06-05,True,False,Muirfield Village Golf Club,"Dublin, OH",72.0,7533.0,12000000.0,2022-06-02T07:00:00,False,True,Dublin,OH,,USA,America/New York,Stroke,62ba1a0c-5aee-4ce5-ba50-56920c19b68a,Full,Memorial Tournament,the Memorial Tournament pres. by Workday,Muirfield Village Golf Club,"Dublin, OH"
119,494,Charles Schwab Challenge,2022-05-26,2022-05-29,True,False,Colonial Country Club,"Fort Worth, TX",70.0,7209.0,8400000.0,2022-05-26T08:20:00,False,True,Fort Worth,TX,,USA,America/Chicago,Stroke,4fd5a8b9-3a56-4d8f-944f-d4c614b2f9e1,Full,Charles Schwab Challenge,Charles Schwab Challenge,Colonial Country Club,"Fort Worth, TX"
120,493,PGA Championship,2022-05-19,2022-05-22,True,False,Southern Hills CC,"Tulsa, OK",70.0,7556.0,15000000.0,2022-05-19T08:00:00,False,True,Tulsa,OK,,USA,America/Chicago,Stroke,f130def5-5787-467d-b618-b94ca202865b,Full,PGA Championship,PGA Championship,Southern Hills Country Club,"Tulsa, OK"
121,492,AT&T Byron Nelson,2022-05-12,2022-05-15,True,False,TPC Craig Ranch,"McKinney, TX",72.0,7468.0,9100000.0,2022-05-12T07:50:00,False,True,McKinney,TX,,USA,America/Chicago,Stroke,94836c95-51bb-4e73-816b-f360cb64d221,Full,AT&T Byron Nelson,AT&T Byron Nelson,TPC Craig Ranch,"McKinney, TX"
122,491,Wells Fargo Championship,2022-05-05,2022-05-08,True,False,TPC Potomac at Avenel Farm,"Potomac, MD",70.0,7160.0,9000000.0,2022-05-05T06:50:00,False,True,Potomac,MD,,USA,America/New York,Stroke,42b7bbc2-858a-4c0d-85dc-b30179bb5e9a,Full,Wells Fargo Championship,Wells Fargo Championship,TPC Potomac at Avenel Farm,"Potomac, MD"
123,490,Mexico Open,2022-04-28,2022-05-01,True,False,Vidanta Vallarta,"Vallarta, Mex",71.0,7456.0,7300000.0,2022-04-28T08:45:00,False,True,Vallarta,,,MEX,America/Chicago,Stroke,23d21333-a33e-4094-8b27-3810039d68b0,Full,Mexico Open,Mexico Open,Vidanta Vallarta,"Nuevo Vallarta, Mexico"
124,489,Zurich Classic of New Orleans,2022-04-21,2022-04-24,False,False,TPC Louisiana,"Avondale, LA",72.0,7425.0,8300000.0,,False,False,Avondale,LA,,USA,America/Chicago,Team,eb152a6b-acce-4377-8e06-0ed858c6b0bc,Limited,Zurich Classic of New Orleans,Zurich Classic of New Orleans,TPC Louisiana,"Avondale, LA"
125,488,RBC Heritage,2022-04-14,2022-04-17,True,False,Harbour Town Golf Links,"Hilton Head Island, SC",71.0,7191.0,8000000.0,2022-04-14T07:10:00,False,True,Hilton Head,SC,,USA,America/New York,Stroke,ce8005c3-78ec-4f14-a9a6-032940490ea4,Full,RBC Heritage,RBC Heritage,Harbour Town Golf Links,"Hilton Head Island, SC"
126,487,Masters Tournament,2022-04-07,2022-04-10,True,False,Augusta National Golf Club,"Augusta, GA",72.0,7475.0,15000000.0,2022-04-07T08:00:00,False,True,Augusta,GA,,USA,America/New York,Stroke,6b19e7fe-40b4-4b5a-92b9-7887f4892d83,Full,The Masters Tournament,Masters Tournament,Augusta National Golf Club,"Augusta, GA"
127,486,Valero Texas Open,2022-03-31,2022-04-03,True,False,TPC San Antonio (Oaks Course),"San Antonio, TX",72.0,7438.0,8600000.0,2022-03-31T08:30:00,False,True,San Antonio,TX,,USA,America/Chicago,Stroke,75e1f4f4-54c4-4ae2-b5d8-d8980a91370c,Full,Valero Texas Open,Valero Texas Open,TPC San Antonio (Oaks Course),"San Antonio, TX"
128,484,Corales Puntacana Championship,2022-03-24,2022-03-27,True,False,Puntacana Resort & Club (Corales Golf Course),"Punta Cana, Dominican Republic",72.0,7670.0,3700000.0,2022-03-24T06:45:00,False,True,Punta Cana,,,DOM,America/Dominica,Stroke,eb000485-dfaf-4c6b-a131-e7e17f56062a,Full,Corales Puntacana Championship,Corales Puntacana Championship,Puntacana Resort & Club (Corales Golf Course),"Punta Cana, Dominican Republic"
129,485,WGC-Dell Technologies Match Play,2022-03-23,2022-03-27,False,False,Austin Country Club,"Austin, TX",71.0,7108.0,11500000.0,,False,False,Austin,TX,,USA,America/Chicago,Match,6d93a8c2-5502-4a16-b448-c68891b644bf,Limited,WGC-Dell Technologies Match Play,WGC-Dell Technologies Match Play,Austin Country Club,"Austin, TX"
130,483,Valspar Championship,2022-03-17,2022-03-20,True,False,Innisbrook Resort (Copperhead Course),"Palm Harbor, FL",71.0,7340.0,7800000.0,2022-03-17T07:40:00,False,True,Palm Harbor,FL,,USA,America/New York,Stroke,d69b148c-d2d9-4cbf-aa71-7ffa4a02c479,Full,Valspar Championship,Valspar Championship,Innisbrook Resort (Copperhead Course),"Palm Harbor, FL"
131,482,THE PLAYERS Championship,2022-03-10,2022-03-13,True,False,TPC Sawgrass (THE PLAYERS Stadium Course),"Ponte Vedra Beach, FL",72.0,7256.0,20000000.0,2022-03-10T06:45:00,False,True,Ponte Vedra Beach,FL,,USA,America/New York,Stroke,5a45a8cc-28b2-40b1-8675-16d736b7f48d,Full,THE PLAYERS Championship,THE PLAYERS Championship,TPC Sawgrass (THE PLAYERS Stadium Course),"Ponte Vedra Beach, FL"
132,481,Arnold Palmer Invitational pres. by Mastercard,2022-03-03,2022-03-06,True,False,Bay Hill Club & Lodge,"Orlando, FL",72.0,7466.0,12000000.0,2022-03-03T07:10:00,False,True,Orlando,FL,,USA,America/New York,Stroke,5510f8b8-5e56-4050-83d9-92ac2a432e5a,Full,Arnold Palmer Invitational,Arnold Palmer Invitational pres. by Mastercard,Arnold Palmer's Bay Hill Club & Lodge,"Orlando, FL"
133,480,Puerto Rico Open,2022-03-03,2022-03-06,True,False,Grand Reserve Golf Club,"Rio Grande, Pur",72.0,7506.0,3700000.0,2022-03-03T06:10:00,False,True,Rio Grande,,,PUR,America/Puerto Rico,Stroke,3c6adad6-ae11-4d35-b693-bc157c526e89,Full,Puerto Rico Open,Puerto Rico Open,Grand Reserve Country Club,"Rio Grande, Puerto Rico"
134,479,The Honda Classic,2022-02-24,2022-02-27,True,False,PGA National (Champion),"Palm Beach Gardens, FL",70.0,7125.0,8000000.0,2022-02-24T06:50:00,False,True,Palm Beach Gardens,FL,,USA,America/New York,Stroke,b098207f-9f7c-4521-841e-ff7f38a38710,Full,Cognizant Classic,The Honda Classic,PGA National Resort & Spa (The Champion),"Palm Beach Gardens, FL"
135,478,The Genesis Invitational,2022-02-17,2022-02-20,True,False,The Riviera Country Club,"Pacific Palisades, CA",71.0,7322.0,12000000.0,2022-02-17T09:40:00,False,True,Pacific Palisades,CA,,USA,America/Los Angeles,Stroke,0ac3efed-6933-4158-b68b-2e56c4098367,Full,The Genesis Invitational,The Genesis Invitational,Riviera Country Club,"Pacific Palisades, CA"
136,477,WM Phoenix Open,2022-02-10,2022-02-13,True,False,TPC Scottsdale,"Scottsdale, AZ",71.0,7261.0,8200000.0,2022-02-10T09:15:00,False,True,Scottsdale,AZ,,USA,America/Phoenix,Stroke,2cb222b0-dc8f-4746-a133-a26b32b8d394,Full,Waste Management Phoenix Open,WM Phoenix Open,TPC Scottsdale (Stadium Course),"Scottsdale, AZ"
137,476,AT&T Pebble Beach Pro-Am,2022-02-03,2022-02-06,True,False,Spyglass Hill GC,"Pebble Beach, CA",72.0,7041.0,8700000.0,2022-02-03T11:30:00,False,True,Pebble Beach,CA,,USA,America/Los Angeles,Stroke,ff676a42-ed4f-4937-8eaa-3b5de660e9fa,Full,AT&T Pebble Beach Pro-Am,AT&T Pebble Beach Pro-Am,Spyglass Hill GC,"Pebble Beach, CA"
138,475,Farmers Insurance Open,2022-01-26,2022-01-29,True,False,Torrey Pines (North Course),"La Jolla, CA",72.0,7258.0,8400000.0,2022-01-26T12:00:00,False,True,San Diego,CA,,USA,America/Los Angeles,Stroke,7c9025a0-021c-4bf6-8375-c1c3639e2862,Full,Farmers Insurance Open,Farmers Insurance Open,Torrey Pines (North Course),"La Jolla, CA"
139,474,The American Express,2022-01-20,2022-01-23,True,False,La Quinta Country Club,"La Quinta, CA",72.0,7060.0,7600000.0,2022-01-20T11:40:00,False,True,La Quinta,CA,,USA,America/Los Angeles,Stroke,03027bc8-3d01-4159-a14d-dfb3fb2b1acd,Full,Desert Classic,The American Express,La Quinta Country Club,"La Quinta, CA"
140,473,Sony Open in Hawaii,2022-01-13,2022-01-16,True,False,Waialae Country Club,"Honolulu, HI",70.0,7044.0,7500000.0,2022-01-13T12:10:00,False,True,Honolulu,HI,,USA,Pacific/Honolulu,Stroke,01fcec41-a01a-4112-812f-330306255c4a,Full,Sony Open in Hawaii,Sony Open in Hawaii,Waialae Country Club,"Honolulu, HI"
141,472,Sentry Tournament of Champions,2022-01-06,2022-01-09,True,False,Kapalua Resort (Plantation Course),"Kapalua, HI",73.0,7596.0,8200000.0,2022-01-06T14:35:00,False,True,"Kapalua, Maui",HI,,USA,Pacific/Honolulu,Stroke,ce99ab88-aaf8-449c-95ae-78e8ea31ed58,Full,Tournament of Champions,Sentry Tournament of Champions,Kapalua Resort (Plantation Course),"Kapalua, HI"
142,512,QBE Shootout,2021-12-10,2021-12-12,False,False,Tiburón Golf Course,"Naples, FL",72.0,6556.0,,,,False,Naples,FL,,USA,America/New York,Stroke,,Limited,QBE Shootout,QBE Shootout,Tiburón Golf Course,"Naples, FL"
143,511,Hero World Challenge,2021-12-02,2021-12-05,True,False,Albany,"New Providence, Bah",72.0,7309.0,,,,True,New Providence,,,BAH,America/Nassau,Stroke,195086f5-37b0-421b-9986-13c6e58c3dee,Full,Hero World Challenge,Hero World Challenge,Albany,"New Providence, Bahamas"
144,471,The RSM Classic,2021-11-18,2021-11-21,True,False,Sea Island Resort (Seaside Course),"Saint Simons Island, GA",70.0,7005.0,7200000.0,2021-11-18T09:30:00,False,True,Sea Island,GA,,USA,America/New York,Stroke,91c1dfd8-de1c-4fc5-8c01-444196e2d77d,Full,RSM Classic,The RSM Classic,Sea Island Resort (Seaside Course),"Saint Simons Island, GA"
145,470,Houston Open,2021-11-11,2021-11-14,True,False,Memorial Park Golf Course,"Houston, TX",70.0,7412.0,7500000.0,2021-11-11T07:40:00,False,True,Houston,TX,,USA,America/Chicago,Stroke,5b20cde6-915b-486c-b8b6-e8fa53ad3835,Full,Houston Open,Houston Open,Memorial Park Golf Course,"Houston, TX"
146,469,World Wide Technology Championship at Mayakoba,2021-11-04,2021-11-07,True,False,El CamaleÃ³n Golf Course at Mayakoba,"Quintana Roo, Mexico",71.0,7017.0,7200000.0,2021-11-04T06:55:00,False,True,Riviera Maya,,,MEX,America/Cancun,Stroke,452b2d79-a7bf-4461-91e0-2fe26e787b4c,Full,World Wide Technology Championship,World Wide Technology Championship at Mayakoba,El Camaleón Golf Course at Mayakoba,"Quintana Roo, Mexico"
147,467,Butterfield Bermuda Championship,2021-10-28,2021-10-31,True,False,Port Royal Golf Course,"Southampton Parish, Bermuda",71.0,6828.0,6500000.0,2021-10-28T07:35:00,False,True,Southampton,,,BER,Atlantic/Bermuda,Stroke,91cf5556-9c9f-4854-9fb5-b46c977919cc,Full,Bermuda Championship,Butterfield Bermuda Championship,Port Royal Golf Course,"Southampton Parish, Bermuda"
148,468,WGC-HSBC Champions,2021-10-28,2021-10-31,False,False,Sheshan International GC,"Shanghai, China",72.0,7261.0,,,True,False,Shanghai,,,CHN,Asia/Shanghai,Stroke,d96333cb-1d9b-4167-805b-ad8aa0178857,,WGC-HSBC Champions,World Golf Championships-HSBC Champions,Sheshan International GC,"Shanghai, China"
149,466,ZOZO CHAMPIONSHIP,2021-10-20,2021-10-24,True,False,Accordia Golf Narashino Country Club,"Chiba, Japan",70.0,7041.0,9950000.0,2021-10-21T19:30:00,False,True,Chiba,,,JPN,Asia/Tokyo,Stroke,9ee7dadf-505d-4e82-a605-d392e8e5e896,Full,Zozo Championship,ZOZO CHAMPIONSHIP,Accordia Golf Narashino CC,"Chiba, Japan"
150,465,THE CJ CUP @ SUMMIT,2021-10-14,2021-10-17,True,False,The Summit Club,"Las Vegas, NV",72.0,7431.0,9750000.0,2021-10-14T10:20:00,False,True,Las Vegas,NV,,USA,America/Los Angeles,Stroke,41bf186c-41d0-4d74-b47f-2ef3601afc92,Full,CJ Cup,THE CJ CUP @ SUMMIT,The Summit Club,"Las Vegas, NV"
151,464,Shriners Children's Open,2021-10-07,2021-10-10,True,False,TPC Summerlin,"Las Vegas, NV",71.0,7255.0,7000000.0,2021-10-07T09:40:00,False,True,Las Vegas,NV,,USA,America/Los Angeles,Stroke,28af1e61-fbd8-484b-9203-3dfcab71b336,Full,Shriners Children's Open,Shriners Children's Open,TPC Summerlin,"Las Vegas, NV"
152,463,Sanderson Farms Championship,2021-09-30,2021-10-03,True,False,Country Club of Jackson,"Jackson, MS",72.0,7461.0,7000000.0,2021-09-30T08:05:00,False,True,Jackson,MS,,USA,America/Chicago,Stroke,e2a6fa8e-64fe-442d-9214-f7dc3a837d5e,Full,Sanderson Farms Championship,Sanderson Farms Championship,Country Club of Jackson,"Jackson, MS"
153,402,Ryder Cup,2021-09-24,2021-09-26,False,False,Whistling Straits (Straits Course),"Kohler, WI",71.0,7390.0,,,False,,,,,,,,df7dd2ff-c526-4546-9de1-d3db8625733f,Limited,The Ryder Cup,Ryder Cup,Whistling Straits (Straits Course),"Kohler, WI"
154,510,Ryder Cup,2021-09-24,2021-09-26,False,False,Whistling Straits,"Sheboygan, WI",71.0,7390.0,,,False,False,Sheboygan,WI,,USA,America/Chicago,TeamMatch,1ea219fc-ab4c-438a-81df-6c685e67979c,Limited,The Ryder Cup,Ryder Cup,Whistling Straits (Straits Course),"Kohler, WI"
155,462,Fortinet Championship,2021-09-16,2021-09-19,True,False,Silverado Resort and Spa (North Course),"Napa, CA",72.0,7123.0,7000000.0,2021-09-16T10:00:00,False,True,Napa,CA,,USA,America/Los Angeles,Stroke,e45317f1-7d56-46a2-b36b-15a9ffce7812,Full,Fortinet Championship,Fortinet Championship,Silverado Resort and Spa (North Course),"Napa, CA"
156,453,TOUR Championship,2021-09-02,2021-09-05,True,False,East Lake Golf Club,"Atlanta, GA",70.0,7346.0,,2021-09-02T11:40:00,False,True,Atlanta,GA,,USA,America/New York,Stroke,13d882a1-eae5-4709-ab50-ba3506c2500b,Full,The TOUR Championship,TOUR Championship,East Lake Golf Club,"Atlanta, GA"
157,452,BMW Championship,2021-08-26,2021-08-29,True,False,Caves Valley Golf Club,"Owings Mills, MD",71.0,7226.0,9500000.0,2021-08-26T09:40:00,False,True,Owings Mills,MD,,USA,America/New York,Stroke,2f4d9513-d812-46cb-b46e-58b5b7778f32,Full,BMW PGA Championship,BMW Championship,Caves Valley Golf Club,"Baltimore, MD"
158,451,THE NORTHERN TRUST,2021-08-19,2021-08-22,True,False,Liberty National Golf Club,"Jersey City, NJ",71.0,7410.0,9500000.0,2021-08-19T07:20:00,False,True,Jersey City,NJ,,USA,America/New York,Stroke,ee3bed4a-36a7-447e-924e-44bf8aede71e,Full,The Northern Trust,THE NORTHERN TRUST,Liberty National Golf Club,"Jersey City, NJ"
159,450,Wyndham Championship,2021-08-12,2021-08-15,True,False,Sedgefield Country Club,"Greensboro, NC",70.0,7131.0,6400000.0,2021-08-12T06:50:00,False,True,Greensboro,NC,,USA,America/New York,Stroke,9e7709c3-0dbe-40a2-b8fc-1e660d688688,Full,Wyndham Championship,Wyndham Championship,Sedgefield Country Club,"Greensboro, NC"
160,448,Barracuda Championship,2021-08-05,2021-08-08,True,False,Tahoe Mt. Club (Old Greenwood),"Truckee, CA",71.0,7425.0,3500000.0,,False,False,Truckee,CA,,USA,America/Los Angeles,Stableford,1860e75b-c7c3-43bf-aebd-70ee94d52c03,Limited,Barracuda Championship,Barracuda Championship,Tahoe Mountain Club (Old Greenwood),"Truckee, CA"
161,449,WGC-FedEx St. Jude Invitational,2021-08-05,2021-08-08,True,False,TPC Southwind,"Memphis, TN",70.0,7233.0,10500000.0,2021-08-05T10:15:00,False,True,Memphis,TN,,USA,America/Chicago,Stroke,dbbd3b56-f75e-46d9-bd04-df7f87c685fe,Full,St. Jude Championship,WGC-FedEx St. Jude Invitational,TPC Southwind,"Memphis, TN"
162,447,Olympic Men's Golf Competition,2021-07-29,2021-08-01,True,False,Kasumigaseki Country Club,"Saitama, Jpn",71.0,7447.0,,,False,True,Saitama,,,JPN,Asia/Tokyo,Stroke,,Full,Olympic Men's Golf Competition,,Kasumigaseki Country Club,"Saitama, Jpn"
163,446,3M Open,2021-07-22,2021-07-25,True,False,TPC Twin Cities,"Blaine, MN",71.0,7431.0,6600000.0,2021-07-22T07:50:00,False,True,Blaine,MN,,USA,America/Chicago,Stroke,aed3b480-373d-46c8-a3ab-befba4d83751,Full,3M Open,3M Open,TPC Twin Cities,"Blaine, MN"
164,457,Barbasol Championship,2021-07-15,2021-07-18,True,False,Keene Trace Golf Club,"Nicholasville, KY",72.0,7328.0,3500000.0,2021-07-15T07:45:00,False,True,Nicholasville,KY,,USA,America/New York,Stroke,744207d7-4fe4-4bcf-aec6-3a9a55522fac,Full,Barbasol Championship,Barbasol Championship,Keene Trace Golf Club (Champions Course),"Nicholasville, KY"
165,445,The Open Championship,2021-07-15,2021-07-18,True,False,Royal St. George's GC,"Sandwich, Kent, Eng",70.0,7189.0,11500000.0,2021-07-15T01:35:00,False,True,"Sandwich, Kent",,,ENG,Europe/London,Stroke,bdbd8464-ba49-4f12-a5eb-2197e827167c,Full,The Open Championship,The Open Championship,Royal St. George's Golf Club,"Kent, England"
166,444,John Deere Classic,2021-07-08,2021-07-11,True,False,TPC Deere Run,"Silvis, IL",71.0,7268.0,6200000.0,2021-07-08T07:45:00,False,True,Silvis,IL,,USA,America/Chicago,Stroke,fc8d4a7e-c226-49ed-a5eb-fa8d16c26647,Full,John Deere Classic,John Deere Classic,TPC Deere Run,"Silvis, IL"
167,443,Rocket Mortgage Classic,2021-07-01,2021-07-04,True,False,Detroit Golf Club,"Detroit, MI",72.0,7370.0,7500000.0,2021-07-01T06:45:00,False,True,Detroit,MI,,USA,America/New York,Stroke,5d0665a9-257a-4419-bded-66e2812e34dd,Full,Rocket Mortgage Classic,Rocket Mortgage Classic,Detroit Golf Club,"Detroit, MI"
168,442,Travelers Championship,2021-06-24,2021-06-27,True,False,TPC River Highlands,"Cromwell, CT",70.0,6841.0,7400000.0,2021-06-24T06:45:00,False,True,Cromwell,CT,,USA,America/New York,Stroke,ae2f825c-f895-451d-ae7c-7872e8af3b5a,Full,Travelers Championship,Travelers Championship,TPC River Highlands,"Cromwell, CT"
169,455,U.S. Open,2021-06-17,2021-06-20,True,False,Torrey Pines (South),"San Diego, CA",71.0,7652.0,,2021-06-17T09:45:00,False,True,San Diego,CA,,USA,America/Los Angeles,Stroke,0a4373fe-a2b9-4a9d-ad84-d342dea6b61a,Full,U.S. Open,U.S. Open,Torrey Pines (South Course),"La Jolla, CA"
170,461,Palmetto Championship at Congaree,2021-06-10,2021-06-13,True,False,Congaree Golf Club,"Ridgeland, SC",71.0,7655.0,7300000.0,2021-06-10T07:00:00,False,True,Ridgeland,SC,,USA,America/New York,Stroke,f1fa0a7e-fdad-4fc4-b79f-bdecf5483a6e,Full,Palmetto Championship,Palmetto Championship at Congaree,Congaree Golf Club,"Ridgeland, SC"
171,441,RBC Canadian Open,2021-06-10,2021-06-13,False,False,St. George's Golf and Country Club,"Etobicoke, ON",70.0,7014.0,,,True,False,"Toronto, ON",,,CAN,America/Toronto,Stroke,3e27a2c2-49ac-4f97-a412-a9b73048544f,,RBC Canadian Open,RBC Canadian Open,St. George's Golf and Country Club,"Toronto, ON"
172,440,the Memorial Tournament pres. by Nationwide,2021-06-03,2021-06-06,True,False,Muirfield Village Golf Club,"Dublin, OH",72.0,7543.0,9300000.0,2021-06-03T07:20:00,False,True,Dublin,OH,,USA,America/New York,Stroke,79b00955-02a9-44d5-9b77-a5b32931914e,Full,Memorial Tournament,the Memorial Tournament pres. by Nationwide,Muirfield Village Golf Club,"Dublin, OH"
173,439,Charles Schwab Challenge,2021-05-27,2021-05-30,True,False,Colonial Country Club,"Fort Worth, TX",70.0,7209.0,7500000.0,2021-05-27T08:10:00,False,True,Fort Worth,TX,,USA,America/Chicago,Stroke,a29937b5-6c59-4df1-b76a-960472ed99f2,Full,Charles Schwab Challenge,Charles Schwab Challenge,Colonial Country Club,"Fort Worth, TX"
174,438,PGA Championship,2021-05-20,2021-05-23,True,False,Ocean Course at Kiawah Island,"Kiawah Island, SC",72.0,7876.0,12000000.0,2021-05-20T07:00:00,False,True,Kiawah Island,SC,,USA,America/New York,Stroke,c64bdf30-a5e5-4342-a466-22ce64761921,Full,PGA Championship,PGA Championship,Kiawah Island Golf Resort (Ocean Course),"Kiawah Island, SC"
175,437,AT&T Byron Nelson,2021-05-13,2021-05-16,True,False,TPC Craig Ranch,"McKinney, TX",72.0,7468.0,8100000.0,2021-05-13T07:50:00,False,True,McKinney,TX,,USA,America/Chicago,Stroke,4b53539d-b2d9-4d34-a330-a9c97463652b,Full,AT&T Byron Nelson,AT&T Byron Nelson,TPC Craig Ranch,"McKinney, TX"
176,436,Wells Fargo Championship,2021-05-06,2021-05-09,True,False,Quail Hollow Club,"Charlotte, NC",71.0,7521.0,8100000.0,2021-05-06T06:50:00,False,True,Charlotte,NC,,USA,America/New York,Stroke,8f4de967-66c1-414b-8b85-111c85e4f748,Full,Wells Fargo Championship,Wells Fargo Championship,Quail Hollow Club,"Charlotte, NC"
177,435,Valspar Championship,2021-04-29,2021-05-02,True,False,Innisbrook Resort (Copperhead),"Palm Harbor, FL",71.0,7340.0,6900000.0,2021-04-29T06:55:00,False,True,Palm Harbor,FL,,USA,America/New York,Stroke,fef5f221-37cd-4b9a-b018-4581af6bddc8,Full,Valspar Championship,Valspar Championship,Innisbrook Resort (Copperhead Course),"Palm Harbor, FL"
178,434,Zurich Classic of New Orleans,2021-04-22,2021-04-25,False,False,TPC Louisiana,"Avondale, LA",72.0,7425.0,7400000.0,,False,False,Avondale,LA,,USA,America/Chicago,Team,f2d3d130-82a9-48cf-815f-c2214d5fd969,Limited,Zurich Classic of New Orleans,Zurich Classic of New Orleans,TPC Louisiana,"Avondale, LA"
179,433,RBC Heritage,2021-04-15,2021-04-18,True,False,Harbour Town Golf Links,"Hilton Head, SC",71.0,7121.0,7100000.0,2021-04-15T07:00:00,False,True,Hilton Head,SC,,USA,America/New York,Stroke,7a6c7132-ede5-4b2d-ab4c-074ff297d95f,Full,RBC Heritage,RBC Heritage,Harbour Town Golf Links,"Hilton Head Island, SC"
180,454,2021 Masters Tournament,2021-04-08,2021-04-11,True,False,Augusta National Golf Club,"Augusta, GA",72.0,7475.0,11500000.0,2021-04-08T08:00:00,False,True,Augusta,GA,,USA,America/New York,Stroke,a241ae87-6283-45fe-baef-22c2cb24d3b6,Full,The Masters Tournament,2021 Masters Tournament,Augusta National Golf Club,"Augusta, GA"
181,432,Valero Texas Open,2021-04-01,2021-04-04,True,False,TPC San Antonio (Oaks Course),"San Antonio, TX",72.0,7494.0,7700000.0,2021-04-01T08:25:00,False,True,San Antonio,TX,,USA,America/Chicago,Stroke,0f42ef2a-196d-47b0-ac8d-429ec77b8b3d,Full,Valero Texas Open,Valero Texas Open,TPC San Antonio (Oaks Course),"San Antonio, TX"
182,373,Corales Puntacana Resort & Club Championship,2021-03-25,2021-03-28,True,False,Corales Golf Course,"Punta Cana, Dom",72.0,7670.0,3000000.0,2021-03-25T06:45:00,False,True,Punta Cana,,,DOM,America/Dominica,Stroke,e8d09c79-21e7-4c40-bde4-9f3f3a1e9d65,Full,Corales Puntacana Championship,Corales Puntacana Resort & Club Championship,Puntacana Resort & Club (Corales Golf Course),"Punta Cana, Dominican Republic"
183,431,WGC-Dell Technologies Match Play,2021-03-24,2021-03-28,False,False,Austin Country Club,"Austin, TX",71.0,7108.0,10500000.0,,False,False,Austin,TX,,USA,America/Chicago,Match,8fd31d7c-2357-448b-b16f-e1953fe77757,Limited,WGC-Dell Technologies Match Play,WGC-Dell Technologies Match Play,Austin Country Club,"Austin, TX"
184,430,The Honda Classic,2021-03-18,2021-03-21,True,False,PGA National (Champion),"Palm Beach Gardens, FL",70.0,7125.0,7000000.0,2021-03-18T07:25:00,False,True,Palm Beach Gardens,FL,,USA,America/New York,Stroke,c5068725-96da-4cee-81b1-054e1ef1b7c9,Full,Cognizant Classic,The Honda Classic,PGA National Resort & Spa (The Champion),"Palm Beach Gardens, FL"
185,429,THE PLAYERS Championship,2021-03-11,2021-03-14,True,False,TPC Sawgrass,"Ponte Vedra Beach, FL",72.0,7189.0,15000000.0,2021-03-11T06:45:00,False,True,Ponte Vedra Beach,FL,,USA,America/New York,Stroke,452f32b4-d349-4963-89be-208c018d7e04,Full,THE PLAYERS Championship,THE PLAYERS Championship,TPC Sawgrass (THE PLAYERS Stadium Course),"Ponte Vedra Beach, FL"
186,428,Arnold Palmer Invitational Pres. By Mastercard,2021-03-04,2021-03-07,True,False,Bay Hill Club & Lodge,"Orlando, FL",72.0,7466.0,9300000.0,2021-03-04T07:00:00,False,True,Orlando,FL,,USA,America/New York,Stroke,ffa05b35-6dfe-4463-95a6-7b2747b306aa,Full,Arnold Palmer Invitational,Arnold Palmer Invitational Pres. By Mastercard,Arnold Palmer's Bay Hill Club & Lodge,"Orlando, FL"
187,426,Puerto Rico Open,2021-02-25,2021-02-28,True,False,Grand Reserve Country Club,"Rio Grande, Pur",72.0,7506.0,3000000.0,2021-02-25T06:00:00,False,True,Rio Grande,,,PUR,America/Puerto Rico,Stroke,b3e0f344-fc79-4218-bb89-85c04c38d76e,Full,Puerto Rico Open,Puerto Rico Open,Grand Reserve Country Club,"Rio Grande, Puerto Rico"
188,427,WGC-Workday Championship at The Concession,2021-02-25,2021-02-28,True,False,The Concession Golf Club,"Bradenton, FL",72.0,7564.0,10500000.0,2021-02-25T10:58:00,False,True,Bradenton,FL,,USA,America/New York,Stroke,583a283d-73df-48ac-9351-f7c880f7408a,Full,WGC-Workday Championship,WGC-Workday Championship at The Concession,The Concession Golf Club,"Bradenton, FL"
189,425,The Genesis Invitational,2021-02-18,2021-02-21,True,False,The Riviera Country Club,"Pacific Palisades, CA",71.0,7322.0,9300000.0,2021-02-18T09:40:00,False,True,Pacific Palisades,CA,,USA,America/Los Angeles,Stroke,46baf205-e4e6-4c74-81d5-862d7b7639d9,Full,The Genesis Invitational,The Genesis Invitational,Riviera Country Club,"Pacific Palisades, CA"
190,424,AT&T Pebble Beach Pro-Am,2021-02-11,2021-02-14,True,False,Pebble Beach Golf Links,"Pebble Beach, CA",72.0,7041.0,7800000.0,2021-02-11T11:30:00,False,True,Pebble Beach,CA,,USA,America/Los Angeles,Stroke,16b5eb1c-7d98-47e2-b613-2ffd85840920,Full,AT&T Pebble Beach Pro-Am,AT&T Pebble Beach Pro-Am,Spyglass Hill GC,"Pebble Beach, CA"
191,423,Waste Management Phoenix Open,2021-02-04,2021-02-07,True,False,TPC Scottsdale,"Scottsdale, AZ",71.0,7261.0,7300000.0,2021-02-04T09:20:00,False,True,Scottsdale,AZ,,USA,America/Phoenix,Stroke,976a817d-ad4b-4910-ac6a-c601197dabf2,Full,Waste Management Phoenix Open,Waste Management Phoenix Open,TPC Scottsdale (Stadium Course),"Scottsdale, AZ"
192,422,Farmers Insurance Open,2021-01-28,2021-01-31,True,False,Torrey Pines (South),"San Diego, CA",72.0,7258.0,7500000.0,2021-01-28T12:00:00,False,True,San Diego,CA,,USA,America/Los Angeles,Stroke,ce95bf8a-098d-4e91-9174-2a20081e21cc,Full,Farmers Insurance Open,Farmers Insurance Open,Torrey Pines (North Course),"La Jolla, CA"
193,419,The American Express,2021-01-21,2021-01-24,True,False,PGA WEST (Stadium),"La Quinta, CA",72.0,7181.0,6700000.0,2021-01-21T12:10:00,False,True,La Quinta,CA,,USA,America/Los Angeles,Stroke,cf853393-3d3f-42c6-87c0-6253f461797c,Full,Desert Classic,The American Express,La Quinta Country Club,"La Quinta, CA"
194,421,Sony Open in Hawaii,2021-01-14,2021-01-17,True,False,Waialae Country Club,"Honolulu, HI",70.0,7044.0,6600000.0,2021-01-14T12:10:00,False,True,Honolulu,HI,,USA,Pacific/Honolulu,Stroke,cd6cb511-5081-4bcf-a76d-7442237ebca4,Full,Sony Open in Hawaii,Sony Open in Hawaii,Waialae Country Club,"Honolulu, HI"
195,420,Sentry Tournament of Champions,2021-01-07,2021-01-10,True,False,Plantation Course at Kapalua,"Kapalua, Maui, HI",73.0,7596.0,6700000.0,2021-01-07T14:10:00,False,True,"Kapalua, Maui",HI,,USA,Pacific/Honolulu,Stroke,96d597b4-4f60-4126-be7b-277a3736c92e,Full,Tournament of Champions,Sentry Tournament of Champions,Kapalua Resort (Plantation Course),"Kapalua, HI"
196,418,QBE Shootout,2020-12-11,2020-12-13,False,False,Tiburón Golf Course,"Naples, FL",72.0,6556.0,3600000.0,,False,False,Naples,FL,,USA,America/New York,Stroke,,Limited,QBE Shootout,QBE Shootout,Tiburón Golf Course,"Naples, FL"
197,416,Hero World Challenge,2020-12-03,2020-12-06,False,False,Albany,"New Providence, Bahamas",72.0,7309.0,,,True,False,New Providence,,,BAH,America/Nassau,Stroke,be4564fe-6831-416e-b548-bea2eb893530,,Hero World Challenge,Hero World Challenge,Albany,"New Providence, Bahamas"
198,415,Mayakoba Golf Classic presented by UNIFIN,2020-12-03,2020-12-06,True,False,El Camaleon Golf Club,"Playa del Carmen, Mex",71.0,7017.0,7200000.0,2020-12-03T07:10:00,False,True,Playa del Carmen,,,MEX,America/Cancun,Stroke,3abcd172-7f69-48ee-ac11-7ff42e7cc2bb,Full,World Wide Technology Championship,Mayakoba Golf Classic presented by UNIFIN,El Camaleón Golf Course at Mayakoba,"Quintana Roo, Mexico"
199,414,The RSM Classic,2020-11-19,2020-11-22,True,False,Sea Island Resort (Seaside),"Sea Island, GA",70.0,7005.0,6600000.0,2020-11-19T09:30:00,False,True,Sea Island,GA,,USA,America/New York,Stroke,d682034f-985e-4ddd-bd55-c8c68e13d0ce,Full,RSM Classic,The RSM Classic,Sea Island Resort (Seaside Course),"Saint Simons Island, GA"
200,375,2020 Masters Tournament,2020-11-12,2020-11-15,True,False,Augusta National Golf Club,"Augusta, GA",72.0,7475.0,,2020-11-12T07:00:00,False,True,Augusta,GA,,USA,America/New York,Stroke,1dd9d68d-dcdf-4238-a82b-ed2077ea799d,Full,The Masters Tournament,2020 Masters Tournament,Augusta National Golf Club,"Augusta, GA"
201,413,Vivint Houston Open,2020-11-05,2020-11-08,True,False,Memorial Park Golf Course,"Houston, TX",70.0,7432.0,7000000.0,2020-11-05T07:45:00,False,True,Houston,TX,,USA,America/Chicago,Stroke,ab24b7f0-66ac-4533-8124-a79ffa344cd5,Full,Houston Open,Vivint Houston Open,Memorial Park Golf Course,"Houston, TX"
202,412,Bermuda Championship,2020-10-29,2020-11-01,True,False,Port Royal Golf Course,"Southampton, Ber",71.0,6828.0,4000000.0,2020-10-29T06:35:00,False,True,Southampton,,,BER,Atlantic/Bermuda,Stroke,b32efff9-b2ce-4d7a-9bd5-b6a6203e2e86,Full,Bermuda Championship,Bermuda Championship,Port Royal Golf Course,"Southampton Parish, Bermuda"
203,411,WGC-HSBC CHAMPIONS,2020-10-29,2020-11-01,False,False,Sheshan International GC,"Shanghai, China",72.0,7261.0,,,True,False,,,,,,,5239280b-f9ba-4599-899a-ed81b6ca2f52,,WGC-HSBC Champions,WGC-HSBC CHAMPIONS,Sheshan International GC,"Shanghai, China"
204,410,The ZOZO CHAMPIONSHIP,2020-10-22,2020-10-25,True,False,Sherwood Country Club,"Thousand Oaks, CA",72.0,7073.0,8000000.0,2020-10-22T12:50:00,False,True,Thousand Oaks,CA,,USA,America/Los Angeles,Stroke,99aca214-468e-42ca-9efa-ff684ad237f7,Full,Zozo Championship,The ZOZO CHAMPIONSHIP,Sherwood CC in Thousand Oaks,"Thousand Oaks, CA"
205,409,THE CJ CUP @ SHADOW CREEK,2020-10-15,2020-10-18,True,False,Shadow Creek Golf Course,"Las Vegas, NV",72.0,7527.0,9750000.0,2020-10-15T12:45:00,False,True,Las Vegas,NV,,USA,America/Los Angeles,Stroke,a1028f30-78a9-4b73-90b8-8e281ba706db,Full,CJ Cup,THE CJ CUP @ SHADOW CREEK,Shadow Creek Golf Course,"Las Vegas, NV"
206,403,Shriners Hospitals for Children Open,2020-10-08,2020-10-11,True,False,TPC Summerlin,"Las Vegas, NV",71.0,7255.0,7000000.0,2020-10-08T09:45:00,False,True,Las Vegas,NV,,USA,America/Los Angeles,Stroke,fa083745-6b9c-4fb7-8789-3841a42ca513,Full,Shriners Children's Open,Shriners Hospitals for Children Open,TPC Summerlin,"Las Vegas, NV"
207,408,Sanderson Farms Championship,2020-10-01,2020-10-04,True,False,Country Club of Jackson,"Jackson, MS",72.0,7461.0,6600000.0,2020-10-01T08:05:00,False,True,Jackson,MS,,USA,America/Chicago,Stroke,c1ecfe2c-bc88-46a5-9f45-f2afb948ebf4,Full,Sanderson Farms Championship,Sanderson Farms Championship,Country Club of Jackson,"Jackson, MS"
208,456,Corales Puntacana Resort & Club Championship,2020-09-24,2020-09-27,True,False,Corales Golf Course,"Punta Cana, Dom",72.0,7666.0,4000000.0,2020-09-24T06:30:00,False,True,Punta Cana,,,DOM,America/Dominica,Stroke,7bfb3e89-640f-405b-b3d0-8f327f3530fa,Full,Corales Puntacana Championship,Corales Puntacana Resort & Club Championship,Puntacana Resort & Club (Corales Golf Course),"Punta Cana, Dominican Republic"
209,385,U.S. Open,2020-09-17,2020-09-20,True,False,Winged Foot Golf Club,"Mamaroneck, NY",70.0,7477.0,12500000.0,2020-09-17T06:50:00,False,True,Mamaroneck,NY,,USA,America/New York,Stroke,416a2e0a-d3b3-4518-8560-48bef8b09161,Full,U.S. Open,U.S. Open,Winged Foot GC,"Mamaroneck, NY"
210,406,Safeway Open,2020-09-10,2020-09-13,True,False,Silverado Resort and Spa North,"Napa, CA",72.0,7166.0,6600000.0,2020-09-10T11:00:00,False,True,Napa,CA,,USA,America/Los Angeles,Stroke,6ba4893c-c82e-4269-a0ab-c99a05c854a8,Full,Fortinet Championship,Safeway Open,Silverado Resort and Spa (North Course),"Napa, CA"
211,396,Tour Championship,2020-09-04,2020-09-07,True,False,East Lake Golf Club,"Atlanta, GA",70.0,7346.0,,2020-09-04T12:00:00,False,True,Atlanta,GA,,USA,America/New York,Stroke,6dea365a-c82e-4e6b-a33a-6825560c3500,Full,The TOUR Championship,Tour Championship,East Lake Golf Club,"Atlanta, GA"
212,395,BMW Championship,2020-08-27,2020-08-30,True,False,Olympia Fields CC (North),"Olympia Fields, IL",70.0,7366.0,9500000.0,2020-08-27T12:30:00,False,True,Olympia Fields,IL,,USA,America/Chicago,Stroke,587885ab-0ce0-4687-ae4e-f975d0de9c17,Full,BMW PGA Championship,BMW Championship,Olympia Fields Country Club,"Olympia Fields, IL"
213,394,THE NORTHERN TRUST,2020-08-20,2020-08-23,True,False,TPC Boston,"Norton, MA",71.0,7308.0,9500000.0,2020-08-20T07:20:00,False,True,Norton,MA,,USA,America/New York,Stroke,a39e2a1c-85f2-4b58-94fd-48820b4c02cc,Full,The Northern Trust,THE NORTHERN TRUST,TPC Boston,"Norton, MA"
214,393,Wyndham Championship,2020-08-13,2020-08-16,True,False,Sedgefield CC,"Greensboro, NC",70.0,7131.0,6400000.0,2020-08-13T07:00:00,False,True,Greensboro,NC,,USA,America/New York,Stroke,fc330596-53ce-4715-b962-ca4c54223522,Full,Wyndham Championship,Wyndham Championship,Sedgefield Country Club,"Greensboro, NC"
215,380,PGA Championship,2020-08-06,2020-08-09,True,False,TPC Harding Park,"San Francisco, CA",70.0,7251.0,11000000.0,2020-08-06T10:00:00,False,True,San Francisco,CA,,USA,America/Los Angeles,Stroke,475bb76a-7522-48ab-ae00-dc3be1837b0c,Full,PGA Championship,PGA Championship,TPC Harding Park,"San Francisco, CA"
216,388,Barracuda Championship,2020-07-30,2020-08-02,False,False,Tahoe Mt. Club (Old Greenwood),"Truckee, CA",71.0,7390.0,3500000.0,,False,False,Truckee,CA,,USA,America/Los Angeles,Stableford,88579011-8f40-4d5c-af9e-48102483e66b,Limited,Barracuda Championship,Barracuda Championship,Tahoe Mountain Club (Old Greenwood),"Truckee, CA"
217,387,WGC-FedEx St. Jude Invitational,2020-07-30,2020-08-02,True,False,TPC Southwind,"Memphis, TN",70.0,7277.0,10500000.0,2020-07-30T12:00:00,False,True,Memphis,TN,,USA,America/Chicago,Stroke,6b4ab8ff-8d69-4917-a8a2-d2cfed573e96,Full,St. Jude Championship,WGC-FedEx St. Jude Invitational,TPC Southwind,"Memphis, TN"
218,398,Olympic Men's Golf Competition,2020-07-30,2020-08-02,False,False,Kasumigaseki Country Club,"Saitama, Jpn",71.0,7447.0,,,False,False,Saitama,,,JPN,Asia/Tokyo,Stroke,,Limited,Olympic Men's Golf Competition,,Kasumigaseki Country Club,"Saitama, Jpn"
219,392,3M Open,2020-07-23,2020-07-26,True,False,TPC Twin Cities,"Blaine, MN",71.0,7431.0,6600000.0,2020-07-23T07:50:00,False,True,Blaine,MN,,USA,America/Chicago,Stroke,9abefcdd-10ff-4aad-8a62-e62eb74667ea,Full,3M Open,3M Open,TPC Twin Cities,"Blaine, MN"
220,391,Barbasol Championship,2020-07-16,2020-07-19,False,False,Keene Trace GC,"Nicholasville, KY",72.0,7328.0,,,True,False,Nicholasville,KY,,USA,America/New York,Stroke,1e6774f7-f671-46ed-95c6-7953e41dcc1a,,Barbasol Championship,Barbasol Championship,Keene Trace Golf Club (Champions Course),"Nicholasville, KY"
221,383,the Memorial Tournament pres. by Nationwide,2020-07-16,2020-07-19,True,False,Muirfield Village GC,"Dublin, OH",72.0,7456.0,9300000.0,2020-07-16T07:00:00,False,True,Dublin,OH,,USA,America/New York,Stroke,6d9040b6-4b78-4b77-b815-c76348267899,Full,Memorial Tournament,the Memorial Tournament pres. by Nationwide,Muirfield Village Golf Club,"Dublin, OH"
222,390,The Open Championship,2020-07-16,2020-07-19,False,False,Royal St. George's Golf Club,"Kent, England",70.0,7211.0,,,True,False,"Sandwich, Kent",,,ENG,Europe/London,Stroke,fb40121e-2cdb-484d-86dd-5d2bbc07b790,,The Open Championship,The Open Championship,Royal St. George's Golf Club,"Kent, England"
223,417,Workday Charity Open,2020-07-09,2020-07-12,True,False,Muirfield Village GC,"Dublin, OH",72.0,7456.0,6200000.0,2020-07-09T06:50:00,False,True,Dublin,OH,,USA,America/New York,Stroke,,Full,Workday Charity Open,Workday Charity Open,Muirfield Village Golf Club,"Dublin, OH"
224,389,John Deere Classic,2020-07-09,2020-07-12,False,False,TPC Deere Run,"Silvis, IL",71.0,7268.0,,,True,False,Silvis,IL,,USA,America/Chicago,Stroke,4e0af770-b501-4c43-8cb8-33977b1f6124,,John Deere Classic,John Deere Classic,TPC Deere Run,"Silvis, IL"
225,382,Rocket Mortgage Classic,2020-07-02,2020-07-05,True,False,Detroit Golf Club,"Detroit, MI",72.0,7340.0,7500000.0,2020-07-02T06:45:00,False,True,Detroit,MI,,USA,America/New York,Stroke,9f589ec1-5e41-4cf6-a983-7dd4d43800a9,Full,Rocket Mortgage Classic,Rocket Mortgage Classic,Detroit Golf Club,"Detroit, MI"
226,386,Travelers Championship,2020-06-25,2020-06-28,True,False,TPC River Highlands,"Cromwell, CT",70.0,6841.0,7400000.0,2020-06-25T06:45:00,False,True,Cromwell,CT,,USA,America/New York,Stroke,a4009c5b-97eb-454d-a634-a62f50d294d5,Full,Travelers Championship,Travelers Championship,TPC River Highlands,"Cromwell, CT"
227,376,RBC Heritage,2020-06-18,2020-06-21,True,False,Harbour Town GL,"Hilton Head, SC",71.0,7099.0,7100000.0,2020-06-18T06:45:00,False,True,Hilton Head,SC,,USA,America/New York,Stroke,6144b6c1-00f4-4883-85c8-c4e49b2ed8dd,Full,RBC Heritage,RBC Heritage,Harbour Town Golf Links,"Hilton Head Island, SC"
228,381,Charles Schwab Challenge,2020-06-11,2020-06-14,True,False,Colonial CC,"Fort Worth, TX",70.0,7209.0,7500000.0,2020-06-11T06:50:00,False,True,Fort Worth,TX,,USA,America/Chicago,Stroke,ff2d660f-29b6-41d7-8d07-9ecf91b8e016,Full,Charles Schwab Challenge,Charles Schwab Challenge,Colonial Country Club,"Fort Worth, TX"
229,384,RBC Canadian Open,2020-06-11,2020-06-14,False,False,St. George's Golf and Country Club,"Etobicoke, ON",70.0,7014.0,,,True,False,"Toronto, ON",,,CAN,America/Toronto,Stroke,a75e5cda-7ae4-4749-bbe3-83d5a0e166d4,,RBC Canadian Open,RBC Canadian Open,St. George's Golf and Country Club,"Toronto, ON"
230,379,AT&T Byron Nelson,2020-05-07,2020-05-10,False,False,Trinity Forest Golf Club,"Dallas, TX",71.0,7371.0,,,True,False,Dallas,TX,,USA,America/Chicago,Stroke,4e4131d8-27c9-4370-9ec6-5f59bdcdec70,,AT&T Byron Nelson,AT&T Byron Nelson,Trinity Forest Golf Club,"Dallas, TX"
231,378,Wells Fargo Championship,2020-04-30,2020-05-03,False,False,Quail Hollow Club,"Charlotte, NC",71.0,7600.0,,,True,False,Charlotte,NC,,USA,America/New York,Stroke,f926442a-8480-4892-b796-95ad3c6eb22e,,Wells Fargo Championship,Wells Fargo Championship,Quail Hollow Club,"Charlotte, NC"
232,377,Zurich Classic of New Orleans,2020-04-23,2020-04-26,False,False,TPC of Louisiana,"Avondale, LA",72.0,7425.0,,,True,False,Avondale,LA,,USA,America/Chicago,Team,f5d94cd6-4b75-4625-9111-5b214acc5cd5,,Zurich Classic of New Orleans,Zurich Classic of New Orleans,TPC Louisiana,"Avondale, LA"
233,374,Valero Texas Open,2020-04-02,2020-04-05,False,False,TPC San Antonio (Oaks),"San Antonio, TX",72.0,7435.0,,,True,False,San Antonio,TX,,USA,America/Chicago,Stroke,2061ea3f-f69d-4448-8c2b-ef89dcabe80d,,Valero Texas Open,Valero Texas Open,TPC San Antonio (Oaks Course),"San Antonio, TX"
234,372,WGC-Dell Technologies Match Play,2020-03-25,2020-03-29,False,False,Austin Country Club,"Austin, TX",71.0,7108.0,,,True,False,Austin,TX,,USA,America/Chicago,Match,bebdecd5-0c80-47aa-a05f-4894b4851888,,WGC-Dell Technologies Match Play,WGC-Dell Technologies Match Play,Austin Country Club,"Austin, TX"
235,371,Valspar Championship,2020-03-19,2020-03-22,False,False,Innisbrook Resort -Copperhead,"Palm Harbor, FL",71.0,7340.0,,,True,False,Palm Harbor,FL,,USA,America/New York,Stroke,2f73e1f1-c88f-456b-86d5-a1e15e6fa1ba,,Valspar Championship,Valspar Championship,Innisbrook Resort (Copperhead Course),"Palm Harbor, FL"
236,370,THE PLAYERS Championship,2020-03-12,2020-03-15,False,False,TPC Sawgrass,"Ponte Vedra Beach, FL",72.0,7189.0,,2020-03-12T07:40:00,True,False,Ponte Vedra Beach,FL,,USA,America/New York,Stroke,9885bd37-c9d6-44ec-88e1-b324eb7aaa00,,THE PLAYERS Championship,THE PLAYERS Championship,TPC Sawgrass (THE PLAYERS Stadium Course),"Ponte Vedra Beach, FL"
237,369,Arnold Palmer Invitational Pres. By Mastercard,2020-03-05,2020-03-08,True,False,Bay Hill Club & Lodge,"Orlando, FL",72.0,7454.0,9300000.0,2020-03-05T06:45:00,False,True,Orlando,FL,,USA,America/New York,Stroke,831d55fe-8738-441e-b0cd-d2025b723cac,Full,Arnold Palmer Invitational,Arnold Palmer Invitational Pres. By Mastercard,Arnold Palmer's Bay Hill Club & Lodge,"Orlando, FL"
238,368,The Honda Classic,2020-02-27,2020-03-01,True,False,PGA National (Champion),"Palm Beach Gardens, FL",70.0,7125.0,7000000.0,2020-02-27T06:45:00,False,True,Palm Beach Gardens,FL,,USA,America/New York,Stroke,cdc0ac26-9559-4bab-8862-24b0c17ad280,Full,Cognizant Classic,The Honda Classic,PGA National Resort & Spa (The Champion),"Palm Beach Gardens, FL"
239,366,WGC-Mexico Championship,2020-02-20,2020-02-23,True,False,Club de Golf Chapultepec,"Mexico City, Mex",71.0,7355.0,10500000.0,,False,True,Mexico City,,,MEX,America/Mexico City,Stroke,f4cddf0c-e324-4e7c-a4c6-3c7808613170,Full,WGC-Mexico Championship,WGC-Mexico Championship,Club De Golf Chapultepec,"Mexico City, Mexico"
240,367,Puerto Rico Open,2020-02-20,2020-02-23,True,False,Grand Reserve Country Club,"Rio Grande, Pur",72.0,7506.0,3000000.0,2020-02-20T07:10:00,False,True,Rio Grande,,,PUR,America/Puerto Rico,Stroke,e492720e-6f7c-43df-a253-94f510e85408,Full,Puerto Rico Open,Puerto Rico Open,Grand Reserve Country Club,"Rio Grande, Puerto Rico"
241,365,The Genesis Invitational,2020-02-13,2020-02-16,True,False,Riviera CC,"Pacific Palisades, CA",71.0,7322.0,9300000.0,2020-02-13T06:45:00,False,True,Pacific Palisades,CA,,USA,America/Los Angeles,Stroke,6b8971b9-ad72-4e6b-8406-238df4dc37c9,Full,The Genesis Invitational,The Genesis Invitational,Riviera Country Club,"Pacific Palisades, CA"
242,364,AT&T Pebble Beach Pro-Am,2020-02-06,2020-02-09,True,False,Pebble Beach GL,"Pebble Beach, CA",72.0,7035.0,7800000.0,2020-02-06T08:00:00,False,True,Pebble Beach,CA,,USA,America/Los Angeles,Stroke,4cafc9c9-4252-48e3-ba1c-dc64f912403a,Full,AT&T Pebble Beach Pro-Am,AT&T Pebble Beach Pro-Am,Spyglass Hill GC,"Pebble Beach, CA"
243,363,Waste Management Phoenix Open,2020-01-30,2020-02-02,True,False,TPC Scottsdale,"Scottsdale, AZ",71.0,7261.0,7300000.0,2020-01-30T07:20:00,False,True,Scottsdale,AZ,,USA,America/Phoenix,Stroke,ab429320-89bd-4f08-aa30-26b3a9b6de97,Full,Waste Management Phoenix Open,Waste Management Phoenix Open,TPC Scottsdale (Stadium Course),"Scottsdale, AZ"
244,362,Farmers Insurance Open,2020-01-23,2020-01-26,True,False,Torrey Pines GC (South),"San Diego, CA",72.0,7258.0,7500000.0,2020-01-23T09:00:00,False,True,San Diego,CA,,USA,America/Los Angeles,Stroke,cdb75001-12a4-43c1-9efa-0319f2aa902c,Full,Farmers Insurance Open,Farmers Insurance Open,Torrey Pines (North Course),"La Jolla, CA"
245,361,The American Express,2020-01-16,2020-01-19,True,False,Stadium Course,"La Quinta, CA",72.0,7060.0,6700000.0,2020-01-16T08:30:00,False,True,La Quinta,CA,,USA,America/Los Angeles,Stroke,406f5027-43e6-4032-913e-e3ad81df8014,Full,Desert Classic,The American Express,La Quinta Country Club,"La Quinta, CA"
246,360,Sony Open in Hawaii,2020-01-09,2020-01-12,True,False,Waialae CC,"Honolulu, HI",70.0,7044.0,6600000.0,2020-01-09T07:10:00,False,True,Honolulu,HI,,USA,Pacific/Honolulu,Stroke,5f617694-fbc4-474c-ac12-42589b9b5cde,Full,Sony Open in Hawaii,Sony Open in Hawaii,Waialae Country Club,"Honolulu, HI"
247,359,Sentry Tournament of Champions,2020-01-02,2020-01-05,True,False,Plantation Course at Kapalua,"Kapalua, Maui, HI",73.0,7596.0,6700000.0,2020-01-02T10:00:00,False,True,"Kapalua, Maui",HI,,USA,Pacific/Honolulu,Stroke,7c169ad4-434a-4231-88c8-778ecdf52283,Full,Tournament of Champions,Sentry Tournament of Champions,Kapalua Resort (Plantation Course),"Kapalua, HI"
248,397,QBE Shootout,2019-12-13,2019-12-15,False,False,Tiburón GC,"Naples, FL",72.0,6556.0,3500000.0,,False,False,Naples,FL,,USA,America/New York,Stroke,,Limited,QBE Shootout,QBE Shootout,Tiburón Golf Course,"Naples, FL"
249,350,Presidents Cup,2019-12-11,2019-12-15,False,False,Royal Melbourne GC,"Melbourne, Victoria, Aus",71.0,7047.0,,,False,False,"Melbourne, Victoria",,,AUS,Australia/Sydney,TeamMatch,7938d847-1b06-411a-8117-e02d48f4772d,Limited,The Presidents Cup,,Royal Melbourne GC,"Melbourne, Victoria, Aus"
250,358,Hero World Challenge,2019-12-04,2019-12-07,True,False,Albany,"New Providence, Bah",72.0,7309.0,3500000.0,2019-12-04T10:40:00,False,True,New Providence,,,BAH,America/Nassau,Stroke,04d968a3-3bc5-4d9c-93eb-d33aa19baa74,Full,Hero World Challenge,Hero World Challenge,Albany,"New Providence, Bahamas"
251,357,The RSM Classic,2019-11-21,2019-11-24,True,False,Sea Island Resort (Seaside),"Sea Island, GA",70.0,7005.0,6600000.0,2019-11-21T09:15:00,False,True,Sea Island,GA,,USA,America/New York,Stroke,da6bff4c-8bd8-418b-9e04-a1cdce0e1fcf,Full,RSM Classic,The RSM Classic,Sea Island Resort (Seaside Course),"Saint Simons Island, GA"
252,356,Mayakoba Golf Classic,2019-11-14,2019-11-17,True,False,El Camaleon GC,"Playa del Carmen, Mex",71.0,7017.0,7200000.0,2019-11-14T07:00:00,False,True,Playa del Carmen,,,MEX,America/Cancun,Stroke,538f526e-34dc-4883-99ae-d991a66a6e9e,Full,World Wide Technology Championship,Mayakoba Golf Classic,El Camaleón Golf Course at Mayakoba,"Quintana Roo, Mexico"
253,349,Bermuda Championship,2019-10-31,2019-11-03,True,False,Port Royal GC,"Southampton, Ber",71.0,6828.0,3000000.0,2019-10-31T07:35:00,False,True,Southampton,,,BER,Atlantic/Bermuda,Stroke,61a8dc0b-6f49-411e-b93d-a3e01cd721c7,Full,Bermuda Championship,Bermuda Championship,Port Royal Golf Course,"Southampton Parish, Bermuda"
254,355,WGC-HSBC CHAMPIONS,2019-10-30,2019-11-03,True,False,Sheshan International GC,"Shanghai, Chn",72.0,7264.0,10250000.0,2019-10-30T20:45:00,False,True,Shanghai,,,CHN,Asia/Shanghai,Stroke,e1a1f28c-f025-489c-ad7a-f67f20ebc72a,Full,WGC-HSBC Champions,World Golf Championships-HSBC Champions,Sheshan International GC,"Shanghai, China"
255,348,The ZOZO CHAMPIONSHIP,2019-10-23,2019-10-27,True,False,Accordia Golf Narashino CC,"Chiba, Jpn",70.0,7041.0,9750000.0,2019-10-23T08:00:00,False,True,Chiba,,,JPN,Asia/Tokyo,Stroke,5ec88c8c-c12b-451c-878d-479323fe3e3e,Full,Zozo Championship,ZOZO CHAMPIONSHIP,Accordia Golf Narashino CC,"Chiba, Japan"
256,399,MGM Resorts The Challenge: Japan Skins,2019-10-21,2019-10-21,False,False,Accordia Golf Narashino CC,"Chiba, Jpn",70.0,7041.0,,,False,False,Chiba,,,JPN,Asia/Tokyo,Match,,Limited,MGM Resorts The Challenge: Japan Skins,,Accordia Golf Narashino CC,"Chiba, Japan"
257,354,THE CJ CUP @ NINE BRIDGES,2019-10-16,2019-10-20,True,False,Nine Bridges,"Jeju Island, Kor",72.0,7184.0,9750000.0,2019-10-16T08:00:00,False,True,Jeju Island,,,KOR,Asia/Seoul,Stroke,3d8909d3-9c07-4e72-86b9-5070388ae425,Full,CJ Cup,THE CJ CUP @ NINE BRIDGES,The Club at Nine Bridges,"Jeju Island, South Korea"
258,347,Houston Open,2019-10-10,2019-10-13,True,False,GC of Houston,"Humble, TX",72.0,7441.0,7500000.0,2019-10-10T07:15:00,False,True,Humble,TX,,USA,America/Chicago,Stroke,0f0c727a-a1ca-4a7a-b1a1-61945919af00,Full,Houston Open,Houston Open,Golf Club of Houston,"Houston, TX"
259,353,Shriners Hospitals for Children Open,2019-10-03,2019-10-06,True,False,TPC Summerlin,"Las Vegas, NV",71.0,7255.0,7000000.0,2019-10-04T06:40:00,False,True,Las Vegas,NV,,USA,America/Los Angeles,Stroke,87ffd4da-1f6b-490e-9f2b-5d5054ef0c91,Full,Shriners Children's Open,Shriners Hospitals for Children Open,TPC Summerlin,"Las Vegas, NV"
260,352,Safeway Open,2019-09-26,2019-09-29,True,False,Silverado Resort and Spa North,"Napa, CA",72.0,7166.0,6600000.0,2019-09-26T07:00:00,False,True,Napa,CA,,USA,America/Los Angeles,Stroke,19a43fa3-15e1-4b49-8d7c-6e7641111008,Full,Fortinet Championship,Safeway Open,Silverado Resort and Spa (North Course),"Napa, CA"
261,351,Sanderson Farms Championship,2019-09-19,2019-09-22,True,False,CC of Jackson,"Jackson, MS",72.0,7440.0,6600000.0,2019-09-19T07:00:00,False,True,Jackson,MS,,USA,America/Chicago,Stroke,f0d98951-e0c1-4e70-aace-bd2c76304e08,Full,Sanderson Farms Championship,Sanderson Farms Championship,Country Club of Jackson,"Jackson, MS"
262,346,A Military Tribute at The Greenbrier,2019-09-12,2019-09-15,True,False,The Old White TPC,"White Sulphur Springs, WV",70.0,7292.0,7500000.0,,,True,White Sulphur Springs,WV,,USA,America/New York,Stroke,97b4fe0b-a804-418e-91c3-165ef91f4eb6,Full,Greenbrier Classic,A Military Tribute at The Greenbrier,The Old White Course,"White Sulphur Springs, WV"
263,344,Tour Championship,2019-08-22,2019-08-25,True,False,East Lake GC,"Atlanta, GA",70.0,7346.0,,2019-08-22T11:45:00,False,True,Atlanta,GA,,USA,America/New York,Stroke,96887c44-e3c8-4aea-9a5c-fbc3c81644cb,Full,The TOUR Championship,Tour Championship,East Lake Golf Club,"Atlanta, GA"
264,343,BMW Championship,2019-08-15,2019-08-18,True,False,Olympia Fields CC (North),"Olympia Fields, IL",72.0,7613.0,9500000.0,2019-08-15T09:15:00,False,True,Olympia Fields,IL,,USA,America/Chicago,Stroke,e9387b4c-8f23-4763-9f83-106c4191b0dd,Full,BMW PGA Championship,BMW Championship,Medinah CC,"Medinah, IL"
265,342,THE NORTHERN TRUST,2019-08-08,2019-08-11,True,False,Liberty National GC,"Jersey City, NJ",71.0,7370.0,9250000.0,2019-08-08T07:10:00,False,True,Jersey City,NJ,,USA,America/New York,Stroke,9c563422-bb1c-4c13-acf7-b0ecec483412,Full,The Northern Trust,THE NORTHERN TRUST,Liberty National Golf Club,"Jersey City, NJ"
266,341,Wyndham Championship,2019-08-01,2019-08-04,True,False,Sedgefield CC,"Greensboro, NC",70.0,7127.0,6200000.0,2019-08-01T07:00:00,False,True,Greensboro,NC,,USA,America/New York,Stroke,653944bf-08f1-4cfe-aa35-93776819ba75,Full,Wyndham Championship,Wyndham Championship,Sedgefield Country Club,"Greensboro, NC"
267,333,Barracuda Championship,2019-07-25,2019-07-28,False,False,Montreux G&CC,"Reno, NV",72.0,7472.0,3500000.0,,False,False,Reno,NV,,USA,America/Los Angeles,Stableford,13a001a9-ceb2-4bcc-87d4-4b898c7c83e4,Limited,Barracuda Championship,Barracuda Championship,Montreux G&CC,"Reno, NV"
268,332,WGC-FedEx St. Jude Invitational,2019-07-25,2019-07-28,True,False,TPC Southwind,"Memphis, TN",70.0,7237.0,10250000.0,2019-07-25T11:20:00,False,True,Memphis,TN,,USA,America/Chicago,Stroke,789bc1a2-a8a9-4b5c-be76-b3bf7ba7a650,Full,St. Jude Championship,WGC-FedEx St. Jude Invitational,TPC Southwind,"Memphis, TN"
269,339,Barbasol Championship,2019-07-18,2019-07-21,True,False,Keene Trace Golf Club,"Nicholasville, KY",72.0,7328.0,3500000.0,2019-07-18T08:20:00,False,True,Nicholasville,KY,,USA,America/New York,Stroke,26bfc5fb-0bae-4791-b3a3-9fa2a296533b,Full,Barbasol Championship,Barbasol Championship,Keene Trace Golf Club (Champions Course),"Nicholasville, KY"
270,340,The Open Championship,2019-07-18,2019-07-21,True,False,Royal Portrush Golf Club,"Portrush, Nir",71.0,7344.0,10750000.0,2019-07-18T06:35:00,False,True,Portrush,,,NIR,Europe/London,Stroke,4524eac8-9713-43c5-a742-290d8ab434ba,Full,The Open Championship,The Open Championship,Royal Portrush Golf Club,"Portrush, Northern Ireland"
271,338,John Deere Classic,2019-07-11,2019-07-14,True,False,TPC Deere Run,"Silvis, IL",71.0,7268.0,6000000.0,2019-07-11T06:50:00,False,True,Silvis,IL,,USA,America/Chicago,Stroke,c46b389c-f073-44b3-b881-abeabe0bee18,Full,John Deere Classic,John Deere Classic,TPC Deere Run,"Silvis, IL"
272,331,3M Open,2019-07-04,2019-07-07,True,False,TPC Twin Cities,"Blaine, MN",71.0,7468.0,6400000.0,2019-07-04T06:50:00,False,True,Blaine,MN,,USA,America/Chicago,Stroke,6605bb6a-b2a3-46bc-bdab-55af688066bc,Full,3M Open,3M Open,TPC Twin Cities,"Blaine, MN"
273,330,Rocket Mortgage Classic,2019-06-27,2019-06-30,True,False,Detroit Golf Club,"Detroit, MI",72.0,7340.0,7300000.0,2019-06-27T06:45:00,False,True,Detroit,MI,,USA,America/New York,Stroke,599d5166-cc94-45d2-81f8-8a96b7f1c0d1,Full,Rocket Mortgage Classic,Rocket Mortgage Classic,Detroit Golf Club,"Detroit, MI"
274,337,Travelers Championship,2019-06-20,2019-06-23,True,False,TPC River Highlands,"Cromwell, CT",70.0,6841.0,7200000.0,2019-06-21T06:45:00,False,True,Cromwell,CT,,USA,America/New York,Stroke,1a3d42a3-c571-42ad-8e72-5c5b75d55176,Full,Travelers Championship,Travelers Championship,TPC River Highlands,"Cromwell, CT"
275,336,U.S. Open,2019-06-13,2019-06-16,True,False,Pebble Beach Golf Links,"Pebble Beach, CA",72.0,6864.0,12500000.0,2019-06-14T06:45:00,False,True,Pebble Beach,CA,,USA,America/Los Angeles,Stroke,d59637dc-7f7a-4cd8-a4af-0c5d419a9f39,Full,U.S. Open,U.S. Open,Pebble Beach Golf Links,"Pebble Beach, CA"
276,335,RBC Canadian Open,2019-06-06,2019-06-09,True,False,Hamilton Golf & Country Club,"Hamilton, ON, Can",70.0,6967.0,7600000.0,2019-06-07T07:00:00,False,True,"Hamilton, ON",,,CAN,America/Toronto,Stroke,b951c9f1-8c25-4619-a8d0-321f4e7dbb1c,Full,RBC Canadian Open,RBC Canadian Open,Hamilton Golf & Country Club,"Hamilton, ON"
277,329,the Memorial Tournament pres. by Nationwide,2019-05-30,2019-06-02,True,False,Muirfield Village GC,"Dublin, OH",72.0,7392.0,9100000.0,2019-05-31T07:20:00,False,True,Dublin,OH,,USA,America/New York,Stroke,9bee5044-a964-48ec-beee-97ead6b8f357,Full,Memorial Tournament,the Memorial Tournament pres. by Nationwide,Muirfield Village Golf Club,"Dublin, OH"
278,325,Charles Schwab Challenge,2019-05-23,2019-05-26,True,False,Colonial CC,"Fort Worth, TX",70.0,7209.0,7300000.0,2019-05-23T07:00:00,False,True,Fort Worth,TX,,USA,America/Chicago,Stroke,f2e8cf1b-1e86-4503-9c33-257244936981,Full,Charles Schwab Challenge,Charles Schwab Challenge,Colonial Country Club,"Fort Worth, TX"
279,334,PGA Championship,2019-05-16,2019-05-19,True,False,Bethpage State Park BK Course,"Farmingdale, NY",70.0,7459.0,,2019-05-17T06:45:00,False,True,Farmingdale,NY,,USA,America/New York,Stroke,b850e0a9-c15d-4263-8122-03df781e2b8d,Full,PGA Championship,PGA Championship,Bethpage State Park,"Bethpage, NY"
280,324,AT&T Byron Nelson,2019-05-09,2019-05-12,True,False,Trinity Forest Golf Club,"Dallas, TX",71.0,7371.0,7900000.0,2019-05-09T07:10:00,False,True,Dallas,TX,,USA,America/Chicago,Stroke,4ddaa6eb-7159-4ba0-a25f-d3ddf807bdb2,Full,AT&T Byron Nelson,AT&T Byron Nelson,Trinity Forest Golf Club,"Dallas, TX"
281,323,Wells Fargo Championship,2019-05-02,2019-05-05,True,False,Quail Hollow Club,"Charlotte, NC",71.0,7554.0,7900000.0,2019-05-02T07:30:00,False,True,Charlotte,NC,,USA,America/New York,Stroke,290d621b-5b2c-4387-90e9-504dc82eb481,Full,Wells Fargo Championship,Wells Fargo Championship,Quail Hollow Club,"Charlotte, NC"
282,322,Zurich Classic Of New Orleans,2019-04-25,2019-04-28,False,False,TPC Louisiana,"Avondale, LA",72.0,7425.0,7300000.0,,False,False,Avondale,LA,,USA,America/Chicago,Team,a0863c2a-974f-4d96-a257-e95dcd1254c1,Limited,Zurich Classic of New Orleans,Zurich Classic Of New Orleans,TPC Louisiana,"Avondale, LA"
283,321,RBC Heritage,2019-04-18,2019-04-21,True,False,Harbour Town GL,"Hilton Head, SC",71.0,7099.0,6900000.0,2019-04-18T07:30:00,False,True,Hilton Head,SC,,USA,America/New York,Stroke,6a40df9e-69ea-493c-8a15-82748ef78a88,Full,RBC Heritage,RBC Heritage,Harbour Town Golf Links,"Hilton Head Island, SC"
284,320,2019 Masters Tournament,2019-04-11,2019-04-14,True,False,Augusta National GC,"Augusta, GA",72.0,7475.0,,2019-04-12T08:30:00,False,True,Augusta,GA,,USA,America/New York,Stroke,fdf12aec-74d2-4f2e-9e0b-00481a32fd34,Full,The Masters Tournament,2019 Masters Tournament,Augusta National Golf Club,"Augusta, GA"
285,319,Valero Texas Open,2019-04-04,2019-04-07,True,False,TPC San Antonio - AT&T Oaks,"San Antonio, TX",72.0,7435.0,7500000.0,2019-04-04T08:20:00,False,True,San Antonio,TX,,USA,America/Chicago,Stroke,309310e0-52b1-42d4-bf76-7fc5637d4b40,Full,Valero Texas Open,Valero Texas Open,TPC San Antonio (Oaks Course),"San Antonio, TX"
286,317,Corales Puntacana Resort & Club Championship,2019-03-28,2019-03-31,True,False,Corales Golf Club,"Punta Cana, Dom",72.0,7670.0,3000000.0,2019-03-29T07:00:00,False,True,Punta Cana,,,DOM,America/Dominica,Stroke,e13ec262-ea0e-4465-aa91-78fced5f2cc8,Full,Corales Puntacana Championship,Corales Puntacana Resort & Club Championship,Puntacana Resort & Club (Corales Golf Course),"Punta Cana, Dominican Republic"
287,318,WGC-Dell Technologies Match Play,2019-03-27,2019-03-31,False,False,Austin Country Club,"Austin, TX",71.0,7108.0,10250000.0,,False,False,Austin,TX,,USA,America/Chicago,Match,3f776a92-2746-4f03-a070-97f009b973a6,Limited,WGC-Dell Technologies Match Play,WGC-Dell Technologies Match Play,Austin Country Club,"Austin, TX"
288,316,Valspar Championship,2019-03-21,2019-03-24,True,False,Innisbrook Resort (Copperhead),"Palm Harbor, FL",71.0,7340.0,6700000.0,2019-03-21T12:52:00,False,True,Palm Harbor,FL,,USA,America/New York,Stroke,f9c4d4ec-6fe5-460c-9f56-814fbc0aac51,Full,Valspar Championship,Valspar Championship,Innisbrook Resort (Copperhead Course),"Palm Harbor, FL"
289,315,THE PLAYERS Championship,2019-03-14,2019-03-17,True,False,TPC Sawgrass,"Ponte Vedra Beach, FL",72.0,7189.0,12500000.0,2019-03-14T14:30:00,False,True,Ponte Vedra Beach,FL,,USA,America/New York,Stroke,b79a87f9-e868-4e10-8c42-2f06d7630f2a,Full,THE PLAYERS Championship,THE PLAYERS Championship,TPC Sawgrass (THE PLAYERS Stadium Course),"Ponte Vedra Beach, FL"
290,314,Arnold Palmer Invitational Pres. By Mastercard,2019-03-07,2019-03-10,True,False,Bay Hill Club & Lodge,"Orlando, FL",72.0,7454.0,9100000.0,,False,True,Orlando,FL,,USA,America/New York,Stroke,98743fc6-995f-4f16-88d2-7ca58b24d634,Full,Arnold Palmer Invitational,Arnold Palmer Invitational Pres. By Mastercard,Arnold Palmer's Bay Hill Club & Lodge,"Orlando, FL"
291,313,The Honda Classic,2019-02-28,2019-03-03,True,False,PGA National (Champion),"Palm Beach Gardens, FL",70.0,7125.0,6800000.0,2019-02-28T11:45:00,False,True,Palm Beach Gardens,FL,,USA,America/New York,Stroke,14366577-33fe-4e21-bb98-bd178b369c3b,Full,Cognizant Classic,The Honda Classic,PGA National Resort & Spa (The Champion),"Palm Beach Gardens, FL"
292,312,WGC-Mexico Championship,2019-02-21,2019-02-24,True,False,Club de Golf Chapultepec,"Mexico City, Mex",71.0,7345.0,10250000.0,,False,True,Mexico City,,,MEX,America/Mexico City,Stroke,ded5cec3-8145-4d18-b73b-3fee8a38a0cd,Full,WGC-Mexico Championship,WGC-Mexico Championship,Club De Golf Chapultepec,"Mexico City, Mexico"
293,311,Puerto Rico Open,2019-02-21,2019-02-24,True,False,Coco Beach Golf & CC,"Rio Grande, Pur",72.0,7506.0,3000000.0,,False,False,Rio Grande,,,PUR,America/Puerto Rico,Stroke,742058ac-3c16-4842-8802-a764b72c4b44,Limited,Puerto Rico Open,Puerto Rico Open,Grand Reserve Country Club,"Rio Grande, Puerto Rico"
294,310,Genesis Open,2019-02-14,2019-02-17,True,False,Riviera CC,"Pacific Palisades, CA",71.0,7322.0,7400000.0,2019-02-15T07:40:00,False,True,Pacific Palisades,CA,,USA,America/Los Angeles,Stroke,04cdb94a-2627-4656-8f93-051de3cdf5f9,Full,Genesis Open,Genesis Open,Riviera Country Club,"Pacific Palisades, CA"
295,309,AT&T Pebble Beach Pro-Am,2019-02-07,2019-02-11,True,False,Pebble Beach GL,"Pebble Beach, CA",72.0,6960.0,7600000.0,2019-02-07T09:50:00,False,True,Pebble Beach,CA,,USA,America/Los Angeles,Stroke,578cd649-c994-4283-b8f2-1b1a2663cc64,Full,AT&T Pebble Beach Pro-Am,AT&T Pebble Beach Pro-Am,Spyglass Hill GC,"Pebble Beach, CA"
296,308,Waste Management Phoenix Open,2019-01-31,2019-02-03,True,False,TPC Scottsdale,"Scottsdale, AZ",71.0,7261.0,7100000.0,2019-02-01T07:20:00,False,True,Scottsdale,AZ,,USA,America/Phoenix,Stroke,45dd0784-11d7-4833-bbde-30d4060a88dc,Full,Waste Management Phoenix Open,Waste Management Phoenix Open,TPC Scottsdale (Stadium Course),"Scottsdale, AZ"
297,307,Farmers Insurance Open,2019-01-24,2019-01-27,True,False,Torrey Pines GC (South),"San Diego, CA",72.0,7258.0,7100000.0,2019-01-25T09:00:00,False,True,San Diego,CA,,USA,America/Los Angeles,Stroke,8e324d4b-57ea-46a3-8078-98817d6e851d,Full,Farmers Insurance Open,Farmers Insurance Open,Torrey Pines (North Course),"La Jolla, CA"
298,306,Desert Classic,2019-01-17,2019-01-20,True,False,Stadium Course,"La Quinta, CA",72.0,7060.0,5900000.0,2019-01-19T08:30:00,False,True,La Quinta,CA,,USA,America/Los Angeles,Stroke,ab9e1db3-3b03-42a5-a3fd-78d031714f8f,Full,Desert Classic,Desert Classic,La Quinta Country Club,"La Quinta, CA"
299,305,Sony Open in Hawaii,2019-01-10,2019-01-13,True,False,Waialae CC,"Honolulu, HI",70.0,7044.0,6400000.0,2019-01-11T07:00:00,False,True,Honolulu,HI,,USA,Pacific/Honolulu,Stroke,58c1de5c-0067-4e6e-84ed-7524599f1ee1,Full,Sony Open in Hawaii,Sony Open in Hawaii,Waialae Country Club,"Honolulu, HI"
300,304,Sentry Tournament of Champions,2019-01-03,2019-01-06,True,False,Plantation Course at Kapalua,"Kapalua, Maui, HI",73.0,7518.0,6500000.0,,False,True,"Kapalua, Maui",HI,,USA,Pacific/Honolulu,Stroke,86b8e001-f44f-41db-9f94-f7aaebe19755,Full,Tournament of Champions,Sentry Tournament of Champions,Kapalua Resort (Plantation Course),"Kapalua, HI"
301,303,QBE Shootout,2018-12-07,2018-12-09,False,False,Tiburón GC,"Naples, FL",72.0,6556.0,3400000.0,,False,False,Naples,FL,,USA,America/New York,Team,,Limited,QBE Shootout,QBE Shootout,Tiburón Golf Course,"Naples, FL"
302,302,Hero World Challenge,2018-11-29,2018-12-02,True,False,Albany,"New Providence, Bah",72.0,7309.0,3500000.0,,False,True,New Providence,,,BAH,America/Nassau,Stroke,87c32ab8-3380-45d1-9311-326190979b24,Full,Hero World Challenge,Hero World Challenge,Albany,"New Providence, Bahamas"
303,328,The Match: Tiger vs Phil,2018-11-23,2018-11-23,False,False,Shadow Creek Golf Course,"Las Vegas, NV",72.0,7560.0,9000000.0,,False,False,Las Vegas,NV,,USA,America/Los Angeles,Match,e88f2126-7f23-4316-9f66-913e699e8409,Limited,The Match: Tiger vs. Phil,The Match: Tiger vs Phil,Shadow Creek Golf Course,"Las Vegas, NV"
304,345,ISPS Handa Melbourne World Cup of Golf,2018-11-22,2018-11-25,False,False,The Metropolitan Golf Club,"South Oakleigh, Victoria, Aus",,,7000000.0,,False,False,"South Oakleigh, Victoria",,,AUS,Australia/Hobart,Stroke,,Limited,World Cup of Golf,,The Metropolitan Golf Club,"South Oakleigh, Victoria, Aus"
305,301,The RSM Classic,2018-11-15,2018-11-18,True,False,Sea Island Resort (Seaside),"Sea Island, GA",70.0,7005.0,6400000.0,,False,True,Sea Island,GA,,USA,America/New York,Stroke,e17a1758-a656-47c9-aaa7-a36170176750,Full,RSM Classic,The RSM Classic,Sea Island Resort (Seaside Course),"Saint Simons Island, GA"
306,300,Mayakoba Golf Classic,2018-11-08,2018-11-11,True,False,El Camaleon GC,"Playa del Carmen, Mex",71.0,6987.0,7200000.0,,False,True,Playa del Carmen,,,MEX,America/Cancun,Stroke,8a14957b-0c6a-427a-a623-03667c650df5,Full,World Wide Technology Championship,Mayakoba Golf Classic,El Camaleón Golf Course at Mayakoba,"Quintana Roo, Mexico"
307,299,Shriners Hospital for Children Open,2018-11-01,2018-11-04,True,False,TPC Summerlin,"Las Vegas, NV",71.0,7255.0,,,False,True,Las Vegas,NV,,USA,America/Los Angeles,Stroke,1d770b4e-9410-41cf-91d8-929a18a0bddd,Full,Shriners Children's Open,Shriners Hospital for Children Open,TPC Summerlin,"Las Vegas, NV"
308,297,Sanderson Farms Championship,2018-10-25,2018-10-28,True,False,CC of Jackson,"Jackson, MS",72.0,7421.0,,,False,True,Jackson,MS,,USA,America/Chicago,Stroke,f919b713-50cc-4c9a-9283-5d8ae061de13,Full,Sanderson Farms Championship,Sanderson Farms Championship,Country Club of Jackson,"Jackson, MS"
309,298,WGC-HSBC CHAMPIONS,2018-10-24,2018-10-28,True,False,Sheshan International GC,"Shanghai, Chn",72.0,7261.0,10000000.0,,False,True,Shanghai,,,CHN,Asia/Shanghai,Stroke,24a5a75b-c60e-4029-befb-caaec2f52d31,Full,WGC-HSBC Champions,WGC-HSBC CHAMPIONS,Sheshan International GC,"Shanghai, China"
310,296,THE CJ CUP @ NINE BRIDGES,2018-10-17,2018-10-21,True,False,Nine Bridges,"Jeju Island, Kor",72.0,7196.0,9500000.0,,False,True,Jeju Island,,,KOR,Asia/Seoul,Stroke,cc01dc5e-bba3-45c4-9af4-f3e8717d0afc,Full,CJ Cup,THE CJ CUP @ NINE BRIDGES,The Club at Nine Bridges,"Jeju Island, South Korea"
311,295,CIMB Classic,2018-10-10,2018-10-14,True,False,TPC Kuala Lumpur,"Kuala Lumpur, Mas",71.0,6246.0,7000000.0,,False,True,Kuala Lumpur,,,MAS,Asia/Kuala Lumpur,Stroke,c365148b-a401-4c9f-9151-358e649d2c0d,Full,CIMB Classic,CIMB Classic,TPC Kuala Lumpur,"Kuala Lumpur, Malaysia"
312,294,Safeway Open,2018-10-04,2018-10-07,True,False,Silverado Resort and Spa North,"Napa, CA",72.0,7203.0,,2018-10-05T07:10:00,False,True,Napa,CA,,USA,America/Los Angeles,Stroke,fe835a24-f198-4a8c-8561-0ecafb4b1b45,Full,Fortinet Championship,Safeway Open,Silverado Resort and Spa (North Course),"Napa, CA"
313,284,Ryder Cup,2018-09-28,2018-09-30,False,False,Le Golf National,"Saint-Quentin-en-Yvelines, Fra",71.0,7214.0,,,False,False,Saint-Quentin-en-Yvelines,,,FRA,Europe/France,Team,06c4bf3d-234b-4e34-81c5-36b3bbec346c,Limited,The Ryder Cup,Ryder Cup,Le Golf National,"Paris, France"
314,238,Tour Championship,2018-09-20,2018-09-23,True,False,East Lake GC,"Atlanta, GA",70.0,7362.0,,2018-09-23T11:45:00,False,True,Atlanta,GA,,USA,America/New York,Stroke,1b688431-5102-4ae3-a0e3-0fb9ccfcfdec,Full,The TOUR Championship,Tour Championship,East Lake Golf Club,"Atlanta, GA"
315,237,BMW Championship,2018-09-06,2018-09-10,True,False,Medinah CC (No. 3),"Medinah, IL",70.0,7190.0,9250000.0,2018-09-09T07:30:00,False,True,Medinah,IL,,USA,America/Chicago,Stroke,3df3e599-b2dc-4d78-a282-658cd3c2acc9,Full,BMW PGA Championship,BMW Championship,Aronimink GC,"Newtown Square, PA"
316,281,Dell Technologies Championship,2018-08-31,2018-09-03,True,False,TPC Boston,"Norton, MA",71.0,7342.0,9000000.0,2018-08-31T13:16:00,False,True,Norton,MA,,USA,America/New York,Stroke,4511a2b3-976b-4bc2-a0d1-334799a92b1f,Full,Dell Technologies Championship,Dell Technologies Championship,TPC Boston,"Norton, MA"
317,280,THE NORTHERN TRUST,2018-08-23,2018-08-26,True,False,Ridgewood CC,"Paramus, NJ",71.0,7385.0,9000000.0,2018-08-23T12:55:00,False,True,Paramus,NJ,,USA,America/New York,Stroke,d6677a91-17ab-4aa4-9d9f-2e484c15dcab,Full,The Northern Trust,THE NORTHERN TRUST,Ridgewood Country Club,"Paramus, NJ"
318,279,Wyndham Championship,2018-08-16,2018-08-19,True,False,Sedgefield CC,"Greensboro, NC",70.0,7127.0,6000000.0,2018-08-17T07:00:00,False,True,Greensboro,NC,,USA,America/New York,Stroke,88b26ec2-9a07-4359-9e4f-915c381c37a5,Full,Wyndham Championship,Wyndham Championship,Sedgefield Country Club,"Greensboro, NC"
319,278,PGA Championship,2018-08-09,2018-08-12,True,False,Bellerive CC,"St. Louis, MO",70.0,7316.0,11000000.0,2018-08-09T08:23:00,False,True,St. Louis,MO,,USA,America/Chicago,Stroke,3493243a-8ce6-40e9-bde5-fe8993084364,Full,PGA Championship,PGA Championship,Bellerive Country Club,"St. Louis, MO"
320,277,WGC-Bridgestone Invitational,2018-08-02,2018-08-05,True,False,Firestone CC (South),"Akron, OH",70.0,7400.0,10000000.0,2018-08-02T10:40:00,False,True,Akron,OH,,USA,America/New York,Stroke,4f5761bc-cf16-4ae9-9f19-67baa5d1bde3,Full,WGC-Bridgestone Invitational,WGC-Bridgestone Invitational,Firestone CC (South Course),"Akron, OH"
321,293,Barracuda Championship,2018-08-02,2018-08-05,False,False,Montreux G&CC,"Reno, NV",72.0,7472.0,3400000.0,,False,False,Reno,NV,,USA,America/Los Angeles,Stableford,b4250745-28e1-469e-a733-e074962e8cb0,Limited,Barracuda Championship,Barracuda Championship,Montreux G&CC,"Reno, NV"
322,276,RBC Canadian Open,2018-07-26,2018-07-29,True,False,Glen Abbey GC,"Oakville,Ontario, Can",72.0,7253.0,6200000.0,2018-07-26T08:40:00,False,True,"Oakville,Ontario",,,Can,America/Toronto,Stroke,fa2b17f5-67b4-465a-99e8-7c0886b15a1a,Full,RBC Canadian Open,RBC Canadian Open,Glen Abbey GC,"Oakville, ON"
323,275,The Open,2018-07-19,2018-07-22,True,False,Carnoustie GC,"Angus, Sco",71.0,7402.0,10500000.0,2018-07-19T09:25:00,False,True,Angus,,,SCO,Europe/London,Stroke,a641fcd3-dc9a-4dbf-b7bc-3c2d8fe28592,Full,The Open Championship,The Open,Carnoustie Golf Links,"Carnoustie, Scotland"
324,292,Barbasol Championship,2018-07-19,2018-07-23,True,False,Keene Trace Golf Club,"Nicholasville, KY",72.0,6869.0,3500000.0,2018-07-19T09:20:00,False,True,Nicholasville,KY,,USA,America/New York,Stroke,82df96e3-170b-464d-8006-325a4a5d04d8,Full,Barbasol Championship,Barbasol Championship,Keene Trace Golf Club (Champions Course),"Nicholasville, KY"
325,274,John Deere Classic,2018-07-12,2018-07-15,True,False,TPC Deere Run,"Silvis, IL",71.0,7268.0,5800000.0,2018-07-12T13:10:00,False,True,Silvis,IL,,USA,America/Chicago,Stroke,46142203-dc19-4c66-b9c3-1b3d074e6ef4,Full,John Deere Classic,John Deere Classic,TPC Deere Run,"Silvis, IL"
326,273,A Military Tribute at The Greenbrier,2018-07-05,2018-07-08,True,False,The Old White TPC,"White Sulphur Springs, WV",70.0,7286.0,7300000.0,2018-07-05T07:00:00,False,True,White Sulphur Springs,WV,,USA,America/New York,Stroke,a99ce782-7b05-4563-b41d-ff51a6ffd6d0,Full,Greenbrier Classic,A Military Tribute at The Greenbrier,The Old White Course,"White Sulphur Springs, WV"
327,289,Quicken Loans National,2018-06-28,2018-07-01,True,False,TPC Potomac at Avenel Farm,"Potomac, MD",70.0,7107.0,7100000.0,2018-06-29T07:20:00,False,True,Potomac,MD,,USA,America/New York,Stroke,51e18f90-178b-4169-a145-5008da07140e,Full,Quicken Loans National,Quicken Loans National,TPC Potomac at Avenel Farm,"Potomac, MD"
328,272,Travelers Championship,2018-06-21,2018-06-24,True,False,TPC River Highlands,"Cromwell, CT",70.0,6841.0,7000000.0,2018-06-21T09:00:00,False,True,Cromwell,CT,,USA,America/New York,Stroke,7054997a-8f30-4f09-a059-7535e4a71c49,Full,Travelers Championship,Travelers Championship,TPC River Highlands,"Cromwell, CT"
329,271,U.S. Open,2018-06-14,2018-06-17,True,False,Shinnecock Hills GC,"Southampton, NY",70.0,7440.0,12000000.0,2018-06-15T06:45:00,False,True,Southampton,NY,,USA,America/New York,Stroke,ebdd3311-2abf-434d-9b7e-00396078c279,Full,U.S. Open,U.S. Open,Shinnecock Hills GC,"Southampton, NY"
330,270,FedEx St. Jude Classic,2018-06-07,2018-06-10,True,False,TPC Southwind,"Memphis, TN",70.0,7244.0,6600000.0,2018-06-07T12:10:00,False,True,Memphis,TN,,USA,America/Chicago,Stroke,429367ad-62fb-4542-aa29-6e3f8ed128c8,Full,St. Jude Championship,FedEx St. Jude Classic,TPC Southwind,"Memphis, TN"
331,269,the Memorial Tournament pres. by Nationwide,2018-05-31,2018-06-03,True,False,Muirfield Village GC,"Dublin, OH",72.0,7392.0,,2018-06-01T07:20:00,False,True,Dublin,OH,,USA,America/New York,Stroke,579d7c64-2904-4ce6-b9b2-8998794278d1,Full,Memorial Tournament,the Memorial Tournament pres. by Nationwide,Muirfield Village Golf Club,"Dublin, OH"
332,268,Fort Worth Invitational,2018-05-24,2018-05-27,True,False,Colonial CC,"Fort Worth, TX",70.0,7209.0,7100000.0,2018-05-24T08:00:00,False,True,Fort Worth,TX,,USA,America/Chicago,Stroke,b3b52f97-3c5f-49f8-94ac-e2f03f5879f4,Full,Colonial National Invitation,Fort Worth Invitational,Colonial Country Club,"Fort Worth, TX"
333,267,AT&T Byron Nelson,2018-05-17,2018-05-20,True,False,Trinity Forest Golf Club,"Dallas, TX",71.0,7380.0,7700000.0,2018-05-17T07:20:00,False,True,Dallas,TX,,USA,America/Chicago,Stroke,8972cf99-eabb-4cb4-8b38-9c256ea77c79,Full,AT&T Byron Nelson,AT&T Byron Nelson,Trinity Forest Golf Club,"Dallas, TX"
334,266,THE PLAYERS Championship,2018-05-10,2018-05-13,True,False,TPC Sawgrass,"Ponte Vedra Beach, FL",72.0,7189.0,10500000.0,2018-05-10T08:49:00,False,True,Ponte Vedra Beach,FL,,USA,America/New York,Stroke,6ff392df-0da8-45df-9733-f8460fd6dc8f,Full,THE PLAYERS Championship,THE PLAYERS Championship,TPC Sawgrass (THE PLAYERS Stadium Course),"Ponte Vedra Beach, FL"
335,265,Wells Fargo Championship,2018-05-03,2018-05-06,True,False,Quail Hollow Club,"Charlotte, NC",71.0,7600.0,7700000.0,2018-05-03T14:10:00,False,True,Charlotte,NC,,USA,America/New York,Stroke,f1458ef8-6d57-4b9d-b35b-ae163c35bf63,Full,Wells Fargo Championship,Wells Fargo Championship,Quail Hollow Club,"Charlotte, NC"
336,264,Zurich Classic of New Orleans,2018-04-26,2018-04-29,False,False,TPC Louisiana,"Avondale, LA",72.0,7425.0,7200000.0,,False,False,Avondale,LA,,USA,America/Chicago,Team,8e6ebfbe-fc42-4310-b98e-70f15f7d66bb,Limited,Zurich Classic of New Orleans,Zurich Classic of New Orleans,TPC Louisiana,"Avondale, LA"
337,263,Valero Texas Open,2018-04-19,2018-04-22,True,False,TPC San Antonio - AT&T Oaks,"San Antonio, TX",72.0,7435.0,6200000.0,2018-04-19T08:10:00,False,True,San Antonio,TX,,USA,America/Chicago,Stroke,98a3755f-451f-484d-b667-18eb720fcc7c,Full,Valero Texas Open,Valero Texas Open,TPC San Antonio (Oaks Course),"San Antonio, TX"
338,262,RBC Heritage,2018-04-12,2018-04-15,True,False,Harbour Town GL,"Hilton Head, SC",71.0,7099.0,6700000.0,2018-04-12T07:10:00,False,True,Hilton Head,SC,,USA,America/New York,Stroke,ff7dfb16-bfe4-4acd-96cf-3696a923ffca,Full,RBC Heritage,RBC Heritage,Harbour Town Golf Links,"Hilton Head Island, SC"
339,261,2018 Masters Tournament,2018-04-05,2018-04-08,True,False,Augusta National GC,"Augusta, GA",72.0,7435.0,11000000.0,2018-04-06T08:30:00,False,True,Augusta,GA,,USA,America/New York,Stroke,b404a8d5-5e33-4417-ae20-5d4d147042ee,Full,The Masters Tournament,2018 Masters Tournament,Augusta National Golf Club,"Augusta, GA"
340,260,Houston Open,2018-03-29,2018-04-01,True,False,GC of Houston,"Humble, TX",72.0,7441.0,7000000.0,2018-03-30T07:20:00,False,True,Humble,TX,,USA,America/Chicago,Stroke,93313ba8-53b8-4da6-be57-a6792f8fb6b3,Full,Houston Open,Houston Open,Golf Club of Houston,"Houston, TX"
341,259,Corales Puntacana Resort & Club Championship,2018-03-22,2018-03-25,True,False,Corales Golf Club,"Punta Cana, Dom",72.0,7670.0,3000000.0,2018-03-22T06:50:00,False,True,Punta Cana,,,DOM,America/Dominica,Stroke,f25b3eb9-9794-4f6a-8da0-ddacfc93091b,Full,Corales Puntacana Championship,Corales Puntacana Resort & Club Championship,Priddis Greens Golf & Country Club,"Priddis, AB"
342,258,World Golf Championships-Dell Technologies Match Play,2018-03-21,2018-03-25,False,False,Austin Country Club,"Austin, TX",71.0,7108.0,10000000.0,,False,False,Austin,TX,,USA,America/Chicago,Match,cf359956-a086-4b55-b707-84b26f8f5e82,Limited,WGC-Dell Technologies Match Play,World Golf Championships-Dell Technologies Match Play,Austin Country Club,"Austin, TX"
343,257,Arnold Palmer Invitational presented by Mastercard,2018-03-15,2018-03-18,True,False,Bay Hill Club & Lodge,"Orlando, FL",72.0,7419.0,8900000.0,2018-03-16T07:35:00,False,True,Orlando,FL,,USA,America/New York,Stroke,2c6a8498-4a73-494b-92b9-29bbbcd1d015,Full,Arnold Palmer Invitational,Arnold Palmer Invitational presented by Mastercard,Arnold Palmer's Bay Hill Club & Lodge,"Orlando, FL"
344,256,Valspar Championship,2018-03-08,2018-03-11,True,False,Innisbrook Resort (Copperhead),"Palm Harbor, FL",71.0,7278.0,6500000.0,2018-03-09T06:50:00,False,True,Palm Harbor,FL,,USA,America/New York,Stroke,64c5abe3-6c12-4d67-9252-e011966b1a71,Full,Valspar Championship,Valspar Championship,The Cliffs at Walnut Cove,"Greenville, SC"
345,291,Puerto Rico Open Charity Day,2018-03-02,2018-03-03,False,False,TPC Dorado Beach Resort,"Dorado, Pur",71.0,7345.0,,,False,False,Dorado,,,PUR,America/New York,Stroke,fb8556a3-23ed-4434-aedf-1ccf3f27e39e,Limited,Puerto Rico Open,Puerto Rico Open,TPC Dorado Beach Resort,"Dorado, Puerto Rico"
346,255,World Golf Championships-Mexico Championship,2018-03-01,2018-03-04,True,False,Club de Golf Chapultepec,"Mexico City, Mex",71.0,7345.0,10000000.0,2018-03-01T12:15:00,False,True,Mexico City,,,MEX,America/Mexico City,Stroke,e98250a5-f08f-480e-8dbc-2b1e88f8304c,Full,WGC-Mexico Championship,World Golf Championships-Mexico Championship,Club De Golf Chapultepec,"Mexico City, Mexico"
347,254,The Honda Classic,2018-02-22,2018-02-25,True,False,PGA National (Champion),"Palm Beach Gardens, FL",70.0,7140.0,6600000.0,2018-02-22T11:35:00,False,True,Palm Beach Gardens,FL,,USA,America/New York,Stroke,f50ad093-6238-49e3-876c-c4d52f4f39e1,Full,Cognizant Classic,The Honda Classic,PGA National Resort & Spa (The Champion),"Palm Beach Gardens, FL"
348,253,Genesis Open,2018-02-15,2018-02-18,True,False,Riviera CC,"Pacific Palisades, CA",71.0,7322.0,7200000.0,2018-02-15T11:04:00,False,True,Pacific Palisades,CA,,USA,America/Los Angeles,Stroke,790ee99c-0c02-4d01-9230-98bc8510aaca,Full,Genesis Open,Genesis Open,Riviera Country Club,"Pacific Palisades, CA"
349,252,AT&T Pebble Beach Pro-Am,2018-02-08,2018-02-11,True,False,Pebble Beach GL,"Pebble Beach, CA",71.0,6958.0,7400000.0,2018-02-08T13:01:00,False,True,Pebble Beach,CA,,USA,America/Los Angeles,Stroke,a4becb4f-f940-4821-a393-7dac3511cbd1,Full,AT&T Pebble Beach Pro-Am,AT&T Pebble Beach Pro-Am,Spyglass Hill GC,"Pebble Beach, CA"
350,251,Waste Management Phoenix Open,2018-02-01,2018-02-04,True,False,TPC Scottsdale,"Scottsdale, AZ",71.0,7266.0,6900000.0,2018-02-01T13:35:00,False,True,Scottsdale,AZ,,USA,America/Phoenix,Stroke,214384e9-0ce4-4b05-8ff3-56f9f1a4b995,Full,Waste Management Phoenix Open,Waste Management Phoenix Open,TPC Scottsdale (Stadium Course),"Scottsdale, AZ"
351,250,Farmers Insurance Open,2018-01-25,2018-01-28,True,False,Torrey Pines GC (South),"San Diego, CA",72.0,7698.0,6900000.0,2018-01-25T12:10:00,False,True,San Diego,CA,,USA,America/Los Angeles,Stroke,d41c4833-caea-4247-a1b9-c9ccc48d9e08,Full,Farmers Insurance Open,Farmers Insurance Open,Torrey Pines (North Course),"La Jolla, CA"
352,249,CareerBuilder Challenge,2018-01-18,2018-01-21,True,False,Stadium Course,"La Quinta, CA",72.0,7159.0,5900000.0,2018-01-18T11:40:00,False,True,La Quinta,CA,,USA,America/Los Angeles,Stroke,0c1b3e0d-9cfb-416d-92ec-9518a87e94ec,Full,Desert Classic,CareerBuilder Challenge,La Quinta Country Club,"La Quinta, CA"
353,248,Sony Open in Hawaii,2018-01-11,2018-01-14,True,False,Waialae CC,"Honolulu, HI",70.0,7044.0,6200000.0,2018-01-11T16:40:00,False,True,Honolulu,HI,,USA,Pacific/Honolulu,Stroke,8efc0aa6-c708-4b82-8264-2c337db42e5e,Full,Sony Open in Hawaii,Sony Open in Hawaii,Waialae Country Club,"Honolulu, HI"
354,235,Sentry Tournament of Champions,2018-01-04,2018-01-07,True,False,Plantation Course at Kapalua,"Kapalua, Maui, HI",73.0,7452.0,6300000.0,2018-01-04T17:10:00,False,True,"Kapalua, Maui",HI,,USA,Pacific/Honolulu,Stroke,93ede239-06a6-4e7a-a30b-1f3d04da11d5,Full,Tournament of Champions,Sentry Tournament of Champions,Kapalua Resort (Plantation Course),"Kapalua, HI"
355,234,QBE Shootout,2017-12-08,2017-12-10,False,False,Tiburón GC,"Naples, FL",72.0,6556.0,3300000.0,,False,False,Naples,FL,,USA,America/New York,Team,,Limited,QBE Shootout,QBE Shootout,Tiburón Golf Course,"Naples, FL"
356,233,Hero World Challenge,2017-11-30,2017-12-03,True,False,Albany,"New Providence, Bah",72.0,7309.0,3500000.0,2017-11-30T11:32:00,False,True,New Providence,,,BAH,America/Nassau,Stroke,e62314d0-ecbe-4fa1-87a7-90f91c575e6b,Full,Hero World Challenge,Hero World Challenge,Albany,"New Providence, Bahamas"
357,232,The RSM Classic,2017-11-16,2017-11-19,True,False,Sea Island Resort (Seaside),"Sea Island, GA",72.0,7058.0,6200000.0,2017-11-16T10:30:00,False,True,Sea Island,GA,,USA,America/New York,Stroke,1a7d6bfa-de08-46bb-a4a1-d560ec33d066,Full,RSM Classic,The RSM Classic,Sea Island Resort (Seaside Course),"Saint Simons Island, GA"
358,231,OHL Classic at Mayakoba,2017-11-09,2017-11-12,True,False,El Camaleon GC,"Playa del Carmen, Mex",71.0,6987.0,7100000.0,2017-11-09T11:50:00,False,True,Playa del Carmen,,,Mex,America/Cancun,Stroke,82853167-05f1-4ad1-a023-5cb5cccadaf9,Full,World Wide Technology Championship,OHL Classic at Mayakoba,El Camaleón Golf Course at Mayakoba,"Quintana Roo, Mexico"
359,230,Shriners Hospitals for Children Open,2017-11-02,2017-11-05,True,False,TPC Summerlin,"Las Vegas, NV",71.0,7255.0,6800000.0,2017-11-02T14:55:00,False,True,Las Vegas,NV,,USA,America/Los Angeles,Stroke,0f74b6a7-434b-47c4-837f-aca6a81da1c1,Full,Shriners Children's Open,Shriners Hospitals for Children Open,TPC Summerlin,"Las Vegas, NV"
360,288,Sanderson Farms Championship,2017-10-26,2017-10-29,True,False,CC of Jackson,"Jackson, MS",72.0,7421.0,4300000.0,2017-10-26T08:30:00,False,True,Jackson,MS,,USA,America/Chicago,Stroke,8e1f6c0a-6338-4126-b4e1-e23d310f3f7e,Full,Sanderson Farms Championship,Sanderson Farms Championship,Country Club of Jackson,"Jackson, MS"
361,229,World Golf Championships-HSBC Champions,2017-10-26,2017-10-29,True,False,Sheshan International GC,"Shanghai, Chn",72.0,7261.0,9750000.0,2017-10-28T22:35:00,False,True,Shanghai,,,CHN,Asia/Shanghai,Stroke,19ed4286-74b9-4ad6-9f58-473c41437bc1,Full,WGC-HSBC Champions,World Golf Championships-HSBC Champions,Sheshan International GC,"Shanghai, China"
362,228,THE CJ CUP @ NINE BRIDGES,2017-10-19,2017-10-22,True,False,Nine Bridges,"Jeju Island, Kor",72.0,7196.0,9250000.0,2017-10-20T20:10:00,False,True,Jeju Island,,,KOR,Seoul\South Korea,Stroke,ba081e5d-040a-4d6a-8dcd-dbe1e46b0d25,Full,CJ Cup,THE CJ CUP @ NINE BRIDGES,The Club at Nine Bridges,"Jeju Island, South Korea"
363,227,CIMB Classic,2017-10-12,2017-10-15,True,False,TPC Kuala Lumpur,"Kuala Lumpur, Mas",71.0,6246.0,7000000.0,2017-10-15T18:50:00,False,True,Kuala Lumpur,,,MAS,Asia/Kuala Lumpur,Stroke,acdf4d81-3c8c-48e9-8046-6d9218cdcc62,Full,CIMB Classic,CIMB Classic,TPC Kuala Lumpur,"Kuala Lumpur, Malaysia"
364,226,Safeway Open,2017-10-05,2017-10-08,True,False,Silverado Resort and Spa North,"Napa, CA",72.0,7203.0,6200000.0,2017-10-05T15:10:00,False,True,Napa,CA,,USA,America/Los Angeles,Stroke,6ac41bbe-d3b9-4022-9223-3f20ff8f1af7,Full,Fortinet Championship,Safeway Open,Silverado Resort and Spa (North Course),"Napa, CA"
365,158,Presidents Cup,2017-09-28,2017-10-01,True,False,Liberty National GC,"Jersey City, NJ",71.0,7328.0,,,False,False,Jersey City,NJ,,USA,America/New York,Team,,Limited,The Presidents Cup,Presidents Cup,Liberty National Golf Club,"Jersey City, NJ"
366,157,TOUR Championship,2017-09-21,2017-09-24,True,False,East Lake GC,"Atlanta, GA",70.0,7045.0,8750000.0,2017-09-21T12:30:00,False,True,Atlanta,GA,,USA,America/New York,Stroke,,Full,The TOUR Championship,TOUR Championship,East Lake Golf Club,"Atlanta, GA"
367,156,BMW Championship,2017-09-14,2017-09-17,True,False,Conway Farms GC,"Lake Forest, IL",71.0,7208.0,8750000.0,2017-09-14T14:43:00,False,True,Lake Forest,IL,,USA,America/Chicago,Stroke,,Full,BMW PGA Championship,BMW Championship,Conway Farms Golf Club,"Lake Forest, IL"
368,159,Dell Technologies Championship,2017-09-01,2017-09-04,True,False,TPC Boston,"Norton, MA",71.0,7342.0,8750000.0,2017-09-01T08:15:00,False,True,Norton,MA,,USA,America/New York,Stroke,,Full,Dell Technologies Championship,Dell Technologies Championship,TPC Boston,"Norton, MA"
369,146,THE NORTHERN TRUST,2017-08-24,2017-08-27,True,False,Glen Oaks Club,"Old Westbury, NY",70.0,7346.0,8750000.0,2017-08-24T12:00:00,False,True,Old Westbury,NY,,USA,America/New York,Stroke,,Full,The Northern Trust,THE NORTHERN TRUST,Glen Oaks Club,"Old Westbury, NY"
370,145,Wyndham Championship,2017-08-17,2017-08-20,True,False,Sedgefield CC,"Greensboro, NC",70.0,7127.0,5800000.0,2017-08-17T07:10:00,False,True,Greensboro,NC,,USA,America/New York,Stroke,,Full,Wyndham Championship,Wyndham Championship,Sedgefield Country Club,"Greensboro, NC"
371,144,PGA Championship,2017-08-10,2017-08-13,True,False,Quail Hollow-PGA Championship,"Charlotte, NC",71.0,7600.0,10500000.0,2017-08-10T09:15:00,False,True,Charlotte,NC,,USA,America/New York,Stroke,,Full,PGA Championship,PGA Championship,Quail Hollow Club,"Charlotte, NC"
372,142,World Golf Championships-Bridgestone Invitational,2017-08-03,2017-08-06,True,False,Firestone CC (South),"Akron, OH",70.0,7400.0,9750000.0,2017-08-04T09:35:00,False,True,Akron,OH,,USA,America/New York,Stroke,,Full,WGC-Bridgestone Invitational,World Golf Championships-Bridgestone Invitational,Firestone CC (South Course),"Akron, OH"
373,143,Barracuda Championship,2017-08-03,2017-08-06,True,False,Montreux G&CC,"Reno, NV",72.0,7472.0,3300000.0,,False,False,Reno,NV,,USA,America/Los Angeles,Stableford,,Limited,Barracuda Championship,Barracuda Championship,Montreux G&CC,"Reno, NV"
374,141,RBC Canadian Open,2017-07-27,2017-07-30,True,False,Glen Abbey GC,"Oakville,Ontario, Can",72.0,7253.0,6000000.0,2017-07-27T08:00:00,False,True,"Oakville,Ontario",,,Can,America/Toronto,Stroke,,Full,RBC Canadian Open,RBC Canadian Open,Glen Abbey GC,"Oakville, ON"
375,139,The Open Championship,2017-07-20,2017-07-23,True,False,Royal Birkdale GC,"Southport, Eng",70.0,7156.0,10250000.0,2017-07-20T05:20:00,False,True,Southport,,,ENG,Europe/London,Stroke,,Full,The Open Championship,,Royal Birkdale GC,"Southport, Eng"
376,140,Barbasol Championship,2017-07-20,2017-07-23,True,False,RTJ Trail (Grand National),"Auburn/Opelika, AL",71.0,7302.0,3500000.0,2017-07-20T08:31:00,False,True,Auburn/Opelika,AL,,USA,America/Chicago,Stroke,,Full,Barbasol Championship,Barbasol Championship,RTJ Trail Grand National Lake,"Auburn, AL"
377,138,John Deere Classic,2017-07-13,2017-07-16,True,False,TPC Deere Run,"Silvis, IL",72.0,7004.0,5600000.0,2017-07-13T08:40:00,False,True,Silvis,IL,,USA,America/Chicago,Stroke,,Full,John Deere Classic,John Deere Classic,TPC Deere Run,"Silvis, IL"
378,137,The Greenbrier Classic,2017-07-06,2017-07-09,True,False,The Old White TPC,"White Sulphur Springs, WV",70.0,7286.0,7100000.0,2017-07-06T09:00:00,False,True,White Sulphur Springs,WV,,USA,America/New York,Stroke,,Full,Greenbrier Classic,The Greenbrier Classic,The Old White Course,"White Sulphur Springs, WV"
379,136,Quicken Loans National,2017-06-29,2017-07-02,True,False,TPC Potomac at Avenel Farm,"Potomac, MD",70.0,7107.0,7100000.0,2017-06-29T07:26:00,False,True,Potomac,MD,,USA,America/New York,Stroke,,Full,Quicken Loans National,Quicken Loans National,TPC Potomac at Avenel Farm,"Potomac, MD"
380,135,Travelers Championship,2017-06-22,2017-06-25,True,False,TPC River Highlands,"Cromwell, CT",70.0,6841.0,6800000.0,2017-06-22T12:00:00,False,True,Cromwell,CT,,USA,America/New York,Stroke,,Full,Travelers Championship,Travelers Championship,TPC River Highlands,"Cromwell, CT"
381,204,CVS Health Charity Classic,2017-06-19,2017-06-20,True,False,Rhode Island CC,"Barrington, RI",,,1500000.0,,False,False,Barrington,RI,,USA,America/New York,Stroke,,Limited,CVS Health Charity Classic,,Rhode Island CC,"Barrington, RI"
382,134,U.S. Open,2017-06-15,2017-06-18,True,False,Erin Hills,"Erin, WI",72.0,7741.0,12000000.0,2017-06-15T13:30:00,False,True,Erin,WI,,USA,America/Chicago,Stroke,,Full,U.S. Open,U.S. Open,Erin Hills,"Erin, WI"
383,133,FedEx St. Jude Classic,2017-06-08,2017-06-11,True,False,TPC Southwind,"Memphis, TN",70.0,7244.0,6400000.0,2017-06-08T09:40:00,False,True,Memphis,TN,,USA,America/Chicago,Stroke,,Full,St. Jude Championship,FedEx St. Jude Classic,TPC Southwind,"Memphis, TN"
384,132,the Memorial Tournament presented by Nationwide,2017-06-01,2017-06-04,True,False,Muirfield Village GC,"Dublin, OH",72.0,7392.0,8700000.0,2017-06-01T07:42:00,False,True,Dublin,OH,,USA,America/New York,Stroke,,Full,Memorial Tournament,the Memorial Tournament presented by Nationwide,Muirfield Village Golf Club,"Dublin, OH"
385,131,DEAN & DELUCA Invitational,2017-05-25,2017-05-28,True,False,Colonial CC,"Fort Worth, TX",70.0,7209.0,6900000.0,2017-05-25T13:00:00,False,True,Fort Worth,TX,,USA,America/Chicago,Stroke,,Full,Colonial National Invitation,DEAN & DELUCA Invitational,Colonial Country Club,"Fort Worth, TX"
386,130,AT&T Byron Nelson,2017-05-18,2017-05-21,True,False,TPC Four Seasons Resort,"Irving, TX",70.0,7166.0,7500000.0,2017-05-18T13:00:00,False,True,Irving,TX,,USA,America/Chicago,Stroke,,Full,AT&T Byron Nelson,AT&T Byron Nelson,TPC Four Seasons Resort,"Irving, TX"
387,129,THE PLAYERS Championship,2017-05-11,2017-05-14,True,False,TPC Sawgrass,"Ponte Vedra Beach, FL",72.0,7189.0,10500000.0,2017-05-11T07:32:00,False,True,Ponte Vedra Beach,FL,,USA,America/New York,Stroke,,Full,THE PLAYERS Championship,THE PLAYERS Championship,TPC Sawgrass (THE PLAYERS Stadium Course),"Ponte Vedra Beach, FL"
388,128,Wells Fargo Championship,2017-05-04,2017-05-07,True,False,Eagle Point Golf Club,"Wilmington, NC",72.0,7396.0,7500000.0,2017-05-04T12:00:00,False,True,Wilmington,NC,,USA,America/New York,Stroke,,Full,Wells Fargo Championship,Wells Fargo Championship,Eagle Point Golf Club,"Wilmington, NC"
389,127,Zurich Classic of New Orleans,2017-04-27,2017-04-30,True,False,TPC Louisiana,"Avondale, LA",72.0,7425.0,7100000.0,,False,False,Avondale,LA,70094.0,USA,America/Chicago,Team,,Limited,Zurich Classic of New Orleans,Zurich Classic of New Orleans,TPC Louisiana,"Avondale, LA"
390,126,Valero Texas Open,2017-04-20,2017-04-23,True,False,TPC San Antonio - AT&T Oaks,"San Antonio, TX",72.0,7435.0,6200000.0,2017-04-20T13:10:00,False,True,San Antonio,TX,78261.0,USA,America/Chicago,Stroke,,Full,Valero Texas Open,Valero Texas Open,TPC San Antonio (Oaks Course),"San Antonio, TX"
391,125,RBC Heritage,2017-04-13,2017-04-16,True,False,Harbour Town GL,"Hilton Head, SC",71.0,7099.0,6500000.0,2017-04-14T07:10:00,False,True,Hilton Head,SC,29928.0,USA,America/New York,Stroke,,Full,RBC Heritage,RBC Heritage,Harbour Town Golf Links,"Hilton Head Island, SC"
392,124,Masters Tournament,2017-04-06,2017-04-09,True,False,Augusta National GC,"Augusta, GA",72.0,7435.0,10000000.0,2017-04-06T11:07:00,False,True,Augusta,GA,30904.0,USA,America/New York,Stroke,,Full,The Masters Tournament,Masters Tournament,Augusta National Golf Club,"Augusta, GA"
393,123,Shell Houston Open,2017-03-30,2017-04-02,True,False,GC of Houston,"Humble, TX",72.0,7441.0,7000000.0,2017-03-30T13:10:00,False,True,Humble,TX,77396.0,USA,America/Chicago,Stroke,,Full,Houston Open,Shell Houston Open,Golf Club of Houston,"Houston, TX"
394,122,Puerto Rico Open,2017-03-23,2017-03-26,True,False,Coco Beach Golf & CC,"Rio Grande, Pur",72.0,7506.0,3000000.0,2017-03-23T00:00:00,False,True,Rio Grande,,745.0,PUR,America/Puerto Rico,Stroke,,Full,Puerto Rico Open,Puerto Rico Open,Grand Reserve Country Club,"Rio Grande, Puerto Rico"
395,121,World Golf Championships-Dell Technologies Match Play,2017-03-22,2017-03-26,True,False,Austin Country Club,"Austin, TX",71.0,7108.0,9750000.0,,False,False,Austin,TX,78746.0,USA,America/Chicago,Match,,Limited,WGC-Dell Technologies Match Play,World Golf Championships-Dell Technologies Match Play,Austin Country Club,"Austin, TX"
396,120,Arnold Palmer Invitational presented by Mastercard,2017-03-16,2017-03-19,True,False,Bay Hill Club & Lodge,"Orlando, FL",72.0,7419.0,8700000.0,2017-03-16T00:00:00,False,True,Orlando,FL,32819.0,USA,America/New York,Stroke,,Full,Arnold Palmer Invitational,Arnold Palmer Invitational presented by Mastercard,Arnold Palmer's Bay Hill Club & Lodge,"Orlando, FL"
397,119,Valspar Championship,2017-03-09,2017-03-12,True,False,Innisbrook Resort (Copperhead),"Palm Harbor, FL",71.0,7340.0,6300000.0,2017-03-09T00:00:00,False,True,Palm Harbor,FL,34683.0,USA,America/New York,Stroke,,Full,Valspar Championship,Valspar Championship,Innisbrook Resort (Copperhead Course),"Palm Harbor, FL"
398,201,World Golf Championships-Mexico Championship,2017-03-02,2017-03-05,True,False,Club de Golf Chapultepec,"Mexico City, Mex",71.0,7330.0,9750000.0,2017-03-02T00:00:00,False,True,Mexico City,,,MEX,America/Mexico City,Stroke,,Full,WGC-Mexico Championship,World Golf Championships-Mexico Championship,Club De Golf Chapultepec,"Mexico City, Mexico"
399,118,The Honda Classic,2017-02-23,2017-02-26,True,False,PGA National (Champion),"Palm Beach Gardens, FL",70.0,7140.0,6400000.0,2017-02-23T00:00:00,False,True,Palm Beach Gardens,FL,33418.0,USA,America/New York,Stroke,,Full,Cognizant Classic,The Honda Classic,PGA National Resort & Spa (The Champion),"Palm Beach Gardens, FL"
400,117,Genesis Open,2017-02-16,2017-02-19,True,False,Riviera CC,"Pacific Palisades, CA",71.0,7322.0,7000000.0,2017-02-16T00:00:00,False,True,Pacific Palisades,CA,90272.0,USA,America/Los Angeles,Stroke,,Full,Genesis Open,Genesis Open,Riviera Country Club,"Pacific Palisades, CA"
401,116,AT&T Pebble Beach Pro-Am,2017-02-09,2017-02-12,True,False,Pebble Beach GL,"Pebble Beach, CA",71.0,6958.0,7200000.0,2017-02-09T00:00:00,False,True,Pebble Beach,CA,93953.0,USA,America/Los Angeles,Stroke,,Full,AT&T Pebble Beach Pro-Am,AT&T Pebble Beach Pro-Am,Spyglass Hill GC,"Pebble Beach, CA"
402,115,Waste Management Phoenix Open,2017-02-02,2017-02-05,True,False,TPC Scottsdale,"Scottsdale, AZ",71.0,7216.0,6700000.0,2017-02-02T00:00:00,False,True,Scottsdale,AZ,85255.0,USA,America/Phoenix,Stroke,,Full,Waste Management Phoenix Open,Waste Management Phoenix Open,TPC Scottsdale (Stadium Course),"Scottsdale, AZ"
403,114,Farmers Insurance Open,2017-01-26,2017-01-29,True,False,Torrey Pines GC (South),"San Diego, CA",72.0,7698.0,6700000.0,2017-01-26T00:00:00,False,True,San Diego,CA,92037.0,USA,America/Los Angeles,Stroke,,Full,Farmers Insurance Open,Farmers Insurance Open,Torrey Pines (North Course),"La Jolla, CA"
404,113,CareerBuilder Challenge,2017-01-19,2017-01-22,True,False,Stadium Course,"La Quinta, CA",72.0,7113.0,5800000.0,2017-01-19T00:00:00,False,True,La Quinta,CA,92253.0,USA,America/Los Angeles,Stroke,,Full,Desert Classic,CareerBuilder Challenge,La Quinta Country Club,"La Quinta, CA"
405,112,Sony Open in Hawaii,2017-01-12,2017-01-15,True,False,Waialae CC,"Honolulu, HI",70.0,7044.0,6000000.0,2017-01-12T00:00:00,False,True,Honolulu,HI,,USA,Pacific/Honolulu,Stroke,,Full,Sony Open in Hawaii,Sony Open in Hawaii,Waialae Country Club,"Honolulu, HI"
406,160,SBS Tournament of Champions,2017-01-05,2017-01-08,True,False,Plantation Course at Kapalua,"Kapalua, Maui, HI",73.0,7452.0,6100000.0,2017-01-05T00:00:00,False,True,"Kapalua, Maui",HI,,USA,Pacific/Honolulu,Stroke,,Full,Tournament of Champions,SBS Tournament of Champions,Kapalua Resort (Plantation Course),"Kapalua, HI"
407,203,Franklin Templeton Shootout,2016-12-08,2016-12-10,True,False,Tiburon GC,"Naples, FL",72.0,6556.0,3100000.0,,False,True,Naples,FL,,USA,America/New York,Stroke,,Full,QBE Shootout,QBE Shootout,Tiburón Golf Course,"Naples, FL"
408,110,Hero World Challenge,2016-12-01,2016-12-04,True,False,Albany,"New Providence, Bah",72.0,7302.0,3500000.0,2016-12-01T00:00:00,False,True,New Providence,,,BAH,America/Nassau,Stroke,,Full,Hero World Challenge,Hero World Challenge,Albany,"New Providence, Bahamas"
409,202,ISPS HANDA World Cup of Golf,2016-11-24,2016-11-27,True,False,Kingston Heath Golf Club,"Melbourne, Aus",,,8000000.0,,False,True,Melbourne,,,AUS,Australia/Hobart,Stroke,,Full,World Cup of Golf,,Kingston Heath Golf Club,"Melbourne, Aus"
410,109,The RSM Classic,2016-11-17,2016-11-20,True,False,Sea Island Resort (Seaside),"Sea Island, GA",72.0,7058.0,6000000.0,2016-11-17T00:00:00,False,True,Sea Island,GA,,USA,America/New York,Stroke,,Full,RSM Classic,The RSM Classic,Sea Island Resort (Seaside Course),"Saint Simons Island, GA"
411,108,OHL Classic at Mayakoba,2016-11-10,2016-11-13,True,False,El Camaleon GC,"Playa del Carmen, Mex",71.0,6987.0,7000010.0,2016-11-10T00:00:00,False,True,Playa del Carmen,,,Mex,America/Cancun,Stroke,,Full,World Wide Technology Championship,OHL Classic at Mayakoba,El Camaleón Golf Course at Mayakoba,"Quintana Roo, Mexico"
412,107,Shriners Hospitals for Children Open,2016-11-03,2016-11-06,True,False,TPC Summerlin,"Las Vegas, NV",71.0,7255.0,6600000.0,2016-11-03T00:00:00,False,True,Las Vegas,NV,,USA,America/Los Angeles,Stroke,,Full,Shriners Children's Open,Shriners Hospitals for Children Open,TPC Summerlin,"Las Vegas, NV"
413,105,Sanderson Farms Championship,2016-10-27,2016-10-30,True,False,CC of Jackson,"Jackson, MS",72.0,7421.0,4200000.0,2016-10-27T00:00:00,False,True,Jackson,MS,,USA,America/Chicago,Stroke,,Full,Sanderson Farms Championship,Sanderson Farms Championship,Country Club of Jackson,"Jackson, MS"
414,106,World Golf Championships-HSBC Champions,2016-10-27,2016-10-30,True,False,Sheshan International GC,"Shanghai, Chn",72.0,7261.0,9500000.0,2016-10-26T00:00:00,False,True,Shanghai,,,CHN,Asia/Shanghai,Stroke,,Full,WGC-HSBC Champions,World Golf Championships-HSBC Champions,Sheshan International GC,"Shanghai, China"
415,104,CIMB Classic,2016-10-20,2016-10-23,True,False,TPC Kuala Lumpur,"Kuala Lumpur, Mas",72.0,7005.0,7000000.0,2016-10-20T00:00:00,False,True,Kuala Lumpur,,,MAS,Asia/Kuala Lumpur,Stroke,,Full,CIMB Classic,CIMB Classic,TPC Kuala Lumpur,"Kuala Lumpur, Malaysia"
416,103,Safeway Open,2016-10-13,2016-10-16,True,False,Silverado Resort and Spa North,"Napa, CA",72.0,7203.0,6000000.0,2016-10-13T00:00:00,False,True,Napa,CA,,USA,America/Los Angeles,Stroke,,Full,Fortinet Championship,Safeway Open,Silverado Resort and Spa (North Course),"Napa, CA"
417,96,Ryder Cup,2016-09-30,2016-10-02,True,False,Hazeltine National Golf Club,"Chaska, MN",72.0,7674.0,,,False,True,,,,,,,,Full,The Ryder Cup,Ryder Cup,Hazeltine National Golf Club,"Chaska, MN"
418,95,TOUR Championship,2016-09-22,2016-09-25,True,False,East Lake GC,"Atlanta, GA",70.0,7385.0,8500000.0,2016-09-22T00:00:00,False,True,,,,,,,,Full,The TOUR Championship,TOUR Championship,East Lake Golf Club,"Atlanta, GA"
419,94,BMW Championship,2016-09-08,2016-09-11,True,False,Crooked Stick GC,"Carmel, IN",72.0,7567.0,8500000.0,2016-09-08T00:00:00,False,True,,,,,,,,Full,BMW PGA Championship,BMW Championship,Crooked Stick Golf Course,"Carmel, IN"
420,93,Deutsche Bank Championship,2016-09-02,2016-09-05,True,False,TPC Boston,"Norton, MA",71.0,7297.0,8500000.0,2016-09-02T00:00:00,False,True,,,,,,,,Full,Deutsche Bank Championship,Deutsche Bank Championship,TPC Boston,"Norton, MA"
421,92,The Barclays,2016-08-25,2016-08-28,True,False,Bethpage State Park (Black),"Farmingdale, NY",71.0,7468.0,8500000.0,2016-08-25T00:00:00,False,True,,,,,,,,Full,The Barclays,The Barclays,Bethpage State Park,"Bethpage, NY"
422,91,Wyndham Championship,2016-08-18,2016-08-21,True,False,Sedgefield CC,"Greensboro, NC",70.0,7127.0,5600000.0,2016-08-18T00:00:00,False,True,,,,,,,,Full,Wyndham Championship,Wyndham Championship,Sedgefield Country Club,"Greensboro, NC"
423,90,John Deere Classic,2016-08-11,2016-08-14,True,False,TPC Deere Run,"Silvis, IL",71.0,7268.0,4800000.0,2016-08-11T00:00:00,False,True,,,,,,,,Full,John Deere Classic,John Deere Classic,TPC Deere Run,"Silvis, IL"
424,89,Travelers Championship,2016-08-04,2016-08-07,True,False,TPC River Highlands,"Cromwell, CT",70.0,6841.0,6600000.0,2016-08-04T00:00:00,False,True,,,,,,,,Full,Travelers Championship,Travelers Championship,TPC River Highlands,"Cromwell, CT"
425,88,PGA Championship,2016-07-28,2016-07-31,True,False,Baltusrol GC,"Springfield, NJ",70.0,7428.0,10000000.0,2016-07-28T00:00:00,False,True,,,,,,,,Full,PGA Championship,PGA Championship,Baltusrol GC,"Springfield, NJ"
426,87,RBC Canadian Open,2016-07-21,2016-07-24,True,False,Glen Abbey GC,"Oakville,Ontario, Canada",72.0,7253.0,5900000.0,2016-07-21T00:00:00,False,True,,,,,,,,Full,RBC Canadian Open,RBC Canadian Open,Glen Abbey GC,"Oakville, ON"
427,102,The Open,2016-07-14,2016-07-17,True,False,Royal Troon GC,"Ayrshire, Scotland",71.0,7190.0,9300000.0,2016-07-14T01:35:00,False,True,,,,,,,,Full,The Open Championship,The Open,Royal Troon Golf Course,"Troon, Scotland"
428,86,Barbasol Championship,2016-07-14,2016-07-17,True,False,RTJ Trail (Grand National),"Auburn, AL",71.0,7302.0,3500000.0,2016-07-14T08:20:00,False,True,,,,,,,,Full,Barbasol Championship,Barbasol Championship,RTJ Trail Grand National Lake,"Auburn, AL"
429,85,The Greenbrier Classic - CANCELED,2016-07-07,2016-07-10,True,False,The Greenbrier,"White Sulphur Springs, WV",70.0,7287.0,6900000.0,,True,False,,,,,,,,,Greenbrier Classic,,The Old White Course,"White Sulphur Springs, WV"
430,101,World Golf Championships-Bridgestone Invitational,2016-06-30,2016-07-03,True,False,Firestone CC (South),"Akron, OH",70.0,7400.0,9500000.0,2016-06-30T10:00:00,False,True,,,,,,,,Full,WGC-Bridgestone Invitational,World Golf Championships-Bridgestone Invitational,Firestone CC (South Course),"Akron, OH"
431,83,Quicken Loans National,2016-06-23,2016-06-26,True,False,Congressional CC (Blue),"Bethesda, MD",71.0,7569.0,6900000.0,2016-06-23T07:36:00,False,True,,,,,,,,Full,Quicken Loans National,Quicken Loans National,Congressional Country Club,"Bethesda, MD"
432,82,U.S. Open,2016-06-16,2016-06-19,True,False,Oakmont CC,"Oakmont, PA",70.0,7274.0,10000000.0,2016-06-16T06:45:00,False,True,,,,,,,,Full,U.S. Open,U.S. Open,Oakmont Country Club,"Oakmont, PA"
433,81,FedEx St. Jude Classic,2016-06-09,2016-06-12,True,False,TPC Southwind,"Memphis, TN",70.0,7244.0,6200000.0,2016-06-09T08:00:00,False,True,,,,,,,,Full,St. Jude Championship,FedEx St. Jude Classic,TPC Southwind,"Memphis, TN"
434,80,the Memorial Tournament presented by Nationwide,2016-06-02,2016-06-05,True,False,Muirfield Village GC,"Dublin, OH",72.0,7392.0,8500000.0,2016-06-02T07:20:00,False,True,,,,,,,,Full,Memorial Tournament,the Memorial Tournament presented by Nationwide,Muirfield Village Golf Club,"Dublin, OH"
435,79,DEAN & DELUCA Invitational,2016-05-26,2016-05-29,True,False,Colonial CC,"Ft. Worth, TX",70.0,7209.0,6700000.0,2016-05-26T08:00:00,False,True,,,,,,,,Full,Colonial National Invitation,DEAN & DELUCA Invitational,Colonial Country Club,"Fort Worth, TX"
436,78,AT&T Byron Nelson,2016-05-19,2016-05-22,True,False,TPC Four Seasons Resort,"Irving, TX",70.0,7166.0,7300000.0,2016-05-19T10:30:00,False,True,,,,,,,,Full,AT&T Byron Nelson,AT&T Byron Nelson,TPC Four Seasons Resort,"Irving, TX"
437,77,THE PLAYERS Championship,2016-05-12,2016-05-15,True,False,TPC Sawgrass,"Ponte Vedra Beach, FL",72.0,7215.0,10500000.0,2016-05-12T07:15:00,False,True,,,,,,,,Full,THE PLAYERS Championship,THE PLAYERS Championship,TPC Sawgrass (THE PLAYERS Stadium Course),"Ponte Vedra Beach, FL"
438,76,Wells Fargo Championship,2016-05-05,2016-05-08,True,False,Quail Hollow Club,"Charlotte, NC",72.0,7575.0,7300000.0,2016-05-05T07:00:00,False,True,,,,,,,,Full,Wells Fargo Championship,Wells Fargo Championship,Quail Hollow Club,"Charlotte, NC"
439,75,Zurich Classic of New Orleans,2016-04-28,2016-05-01,True,False,TPC Louisiana,"Avondale, LA",72.0,7425.0,7000000.0,,False,True,,,,,,,,Full,Zurich Classic of New Orleans,Zurich Classic of New Orleans,TPC Louisiana,"Avondale, LA"
440,74,Valero Texas Open,2016-04-21,2016-04-24,True,False,JW Marriott TPC San Antonio,"San Antonio, TX",72.0,7435.0,6200000.0,,False,True,,,,,,,,Full,Valero Texas Open,Valero Texas Open,TPC San Antonio (Oaks Course),"San Antonio, TX"
441,73,RBC Heritage,2016-04-14,2016-04-17,True,False,Harbour Town GL,"Hilton Head, SC",71.0,7101.0,5900000.0,,False,True,,,,,,,,Full,RBC Heritage,RBC Heritage,Harbour Town Golf Links,"Hilton Head Island, SC"
442,72,Masters Tournament,2016-04-07,2016-04-10,True,False,Augusta National GC,"Augusta, GA",72.0,7435.0,10000000.0,,False,True,,,,,,,,Full,The Masters Tournament,Masters Tournament,Augusta National Golf Club,"Augusta, GA"
443,71,Shell Houston Open,2016-03-31,2016-04-03,True,False,GC of Houston,"Humble, TX",72.0,7441.0,6800000.0,,False,True,,,,,,,,Full,Houston Open,Shell Houston Open,Golf Club of Houston,"Houston, TX"
444,70,Puerto Rico Open at Coco Beach,2016-03-24,2016-03-27,True,False,Coco Beach Golf & CC,Rio Grande,72.0,7506.0,3000000.0,,False,True,,,,,,,,Full,Puerto Rico Open,Puerto Rico Open at Coco Beach,Grand Reserve Country Club,"Rio Grande, Puerto Rico"
445,69,World Golf Championships-Dell Match Play,2016-03-23,2016-03-27,True,False,Austin Country Club,"Austin, TX",72.0,6625.0,9500000.0,,False,True,,,,,,,,Full,WGC-Dell Technologies Match Play,World Golf Championships-Dell Match Play,Austin Country Club,"Austin, TX"
446,68,Arnold Palmer Invitational presented by MasterCard,2016-03-17,2016-03-20,True,False,Bay Hill Club & Lodge,"Orlando, FL",72.0,7419.0,6300000.0,,False,True,,,,,,,,Full,Arnold Palmer Invitational,Arnold Palmer Invitational presented by MasterCard,Arnold Palmer's Bay Hill Club & Lodge,"Orlando, FL"
447,67,Valspar Championship,2016-03-10,2016-03-13,True,False,Innisbrook Resort (Copperhead),"Palm Harbor, FL",71.0,7340.0,6100000.0,,False,True,,,,,,,,Full,Valspar Championship,Valspar Championship,Innisbrook Resort (Copperhead Course),"Palm Harbor, FL"
448,66,World Golf Championships-Cadillac Championship,2016-03-03,2016-03-06,True,False,Trump National Doral,"Miami, FL",72.0,7543.0,9500000.0,,False,True,,,,,,,,Full,WGC-Cadillac Championship,World Golf Championships-Cadillac Championship,Trump National Doral Golf Course,"Doral, FL"
449,65,The Honda Classic,2016-02-25,2016-02-28,True,False,PGA National (Champion),"Palm Beach Gardens, FL",70.0,7140.0,6100000.0,,False,True,,,,,,,,Full,Cognizant Classic,The Honda Classic,PGA National Resort & Spa (The Champion),"Palm Beach Gardens, FL"
450,64,Northern Trust Open,2016-02-18,2016-02-21,True,False,Riviera CC,"Pacific Palisades, CA",71.0,7322.0,6800000.0,,False,True,,,,,,,,Full,Northern Trust Open,Northern Trust Open,Riviera Country Club,"Pacific Palisades, CA"
451,63,AT&T Pebble Beach Pro-Am,2016-02-11,2016-02-14,True,False,Spyglass Hill GC,"Pebble Beach, CA",72.0,6953.0,7000000.0,,False,True,,,,,,,,Full,AT&T Pebble Beach Pro-Am,AT&T Pebble Beach Pro-Am,Spyglass Hill GC,"Pebble Beach, CA"
452,62,Waste Management Phoenix Open,2016-02-04,2016-02-07,True,False,TPC Scottsdale,"Scottsdale, AZ",71.0,7266.0,6500000.0,,False,True,,,,,,,,Full,Waste Management Phoenix Open,Waste Management Phoenix Open,TPC Scottsdale (Stadium Course),"Scottsdale, AZ"
453,61,Farmers Insurance Open,2016-01-28,2016-02-01,True,False,Torrey Pines (North),"San Diego, CA",72.0,7052.0,6500000.0,,False,True,,,,,,,,Full,Farmers Insurance Open,Farmers Insurance Open,Torrey Pines (North Course),"La Jolla, CA"
454,60,CareerBuilder Challenge in partnership with the Clinton Foundation,2016-01-21,2016-01-24,True,False,La Quinta CC,"La Quinta, CA",72.0,7060.0,5800000.0,,False,True,,,,,,,,Full,Desert Classic,CareerBuilder Challenge in partnership with the Clinton Foundation,La Quinta Country Club,"La Quinta, CA"
455,59,Sony Open in Hawaii,2016-01-14,2016-01-17,True,False,Waialae CC,"Honolulu, HI",70.0,7044.0,5800000.0,,False,True,,,,,,,,Full,Sony Open in Hawaii,Sony Open in Hawaii,Waialae Country Club,"Honolulu, HI"
456,58,Hyundai Tournament of Champions,2016-01-07,2016-01-10,True,False,Plantation Course at Kapalua,"Kapalua, Maui, HI",73.0,7452.0,5900000.0,,False,True,,,,,,,,Full,Tournament of Champions,Hyundai Tournament of Champions,Kapalua Resort (Plantation Course),"Kapalua, HI"
457,1,Hero World Challenge,2015-12-03,2015-12-06,True,False,Albany,,72.0,7267.0,3500000.0,,False,True,,,,,,,,Full,Hero World Challenge,Hero World Challenge,Albany,"New Providence, Bahamas"
458,6,The RSM Classic,2015-11-19,2015-11-22,True,False,Sea Island Resort (Seaside),"Sea Island, GA",70.0,7005.0,5700000.0,,False,True,,,,,,,,Full,RSM Classic,The RSM Classic,Sea Island Resort (Seaside Course),"Saint Simons Island, GA"
459,56,OHL Classic at Mayakoba,2015-11-12,2015-11-16,True,False,El Camaleon GC,"Riviera Maya, Mexico",71.0,6987.0,6200000.0,,False,True,,,,,,,,Full,World Wide Technology Championship,OHL Classic at Mayakoba,El Camaleón Golf Course at Mayakoba,"Quintana Roo, Mexico"
460,53,Sanderson Farms Championship,2015-11-05,2015-11-09,True,False,CC of Jackson,"Jackson, MS",72.0,7364.0,4100000.0,,False,True,,,,,,,,Full,Sanderson Farms Championship,Sanderson Farms Championship,Country Club of Jackson,"Jackson, MS"
461,55,World Golf Championships-HSBC Champions,2015-11-05,2015-11-08,True,False,Sheshan International GC,"Shanghai, China",72.0,7261.0,8500000.0,,False,True,,,,,,,,Full,WGC-HSBC Champions,World Golf Championships-HSBC Champions,Sheshan International GC,"Shanghai, China"
462,5,CIMB Classic,2015-10-29,2015-11-01,True,False,Kuala Lumpur Golf and Country Club,"Kuala Lumpur, Malaysia",72.0,6985.0,7000000.0,,False,True,,,,,,,,Full,CIMB Classic,CIMB Classic,TPC Kuala Lumpur,"Kuala Lumpur, Malaysia"
463,54,Shriners Hospitals for Children Open,2015-10-22,2015-10-25,True,False,TPC Summerlin,"Las Vegas, NV",71.0,7255.0,6400000.0,,False,True,,,,,,,,Full,Shriners Children's Open,Shriners Hospitals for Children Open,TPC Summerlin,"Las Vegas, NV"
464,57,Frys.com Open,2015-10-15,2015-10-18,True,False,Silverado CC (North),"Napa, CA",72.0,7203.0,6000000.0,,False,True,,,,,,,,Full,Frys.com Open,Frys.com Open,Silverado Resort and Spa (North Course),"Napa, CA"
465,38,TOUR Championship by Coca-Cola,2015-09-24,2015-09-27,True,False,East Lake GC,"Atlanta, GA",70.0,7307.0,8250000.0,,False,True,,,,,,,,Full,The TOUR Championship,TOUR Championship by Coca-Cola,East Lake Golf Club,"Atlanta, GA"
466,29,BMW Championship,2015-09-17,2015-09-20,True,False,Conway Farms GC,"Lake Forest, IL",71.0,7198.0,8250000.0,,False,True,,,,,,,,Full,BMW PGA Championship,BMW Championship,Conway Farms Golf Club,"Lake Forest, IL"
467,44,Deutsche Bank Championship,2015-09-04,2015-09-07,True,False,TPC Boston,"Norton, MA",71.0,7242.0,8250000.0,,False,True,,,,,,,,Full,Deutsche Bank Championship,Deutsche Bank Championship,TPC Boston,"Norton, MA"
468,25,The Barclays,2015-08-27,2015-08-30,True,False,Plainfield CC,"Edison, NJ",70.0,7012.0,8250000.0,,False,True,,,,,,,,Full,The Barclays,The Barclays,Plainfield CC,"Edison, NJ"
469,20,Wyndham Championship,2015-08-20,2015-08-23,True,False,Sedgefield CC,"Greensboro, NC",70.0,7127.0,5400000.0,,False,True,,,,,,,,Full,Wyndham Championship,Wyndham Championship,Sedgefield Country Club,"Greensboro, NC"
470,32,PGA Championship,2015-08-13,2015-08-16,True,False,Whistling Straits,"Kohler, WI",72.0,7507.0,10000000.0,,False,True,,,,,,,,Full,PGA Championship,PGA Championship,Whistling Straits (Straits Course),"Kohler, WI"
471,33,World Golf Championships-Bridgestone Invitational,2015-08-06,2015-08-09,True,False,Firestone CC (South),"Akron, OH",70.0,7400.0,9250000.0,,False,True,,,,,,,,Full,WGC-Bridgestone Invitational,World Golf Championships-Bridgestone Invitational,Firestone CC (South Course),"Akron, OH"
472,40,Barracuda Championship,2015-08-06,2015-08-09,True,False,Montreux G&CC,"Reno, NV",72.0,7472.0,3100000.0,,False,True,,,,,,,,Full,Barracuda Championship,Barracuda Championship,Montreux G&CC,"Reno, NV"
473,47,Quicken Loans National,2015-07-30,2015-08-02,True,False,Robert Trent Jones GC,"Gainesville, VA",71.0,7385.0,6700000.0,,False,True,,,,,,,,Full,Quicken Loans National,Quicken Loans National,Robert Trent Jones Golf Club,"Gainesville, VA"
474,34,RBC Canadian Open,2015-07-23,2015-07-26,True,False,Glen Abbey GC,"Oakville,Ontario, Canada",72.0,7253.0,5800000.0,,False,True,,,,,,,,Full,RBC Canadian Open,RBC Canadian Open,Glen Abbey GC,"Oakville, ON"
475,30,The Open,2015-07-16,2015-07-20,True,False,St Andrews Links (Old Course),"Fife, Scotland",72.0,7297.0,9200000.0,,False,True,,,,,,,,Full,The Open Championship,The Open,St Andrews Links (Old Course),"St. Andrews, Scotland"
476,35,John Deere Classic,2015-07-09,2015-07-12,True,False,TPC Deere Run,"Silvis, IL",71.0,7268.0,4700000.0,,False,True,,,,,,,,Full,John Deere Classic,John Deere Classic,TPC Deere Run,"Silvis, IL"
477,49,The Greenbrier Classic,2015-07-02,2015-07-05,True,False,The Old White TPC,"White Sulphur Springs, WV",70.0,7287.0,6700000.0,,False,True,,,,,,,,Full,Greenbrier Classic,The Greenbrier Classic,The Old White Course,"White Sulphur Springs, WV"
478,28,Travelers Championship,2015-06-25,2015-06-28,True,False,TPC River Highlands,"Cromwell, CT",70.0,6841.0,6400000.0,,False,True,,,,,,,,Full,Travelers Championship,Travelers Championship,TPC River Highlands,"Cromwell, CT"
479,26,U.S. Open,2015-06-18,2015-06-21,True,False,Chambers Bay GC,"University Place, WA",70.0,7710.0,10000000.0,,False,True,,,,,,,,Full,U.S. Open,U.S. Open,Chambers Bay GC,"University Place, WA"
480,27,FedEx St. Jude Classic,2015-06-11,2015-06-14,True,False,TPC Southwind,"Memphis, TN",70.0,7239.0,6000000.0,,False,True,,,,,,,,Full,St. Jude Championship,FedEx St. Jude Classic,TPC Southwind,"Memphis, TN"
481,24,the Memorial Tournament presented by Nationwide,2015-06-04,2015-06-07,True,False,Muirfield Village GC,"Dublin, OH",72.0,7392.0,6200000.0,,False,True,,,,,,,,Full,Memorial Tournament,the Memorial Tournament presented by Nationwide,Muirfield Village Golf Club,"Dublin, OH"
482,22,AT&T Byron Nelson,2015-05-28,2015-05-31,True,False,TPC Four Seasons Resort,"Irving, TX",70.0,7166.0,7100000.0,,False,True,,,,,,,,Full,AT&T Byron Nelson,AT&T Byron Nelson,TPC Four Seasons Resort,"Irving, TX"
483,23,Crowne Plaza Invitational at  Colonial,2015-05-21,2015-05-24,True,False,Colonial CC,"Ft. Worth, TX",70.0,7204.0,6500000.0,,False,True,,,,,,,,Full,Colonial National Invitation,Crowne Plaza Invitational at  Colonial,Colonial Country Club,"Fort Worth, TX"
484,43,Wells Fargo Championship,2015-05-14,2015-05-17,True,False,Quail Hollow Club,"Charlotte, NC",72.0,7562.0,7100000.0,,False,True,,,,,,,,Full,Wells Fargo Championship,Wells Fargo Championship,Quail Hollow Club,"Charlotte, NC"
485,17,THE PLAYERS Championship,2015-05-07,2015-05-10,True,False,TPC Sawgrass,"Ponte Vedra Beach, FL",70.0,6847.0,10000000.0,,False,True,,,,,,,,Full,THE PLAYERS Championship,THE PLAYERS Championship,TPC Sawgrass (THE PLAYERS Stadium Course),"Ponte Vedra Beach, FL"
486,16,Zurich Classic of New Orleans,2015-04-23,2015-04-26,True,False,TPC Louisiana,"Avondale, LA",72.0,7425.0,6900000.0,,False,True,,,,,,,,Full,Zurich Classic of New Orleans,Zurich Classic of New Orleans,TPC Louisiana,"Avondale, LA"
487,19,RBC Heritage,2015-04-16,2015-04-19,True,False,Harbour Town GL,"Hilton Head, SC",71.0,7101.0,5900000.0,,False,True,,,,,,,,Full,RBC Heritage,RBC Heritage,Harbour Town Golf Links,"Hilton Head Island, SC"
488,18,Masters Tournament,2015-04-09,2015-04-12,True,False,Augusta National GC,"Augusta, GA",72.0,7435.0,10000000.0,,False,True,,,,,,,,Full,The Masters Tournament,Masters Tournament,Augusta National Golf Club,"Augusta, GA"
489,21,Shell Houston Open,2015-04-02,2015-04-05,True,False,GC of Houston,"Humble, TX",72.0,7441.0,6600000.0,,False,True,,,,,,,,Full,Houston Open,Shell Houston Open,Golf Club of Houston,"Houston, TX"
490,37,Valero Texas Open,2015-03-26,2015-03-29,True,False,JW Marriott TPC San Antonio,"San Antonio, TX",72.0,6923.0,6200000.0,,False,True,,,,,,,,Full,Valero Texas Open,Valero Texas Open,TPC San Antonio (Oaks Course),"San Antonio, TX"
491,15,Arnold Palmer Invitational presented by MasterCard,2015-03-19,2015-03-22,True,False,Bay Hill Club & Lodge,"Orlando, FL",72.0,7419.0,6300000.0,,False,True,,,,,,,,Full,Arnold Palmer Invitational,Arnold Palmer Invitational presented by MasterCard,Arnold Palmer's Bay Hill Club & Lodge,"Orlando, FL"
492,39,Valspar Championship,2015-03-12,2015-03-15,True,False,Innisbrook Resort (Copperhead),"Palm Harbor, FL",71.0,7340.0,5900000.0,,False,True,,,,,,,,Full,Valspar Championship,Valspar Championship,Innisbrook Resort (Copperhead Course),"Palm Harbor, FL"
493,48,Puerto Rico Open,2015-03-05,2015-03-08,True,False,Coco Beach Golf & CC,Rio Grande,72.0,7528.0,3000000.0,,False,True,,,,,,,,Full,Puerto Rico Open,Puerto Rico Open,Grand Reserve Country Club,"Rio Grande, Puerto Rico"
494,41,World Golf Championships-Cadillac Championship,2015-03-05,2015-03-08,True,False,Trump National Doral,"Miami, FL",72.0,7528.0,9250000.0,,False,True,,,,,,,,Full,WGC-Cadillac Championship,World Golf Championships-Cadillac Championship,Trump National Doral Golf Course,"Doral, FL"
495,14,The Honda Classic,2015-02-26,2015-03-02,True,False,PGA National (Champion),"Palm Beach Gardens, FL",70.0,7140.0,6100000.0,,False,True,,,,,,,,Full,Cognizant Classic,The Honda Classic,PGA National Resort & Spa (The Champion),"Palm Beach Gardens, FL"
496,13,Northern Trust Open,2015-02-19,2015-02-22,True,False,Riviera CC,"Pacific Palisades, CA",71.0,7349.0,6700000.0,,False,True,,,,,,,,Full,Northern Trust Open,Northern Trust Open,Riviera Country Club,"Pacific Palisades, CA"
497,10,AT&T Pebble Beach National Pro-Am,2015-02-12,2015-02-15,True,False,Spyglass Hill GC,"Pebble Beach, CA",72.0,6953.0,6800000.0,,False,True,,,,,,,,Full,AT&T Pebble Beach Pro-Am,AT&T Pebble Beach National Pro-Am,Spyglass Hill GC,"Pebble Beach, CA"
498,11,Farmers Insurance Open,2015-02-05,2015-02-08,True,False,Torrey Pines (North),"San Diego, CA",72.0,7052.0,6300000.0,,False,True,,,,,,,,Full,Farmers Insurance Open,Farmers Insurance Open,Torrey Pines (North Course),"La Jolla, CA"
499,9,Waste Management Phoenix Open,2015-01-29,2015-02-01,True,False,TPC Scottsdale,"Scottsdale, AZ",71.0,7266.0,6300000.0,,False,True,,,,,,,,Full,Waste Management Phoenix Open,Waste Management Phoenix Open,TPC Scottsdale (Stadium Course),"Scottsdale, AZ"
500,8,Humana Challenge in partnership with the Clinton Foundation,2015-01-22,2015-01-25,True,False,PGA West (Palmer),"La Quinta, CA",72.0,6950.0,5700000.0,,False,True,,,,,,,,Full,Desert Classic,Humana Challenge in partnership with the Clinton Foundation,La Quinta Country Club,"La Quinta, CA"
501,12,Sony Open in Hawaii,2015-01-15,2015-01-18,True,False,Waialae CC,"Honolulu, HI",70.0,7044.0,5600000.0,,False,True,,,,,,,,Full,Sony Open in Hawaii,Sony Open in Hawaii,Waialae Country Club,"Honolulu, HI"
502,7,Hyundai Tournament of Champions,2015-01-09,2015-01-12,True,False,Plantation Course at Kapalua,"Kapalua, Maui, HI",73.0,7452.0,5700000.0,,False,True,,,,,,,,Full,Tournament of Champions,Hyundai Tournament of Champions,Kapalua Resort (Plantation Course),"Kapalua, HI"
503,52,Hero World Challenge,2014-12-04,2014-12-07,True,False,Isleworth G&CC,,72.0,7267.0,3500000.0,,False,True,,,,,,,,Full,Hero World Challenge,Hero World Challenge,Isleworth G&CC,"Windermere, FL"
504,45,OHL Classic at Mayakoba,2014-11-13,2014-11-16,True,False,El Camaleon GC,"Riviera Maya, Mexico",71.0,6987.0,6100000.0,,False,True,,,,,,,,Full,World Wide Technology Championship,OHL Classic at Mayakoba,El Camaleón Golf Course at Mayakoba,"Quintana Roo, Mexico"
505,31,Sanderson Farms Championship,2014-11-06,2014-11-09,True,False,CC of Jackson,"Jackson, MS",72.0,7364.0,4000000.0,,False,True,,,,,,,,Full,Sanderson Farms Championship,Sanderson Farms Championship,Country Club of Jackson,"Jackson, MS"
506,42,World Golf Championships-HSBC Champions,2014-11-06,2014-11-09,True,False,Sheshan International GC,"Shanghai, China",72.0,7261.0,8500000.0,,False,True,,,,,,,,Full,WGC-HSBC Champions,World Golf Championships-HSBC Champions,Sheshan International GC,"Shanghai, China"
507,50,CIMB Classic,2014-10-30,2014-11-02,True,False,Kuala Lumpur G&CC,"Kuala Lumpur, Malaysia",72.0,6985.0,7000000.0,,False,True,,,,,,,,Full,CIMB Classic,CIMB Classic,TPC Kuala Lumpur,"Kuala Lumpur, Malaysia"
508,51,The McGladrey Classic,2014-10-23,2014-10-26,True,False,Sea Island Resort (Seaside),"Sea Island, GA",70.0,7005.0,5600000.0,,False,True,,,,,,,,Full,RSM Classic,The McGladrey Classic,Sea Island Resort (Seaside Course),"Saint Simons Island, GA"
509,36,Shriners Hospitals for Children Open,2014-10-16,2014-10-19,True,False,TPC Summerlin,"Las Vegas, NV",71.0,7255.0,6200000.0,,False,True,,,,,,,,Full,Shriners Children's Open,Shriners Hospitals for Children Open,TPC Summerlin,"Las Vegas, NV"
510,46,Frys.com Open,2014-10-09,2014-10-12,True,False,Silverado CC (North),"Napa, CA",72.0,7203.0,6000000.0,,False,True,,,,,,,,Full,Frys.com Open,Frys.com Open,Silverado Resort and Spa (North Course),"Napa, CA"
